{"type":"FeatureCollection","features":[{"type":"Feature","properties":{"area":"Cerro de la Estrella (local)","zona":"Zona de Recuperación","zona_k":"recuperacion","ha":71.14},"geometry":{"type":"MultiPolygon","coordinates":[[[[-99.091052,19.350802],[-99.091047,19.350594],[-99.091039,19.350454],[-99.091014,19.350236],[-99.09103,19.349999],[-99.091055,19.349821],[-99.091071,19.349681],[-99.091112,19.34951],[-99.090936,19.349483],[-99.090629,19.349456],[-99.090621,19.349553],[-99.090233,19.349549],[-99.090233,19.349503],[-99.089644,19.349488],[-99.089567,19.349483],[-99.089468,19.349482],[-99.089469,19.349473],[-99.089178,19.349447],[-99.089178,19.349451],[-99.088665,19.349412],[-99.088638,19.349578],[-99.08863,19.349638],[-99.088558,19.34962],[-99.088351,19.3496],[-99.088346,19.349697],[-99.086851,19.350027],[-99.086887,19.348324],[-99.086883,19.348296],[-99.086797,19.348115],[-99.086602,19.348286],[-99.08656,19.348241],[-99.085657,19.347084],[-99.08558,19.346957],[-99.08554,19.346895],[-99.085474,19.346776],[-99.085415,19.34666],[-99.085376,19.346582],[-99.085431,19.346445],[-99.085385,19.346152],[-99.085344,19.346059],[-99.085309,19.345998],[-99.08522,19.346034],[-99.085147,19.346076],[-99.084503,19.346255],[-99.08441,19.346133],[-99.084369,19.346083],[-99.084049,19.345668],[-99.083734,19.345175],[-99.083764,19.345158],[-99.083724,19.34508],[-99.083716,19.345062],[-99.083639,19.344932],[-99.083734,19.344867],[-99.083752,19.344851],[-99.083922,19.34473],[-99.084034,19.344647],[-99.084165,19.344549],[-99.084393,19.344385],[-99.084541,19.344279],[-99.084563,19.344263],[-99.084633,19.344173],[-99.085052,19.343683],[-99.085255,19.343434],[-99.086101,19.342973],[-99.086772,19.342606],[-99.086703,19.342113],[-99.08699,19.341752],[-99.087047,19.341629],[-99.087325,19.341151],[-99.087423,19.340943],[-99.087714,19.340318],[-99.087993,19.340006],[-99.088334,19.339843],[-99.088709,19.339889],[-99.088962,19.340008],[-99.089803,19.340418],[-99.089805,19.34011],[-99.089806,19.339675],[-99.089806,19.339572],[-99.089827,19.338666],[-99.090607,19.338731],[-99.090643,19.338733],[-99.09088,19.338753],[-99.091459,19.338796],[-99.091415,19.338368],[-99.091397,19.338197],[-99.091414,19.338018],[-99.091469,19.337891],[-99.091488,19.33778],[-99.091528,19.337533],[-99.091555,19.33735],[-99.091591,19.337131],[-99.091645,19.337006],[-99.091738,19.3369],[-99.091778,19.336784],[-99.091848,19.336786],[-99.091963,19.33679],[-99.092175,19.336813],[-99.092618,19.336809],[-99.092965,19.336824],[-99.093273,19.336906],[-99.093715,19.337034],[-99.093858,19.337084],[-99.094022,19.337104],[-99.094194,19.337166],[-99.094464,19.337251],[-99.094599,19.337298],[-99.094849,19.337333],[-99.09516,19.33736],[-99.095418,19.337383],[-99.095605,19.337391],[-99.095587,19.337493],[-99.095641,19.337494],[-99.095253,19.33896],[-99.095238,19.339037],[-99.095378,19.339062],[-99.095274,19.339502],[-99.09502,19.339475],[-99.094988,19.33947],[-99.09496,19.339467],[-99.094941,19.339598],[-99.09487,19.340032],[-99.094839,19.340222],[-99.094451,19.34014],[-99.092398,19.339202],[-99.090968,19.338983],[-99.09099,19.339862],[-99.091088,19.343603],[-99.09102,19.343587],[-99.09093,19.343545],[-99.090786,19.343455],[-99.090643,19.343382],[-99.090475,19.343331],[-99.090311,19.343242],[-99.090127,19.34316],[-99.089979,19.343087],[-99.089853,19.343048],[-99.089668,19.343001],[-99.089537,19.342974],[-99.089431,19.342982],[-99.089271,19.343029],[-99.089206,19.343122],[-99.089116,19.343153],[-99.089091,19.343316],[-99.089067,19.343507],[-99.089038,19.343724],[-99.089206,19.343891],[-99.089403,19.343996],[-99.089562,19.34407],[-99.089685,19.34412],[-99.089857,19.344159],[-99.090066,19.344291],[-99.090185,19.344388],[-99.090275,19.344334],[-99.090357,19.344299],[-99.090422,19.344229],[-99.090561,19.344139],[-99.090651,19.344034],[-99.090733,19.343961],[-99.090774,19.343867],[-99.090823,19.343782],[-99.090897,19.343735],[-99.091048,19.343669],[-99.091088,19.343627],[-99.091105,19.344259],[-99.091932,19.344497],[-99.091753,19.344615],[-99.091786,19.344802],[-99.091819,19.344942],[-99.091873,19.345154],[-99.091923,19.345361],[-99.09195,19.345434],[-99.091945,19.345579],[-99.091792,19.34562],[-99.091623,19.345709],[-99.091514,19.345766],[-99.091455,19.345749],[-99.0914,19.345735],[-99.091335,19.345717],[-99.091289,19.34572],[-99.0912,19.345633],[-99.091142,19.3457],[-99.090804,19.346303],[-99.090731,19.346431],[-99.090543,19.346758],[-99.090504,19.346919],[-99.090455,19.347088],[-99.090412,19.347287],[-99.090283,19.347377],[-99.090219,19.347412],[-99.090151,19.347465],[-99.09015,19.347669],[-99.090178,19.347711],[-99.090183,19.347871],[-99.090178,19.348239],[-99.090175,19.348857],[-99.090153,19.34894],[-99.090164,19.3491],[-99.090312,19.34923],[-99.090498,19.349297],[-99.090803,19.349375],[-99.091114,19.349432],[-99.091316,19.34939],[-99.091688,19.349369],[-99.091947,19.34934],[-99.092127,19.349381],[-99.09228,19.349504],[-99.092388,19.349591],[-99.092569,19.34969],[-99.092744,19.349752],[-99.092898,19.349821],[-99.093045,19.349897],[-99.093146,19.34999],[-99.093199,19.350066],[-99.093223,19.350095],[-99.093225,19.350207],[-99.093088,19.350368],[-99.092808,19.350677],[-99.092758,19.350718],[-99.092704,19.350946],[-99.092707,19.350955],[-99.092715,19.350962],[-99.092475,19.351166],[-99.092397,19.351248],[-99.09234,19.351284],[-99.092205,19.351385],[-99.092135,19.351426],[-99.091985,19.351506],[-99.091758,19.351611],[-99.091779,19.351664],[-99.091196,19.352035],[-99.091183,19.351639],[-99.091141,19.351017],[-99.091117,19.350795],[-99.091052,19.350802]]]]}},{"type":"Feature","properties":{"area":"Cerro de la Estrella (local)","zona":"Zona de Uso Público Recreativo","zona_k":"uso publico recreativo","ha":1.21},"geometry":{"type":"MultiPolygon","coordinates":[[[[-99.093322,19.336497],[-99.093386,19.335681],[-99.094648,19.335779],[-99.094543,19.336633],[-99.093322,19.336497]]]]}},{"type":"Feature","properties":{"area":"Cerro de la Estrella (local)","zona":"Zona de Uso Público Educativo y Cultural","zona_k":"uso publico educativo y cultural","ha":16.16},"geometry":{"type":"MultiPolygon","coordinates":[[[[-99.092618,19.336809],[-99.092175,19.336813],[-99.091963,19.33679],[-99.091848,19.336786],[-99.091778,19.336784],[-99.091829,19.336639],[-99.091925,19.33569],[-99.092014,19.335575],[-99.092064,19.335474],[-99.092207,19.33518],[-99.092247,19.335099],[-99.092343,19.334655],[-99.092366,19.334265],[-99.092371,19.333994],[-99.09247,19.333656],[-99.092513,19.333511],[-99.092683,19.333156],[-99.093085,19.333228],[-99.093432,19.333293],[-99.093544,19.33331],[-99.093917,19.333375],[-99.094001,19.333389],[-99.095087,19.33354],[-99.095136,19.333536],[-99.095964,19.333675],[-99.09602,19.333718],[-99.095992,19.333965],[-99.095983,19.334047],[-99.09594,19.334312],[-99.095937,19.334349],[-99.096797,19.33451],[-99.096671,19.334962],[-99.096578,19.335184],[-99.096482,19.33544],[-99.09637,19.336039],[-99.096351,19.336157],[-99.096322,19.33634],[-99.096281,19.336586],[-99.096132,19.336578],[-99.096033,19.336573],[-99.095868,19.336547],[-99.095838,19.336541],[-99.095837,19.336676],[-99.095756,19.33667],[-99.095607,19.337376],[-99.095605,19.337391],[-99.095418,19.337383],[-99.09516,19.33736],[-99.094849,19.337333],[-99.094599,19.337298],[-99.094464,19.337251],[-99.094194,19.337166],[-99.094022,19.337104],[-99.093858,19.337084],[-99.093715,19.337034],[-99.093273,19.336906],[-99.092965,19.336824],[-99.092618,19.336809]],[[-99.094543,19.336633],[-99.094648,19.335779],[-99.093386,19.335681],[-99.093322,19.336497],[-99.094543,19.336633]]]]}},{"type":"Feature","properties":{"area":"Cerro de la Estrella (local)","zona":"Zona de Uso Público Educativo y Cultural","zona_k":"uso publico educativo y cultural","ha":1.98},"geometry":{"type":"MultiPolygon","coordinates":[[[[-99.091088,19.343603],[-99.091088,19.343627],[-99.091048,19.343669],[-99.090897,19.343735],[-99.090823,19.343782],[-99.090774,19.343867],[-99.090733,19.343961],[-99.090651,19.344034],[-99.090561,19.344139],[-99.090422,19.344229],[-99.090357,19.344299],[-99.090275,19.344334],[-99.090185,19.344388],[-99.090066,19.344291],[-99.089857,19.344159],[-99.089685,19.34412],[-99.089562,19.34407],[-99.089403,19.343996],[-99.089206,19.343891],[-99.089038,19.343724],[-99.089067,19.343507],[-99.089091,19.343316],[-99.089116,19.343153],[-99.089206,19.343122],[-99.089271,19.343029],[-99.089431,19.342982],[-99.089537,19.342974],[-99.089668,19.343001],[-99.089853,19.343048],[-99.089979,19.343087],[-99.090127,19.34316],[-99.090311,19.343242],[-99.090475,19.343331],[-99.090643,19.343382],[-99.090786,19.343455],[-99.09093,19.343545],[-99.09102,19.343587],[-99.091088,19.343603]]]]}},{"type":"Feature","properties":{"area":"Cerro de la Estrella (local)","zona":"Zona de Uso Público Recreativo","zona_k":"uso publico recreativo","ha":24.58},"geometry":{"type":"MultiPolygon","coordinates":[[[[-99.091932,19.344497],[-99.095718,19.345589],[-99.096631,19.34586],[-99.096689,19.345765],[-99.097025,19.345873],[-99.097935,19.346166],[-99.0979,19.346241],[-99.097683,19.34683],[-99.097622,19.346812],[-99.097597,19.346883],[-99.097353,19.347568],[-99.097545,19.347624],[-99.09765,19.347717],[-99.097433,19.348273],[-99.097403,19.348348],[-99.097391,19.348436],[-99.097331,19.348697],[-99.097212,19.348563],[-99.096922,19.348238],[-99.096816,19.348121],[-99.096696,19.347986],[-99.09674,19.347933],[-99.096635,19.347855],[-99.096557,19.347816],[-99.096468,19.347767],[-99.096303,19.347661],[-99.096263,19.347724],[-99.09622,19.347788],[-99.09618,19.34777],[-99.096187,19.347757],[-99.096028,19.347697],[-99.095927,19.347673],[-99.095609,19.348314],[-99.095423,19.34823],[-99.094959,19.349121],[-99.09365,19.34864],[-99.093456,19.349063],[-99.093419,19.349135],[-99.093563,19.349273],[-99.093747,19.349405],[-99.09332,19.350097],[-99.093225,19.350207],[-99.093223,19.350095],[-99.093199,19.350066],[-99.093146,19.34999],[-99.093045,19.349897],[-99.092898,19.349821],[-99.092744,19.349752],[-99.092569,19.34969],[-99.092388,19.349591],[-99.09228,19.349504],[-99.092127,19.349381],[-99.091947,19.34934],[-99.091904,19.349241],[-99.091832,19.349148],[-99.091794,19.349075],[-99.091761,19.349024],[-99.091712,19.348842],[-99.091685,19.348692],[-99.091619,19.348454],[-99.091556,19.348249],[-99.091403,19.347727],[-99.091393,19.347523],[-99.091387,19.347413],[-99.091381,19.347252],[-99.091393,19.347208],[-99.091461,19.347086],[-99.091538,19.346911],[-99.091602,19.346792],[-99.091657,19.346658],[-99.091737,19.346486],[-99.091803,19.346335],[-99.091743,19.346299],[-99.09147,19.346165],[-99.091415,19.346087],[-99.091454,19.345937],[-99.091514,19.345766],[-99.091623,19.345709],[-99.091792,19.34562],[-99.091945,19.345579],[-99.09195,19.345434],[-99.091923,19.345361],[-99.091873,19.345154],[-99.091819,19.344942],[-99.091786,19.344802],[-99.091753,19.344615],[-99.091932,19.344497]]]]}},{"type":"Feature","properties":{"area":"Cerro de la Estrella (local)","zona":"Zona de Uso Público Educativo y Cultural","zona_k":"uso publico educativo y cultural","ha":4.89},"geometry":{"type":"MultiPolygon","coordinates":[[[[-99.091514,19.345766],[-99.091454,19.345937],[-99.091415,19.346087],[-99.09147,19.346165],[-99.091743,19.346299],[-99.091803,19.346335],[-99.091737,19.346486],[-99.091657,19.346658],[-99.091602,19.346792],[-99.091538,19.346911],[-99.091461,19.347086],[-99.091393,19.347208],[-99.091381,19.347252],[-99.091387,19.347413],[-99.091393,19.347523],[-99.091403,19.347727],[-99.091556,19.348249],[-99.091619,19.348454],[-99.091685,19.348692],[-99.091712,19.348842],[-99.091761,19.349024],[-99.091794,19.349075],[-99.091832,19.349148],[-99.091904,19.349241],[-99.091947,19.34934],[-99.091688,19.349369],[-99.091316,19.34939],[-99.091114,19.349432],[-99.090803,19.349375],[-99.090498,19.349297],[-99.090312,19.34923],[-99.090164,19.3491],[-99.090153,19.34894],[-99.090175,19.348857],[-99.090178,19.348239],[-99.090183,19.347871],[-99.090178,19.347711],[-99.09015,19.347669],[-99.090151,19.347465],[-99.090219,19.347412],[-99.090283,19.347377],[-99.090412,19.347287],[-99.090455,19.347088],[-99.090504,19.346919],[-99.090543,19.346758],[-99.090731,19.346431],[-99.090804,19.346303],[-99.091142,19.3457],[-99.0912,19.345633],[-99.091289,19.34572],[-99.091335,19.345717],[-99.0914,19.345735],[-99.091455,19.345749],[-99.091514,19.345766]]]]}},{"type":"Feature","properties":{"area":"Cerro de la Estrella (local)","zona":"Zona de Uso Público Recreativo","zona_k":"uso publico recreativo","ha":1.24},"geometry":{"type":"MultiPolygon","coordinates":[[[[-99.090233,19.349549],[-99.090621,19.349553],[-99.090629,19.349456],[-99.090936,19.349483],[-99.091112,19.34951],[-99.091071,19.349681],[-99.091055,19.349821],[-99.09103,19.349999],[-99.091014,19.350236],[-99.091039,19.350454],[-99.091047,19.350594],[-99.091052,19.350802],[-99.090963,19.350811],[-99.090706,19.350831],[-99.090278,19.350851],[-99.090246,19.350717],[-99.090241,19.350589],[-99.090218,19.350501],[-99.090222,19.350238],[-99.090224,19.350144],[-99.090231,19.349946],[-99.090233,19.349549]]]]}}]}