{"type":"FeatureCollection","features":[{"type":"Feature","properties":{"area":"Desierto de los Leones","zona":"Zona de uso público","zona_k":"uso publico","ha":275.29},"geometry":{"type":"MultiPolygon","coordinates":[[[[-99.301213,19.327357],[-99.301234,19.327275],[-99.301299,19.327054],[-99.301372,19.326817],[-99.301433,19.32657],[-99.301565,19.326118],[-99.301552,19.326055],[-99.301538,19.325951],[-99.301534,19.325836],[-99.301507,19.325718],[-99.30148,19.325642],[-99.301471,19.325567],[-99.301457,19.325567],[-99.301462,19.325544],[-99.301444,19.325504],[-99.301422,19.325441],[-99.301408,19.325339],[-99.30139,19.325217],[-99.301367,19.324937],[-99.30135,19.32481],[-99.301332,19.324722],[-99.301318,19.324625],[-99.301309,19.324542],[-99.301309,19.32449],[-99.301237,19.324318],[-99.301237,19.32428],[-99.301183,19.323798],[-99.301178,19.323656],[-99.30116,19.323268],[-99.301173,19.32285],[-99.301189,19.322319],[-99.301202,19.321774],[-99.301201,19.321609],[-99.301201,19.321498],[-99.300995,19.320469],[-99.301145,19.320256],[-99.3012,19.320161],[-99.30129,19.320041],[-99.301391,19.319901],[-99.301389,19.319831],[-99.301383,19.319573],[-99.301382,19.319426],[-99.301373,19.319343],[-99.301451,19.319277],[-99.301569,19.319153],[-99.301746,19.319078],[-99.30188,19.318971],[-99.301905,19.318788],[-99.301752,19.318441],[-99.301711,19.318373],[-99.301496,19.318034],[-99.301203,19.317725],[-99.301114,19.317463],[-99.300719,19.316219],[-99.300805,19.315372],[-99.300866,19.314775],[-99.300896,19.314373],[-99.300759,19.313201],[-99.300693,19.312955],[-99.300689,19.312952],[-99.301171,19.312755],[-99.301292,19.312737],[-99.301431,19.312422],[-99.30143,19.311614],[-99.301429,19.311277],[-99.301442,19.3109],[-99.301462,19.310369],[-99.301476,19.310018],[-99.301662,19.310045],[-99.3019,19.310203],[-99.302246,19.31058],[-99.302587,19.31095],[-99.302935,19.311353],[-99.302979,19.31141],[-99.303273,19.31152],[-99.303497,19.311606],[-99.303674,19.311497],[-99.303964,19.310936],[-99.304203,19.310418],[-99.304303,19.310199],[-99.304607,19.309808],[-99.30501,19.30973],[-99.305154,19.309565],[-99.305412,19.308997],[-99.305661,19.308681],[-99.305842,19.308495],[-99.305978,19.308036],[-99.306051,19.307833],[-99.30609,19.307754],[-99.306228,19.307729],[-99.306344,19.307771],[-99.306479,19.307877],[-99.306526,19.307918],[-99.306559,19.307947],[-99.306678,19.308105],[-99.306872,19.308263],[-99.307112,19.308373],[-99.307275,19.308416],[-99.30764,19.308006],[-99.307679,19.307661],[-99.307774,19.307258],[-99.307834,19.306892],[-99.307885,19.30672],[-99.307943,19.306546],[-99.308041,19.306429],[-99.308245,19.306094],[-99.308406,19.305956],[-99.30916,19.305724],[-99.309179,19.30572],[-99.309444,19.305755],[-99.309545,19.30592],[-99.309628,19.306302],[-99.309661,19.306826],[-99.309703,19.307088],[-99.309888,19.307413],[-99.309984,19.307675],[-99.310054,19.307797],[-99.310267,19.307995],[-99.310334,19.308036],[-99.310479,19.308044],[-99.310647,19.307988],[-99.3108,19.307795],[-99.310819,19.307689],[-99.310848,19.307431],[-99.310923,19.307313],[-99.311095,19.307159],[-99.311386,19.307279],[-99.311708,19.307405],[-99.31175,19.307355],[-99.311959,19.307088],[-99.312282,19.30646],[-99.312326,19.306317],[-99.312395,19.305798],[-99.312322,19.305439],[-99.312099,19.304754],[-99.312223,19.304643],[-99.312402,19.304632],[-99.312871,19.304676],[-99.312891,19.304676],[-99.313085,19.304719],[-99.313281,19.304657],[-99.313394,19.304531],[-99.3137,19.304363],[-99.313993,19.304146],[-99.314155,19.303741],[-99.3141,19.303226],[-99.314129,19.30237],[-99.314138,19.302207],[-99.314257,19.301949],[-99.314586,19.301734],[-99.314645,19.302147],[-99.314672,19.302328],[-99.314692,19.302473],[-99.314661,19.30264],[-99.314682,19.302791],[-99.314848,19.303057],[-99.314919,19.30324],[-99.315062,19.303798],[-99.315221,19.304225],[-99.315331,19.304686],[-99.315332,19.304939],[-99.315207,19.305251],[-99.315152,19.30551],[-99.315089,19.305752],[-99.315022,19.306116],[-99.315014,19.306166],[-99.314995,19.306478],[-99.314949,19.306792],[-99.314856,19.307079],[-99.314728,19.307226],[-99.314549,19.30733],[-99.314174,19.307708],[-99.314023,19.307912],[-99.313802,19.308127],[-99.313689,19.308441],[-99.31364,19.308904],[-99.313604,19.30923],[-99.313439,19.309589],[-99.313333,19.31001],[-99.313282,19.310324],[-99.313034,19.311016],[-99.312401,19.311412],[-99.312311,19.311495],[-99.313033,19.312332],[-99.3134,19.312127],[-99.313665,19.312072],[-99.313819,19.312063],[-99.313903,19.312074],[-99.313959,19.31208],[-99.314012,19.312076],[-99.314059,19.312073],[-99.314176,19.312026],[-99.314255,19.311992],[-99.314401,19.311894],[-99.314571,19.311708],[-99.314666,19.311436],[-99.314732,19.311265],[-99.315222,19.311499],[-99.315342,19.311554],[-99.315489,19.311443],[-99.315745,19.311162],[-99.316138,19.310843],[-99.31625,19.310759],[-99.316367,19.310648],[-99.316437,19.31058],[-99.316511,19.31051],[-99.316615,19.310411],[-99.316725,19.3103],[-99.317006,19.310008],[-99.317172,19.309834],[-99.31731,19.309682],[-99.317443,19.309593],[-99.317621,19.30938],[-99.317752,19.309233],[-99.317831,19.309147],[-99.317917,19.309782],[-99.317834,19.310049],[-99.317818,19.310097],[-99.317794,19.31018],[-99.317759,19.310273],[-99.31774,19.310316],[-99.317679,19.310479],[-99.317626,19.310617],[-99.317172,19.311786],[-99.316599,19.313169],[-99.316523,19.313323],[-99.316442,19.313481],[-99.316327,19.313796],[-99.316261,19.313884],[-99.316231,19.313925],[-99.316211,19.313977],[-99.316171,19.314069],[-99.316021,19.314194],[-99.31558,19.314619],[-99.315451,19.314809],[-99.315451,19.315146],[-99.31536,19.315331],[-99.315132,19.315793],[-99.314849,19.316094],[-99.314695,19.316119],[-99.314199,19.316477],[-99.313999,19.316848],[-99.314057,19.318018],[-99.314037,19.318359],[-99.313974,19.318998],[-99.313906,19.31957],[-99.313763,19.31983],[-99.31374,19.31986],[-99.313577,19.320063],[-99.313388,19.320197],[-99.313202,19.320581],[-99.313098,19.320792],[-99.312988,19.321],[-99.312934,19.321208],[-99.312871,19.321375],[-99.312835,19.321472],[-99.312827,19.321488],[-99.312697,19.321728],[-99.312669,19.321789],[-99.312612,19.321913],[-99.31244,19.322151],[-99.312374,19.322243],[-99.312244,19.322549],[-99.312166,19.322736],[-99.312002,19.322942],[-99.311758,19.323245],[-99.311727,19.323306],[-99.311605,19.323548],[-99.311637,19.323916],[-99.311645,19.323932],[-99.301665,19.328674],[-99.301213,19.327357]]]]}},{"type":"Feature","properties":{"area":"Desierto de los Leones","zona":"Zona de uso público","zona_k":"uso publico","ha":0.11},"geometry":{"type":"MultiPolygon","coordinates":[[[[-99.313466,19.323066],[-99.313478,19.322858],[-99.313713,19.322709],[-99.314037,19.322795],[-99.313466,19.323066]]]]}},{"type":"Feature","properties":{"area":"Desierto de los Leones","zona":"Zona de uso público","zona_k":"uso publico","ha":0.14},"geometry":{"type":"MultiPolygon","coordinates":[[[[-99.31581,19.321597],[-99.315782,19.321639],[-99.315804,19.321955],[-99.315281,19.322203],[-99.315491,19.321854],[-99.315712,19.321675],[-99.31581,19.321597]]]]}},{"type":"Feature","properties":{"area":"Desierto de los Leones","zona":"Zona de Recuperación","zona_k":"recuperacion","ha":1215.1},"geometry":{"type":"MultiPolygon","coordinates":[[[[-99.311645,19.323932],[-99.311637,19.323916],[-99.311605,19.323548],[-99.311727,19.323306],[-99.311758,19.323245],[-99.312002,19.322942],[-99.312166,19.322736],[-99.312244,19.322549],[-99.312374,19.322243],[-99.31244,19.322151],[-99.312612,19.321913],[-99.312669,19.321789],[-99.312697,19.321728],[-99.312827,19.321488],[-99.312835,19.321472],[-99.312871,19.321375],[-99.312934,19.321208],[-99.312988,19.321],[-99.313098,19.320792],[-99.313202,19.320581],[-99.313388,19.320197],[-99.313577,19.320063],[-99.31374,19.31986],[-99.313763,19.31983],[-99.313906,19.31957],[-99.313974,19.318998],[-99.314037,19.318359],[-99.314057,19.318018],[-99.313999,19.316848],[-99.314199,19.316477],[-99.314695,19.316119],[-99.314849,19.316094],[-99.315132,19.315793],[-99.31536,19.315331],[-99.315451,19.315146],[-99.315451,19.314809],[-99.31558,19.314619],[-99.316021,19.314194],[-99.316171,19.314069],[-99.316211,19.313977],[-99.316231,19.313925],[-99.316261,19.313884],[-99.316327,19.313796],[-99.316442,19.313481],[-99.316523,19.313323],[-99.316599,19.313169],[-99.317172,19.311786],[-99.317626,19.310617],[-99.317679,19.310479],[-99.31774,19.310316],[-99.317759,19.310273],[-99.317794,19.31018],[-99.317818,19.310097],[-99.317834,19.310049],[-99.317917,19.309782],[-99.317831,19.309147],[-99.317752,19.309233],[-99.317621,19.30938],[-99.317443,19.309593],[-99.31731,19.309682],[-99.317172,19.309834],[-99.317006,19.310008],[-99.316725,19.3103],[-99.316615,19.310411],[-99.316511,19.31051],[-99.316437,19.31058],[-99.316367,19.310648],[-99.31625,19.310759],[-99.316138,19.310843],[-99.315745,19.311162],[-99.315489,19.311443],[-99.315342,19.311554],[-99.315222,19.311499],[-99.314732,19.311265],[-99.314666,19.311436],[-99.314571,19.311708],[-99.314401,19.311894],[-99.314255,19.311992],[-99.314176,19.312026],[-99.314059,19.312073],[-99.314012,19.312076],[-99.313959,19.31208],[-99.313903,19.312074],[-99.313819,19.312063],[-99.313665,19.312072],[-99.3134,19.312127],[-99.313033,19.312332],[-99.312311,19.311495],[-99.312401,19.311412],[-99.313034,19.311016],[-99.313282,19.310324],[-99.313333,19.31001],[-99.313439,19.309589],[-99.313604,19.30923],[-99.31364,19.308904],[-99.313689,19.308441],[-99.313802,19.308127],[-99.314023,19.307912],[-99.314174,19.307708],[-99.314549,19.30733],[-99.314728,19.307226],[-99.314856,19.307079],[-99.314949,19.306792],[-99.314995,19.306478],[-99.315014,19.306166],[-99.315022,19.306116],[-99.315089,19.305752],[-99.315152,19.30551],[-99.315207,19.305251],[-99.315332,19.304939],[-99.315331,19.304686],[-99.315221,19.304225],[-99.315062,19.303798],[-99.314919,19.30324],[-99.314848,19.303057],[-99.314682,19.302791],[-99.314661,19.30264],[-99.314692,19.302473],[-99.314672,19.302328],[-99.314645,19.302147],[-99.314586,19.301734],[-99.314257,19.301949],[-99.314138,19.302207],[-99.314129,19.30237],[-99.3141,19.303226],[-99.314155,19.303741],[-99.313993,19.304146],[-99.3137,19.304363],[-99.313394,19.304531],[-99.313281,19.304657],[-99.313085,19.304719],[-99.312891,19.304676],[-99.312871,19.304676],[-99.312402,19.304632],[-99.312223,19.304643],[-99.312099,19.304754],[-99.312322,19.305439],[-99.312395,19.305798],[-99.312326,19.306317],[-99.312282,19.30646],[-99.311959,19.307088],[-99.31175,19.307355],[-99.311708,19.307405],[-99.311386,19.307279],[-99.311095,19.307159],[-99.310923,19.307313],[-99.310848,19.307431],[-99.310819,19.307689],[-99.3108,19.307795],[-99.310647,19.307988],[-99.310479,19.308044],[-99.310334,19.308036],[-99.310267,19.307995],[-99.310054,19.307797],[-99.309984,19.307675],[-99.309888,19.307413],[-99.309703,19.307088],[-99.309661,19.306826],[-99.309628,19.306302],[-99.309545,19.30592],[-99.309444,19.305755],[-99.309179,19.30572],[-99.30916,19.305724],[-99.308406,19.305956],[-99.308245,19.306094],[-99.308041,19.306429],[-99.307943,19.306546],[-99.307885,19.30672],[-99.307834,19.306892],[-99.307774,19.307258],[-99.307679,19.307661],[-99.30764,19.308006],[-99.307275,19.308416],[-99.307112,19.308373],[-99.306872,19.308263],[-99.306678,19.308105],[-99.306559,19.307947],[-99.306526,19.307918],[-99.306479,19.307877],[-99.306344,19.307771],[-99.306228,19.307729],[-99.30609,19.307754],[-99.306051,19.307833],[-99.305978,19.308036],[-99.305842,19.308495],[-99.305661,19.308681],[-99.305412,19.308997],[-99.305154,19.309565],[-99.30501,19.30973],[-99.304607,19.309808],[-99.304303,19.310199],[-99.304203,19.310418],[-99.303964,19.310936],[-99.303674,19.311497],[-99.303497,19.311606],[-99.303273,19.31152],[-99.302979,19.31141],[-99.302935,19.311353],[-99.302587,19.31095],[-99.302246,19.31058],[-99.3019,19.310203],[-99.301662,19.310045],[-99.301476,19.310018],[-99.301462,19.310369],[-99.301442,19.3109],[-99.301429,19.311277],[-99.30143,19.311614],[-99.301431,19.312422],[-99.301292,19.312737],[-99.301171,19.312755],[-99.300689,19.312952],[-99.300693,19.312955],[-99.300759,19.313201],[-99.300896,19.314373],[-99.300866,19.314775],[-99.300805,19.315372],[-99.300719,19.316219],[-99.301114,19.317463],[-99.301203,19.317725],[-99.301496,19.318034],[-99.301711,19.318373],[-99.301752,19.318441],[-99.301905,19.318788],[-99.30188,19.318971],[-99.301746,19.319078],[-99.301569,19.319153],[-99.301451,19.319277],[-99.301373,19.319343],[-99.301382,19.319426],[-99.301383,19.319573],[-99.301389,19.319831],[-99.301391,19.319901],[-99.30129,19.320041],[-99.3012,19.320161],[-99.301145,19.320256],[-99.300995,19.320469],[-99.301201,19.321498],[-99.301201,19.321609],[-99.301202,19.321774],[-99.301189,19.322319],[-99.301173,19.32285],[-99.30116,19.323268],[-99.301178,19.323656],[-99.301183,19.323798],[-99.301237,19.32428],[-99.301237,19.324318],[-99.301309,19.32449],[-99.301309,19.324542],[-99.301318,19.324625],[-99.301332,19.324722],[-99.30135,19.32481],[-99.301367,19.324937],[-99.30139,19.325217],[-99.301408,19.325339],[-99.301422,19.325441],[-99.301444,19.325504],[-99.301462,19.325544],[-99.301457,19.325567],[-99.301471,19.325567],[-99.30148,19.325642],[-99.301507,19.325718],[-99.301534,19.325836],[-99.301538,19.325951],[-99.301552,19.326055],[-99.301565,19.326118],[-99.301433,19.32657],[-99.301372,19.326817],[-99.301299,19.327054],[-99.301234,19.327275],[-99.301213,19.327357],[-99.301101,19.327029],[-99.300761,19.324148],[-99.300299,19.322585],[-99.299896,19.319471],[-99.300543,19.317833],[-99.299955,19.317237],[-99.299942,19.315621],[-99.299381,19.314241],[-99.298682,19.312313],[-99.298551,19.310531],[-99.297744,19.30962],[-99.297969,19.308602],[-99.298007,19.307168],[-99.298458,19.305215],[-99.298047,19.303901],[-99.298388,19.303383],[-99.298573,19.302157],[-99.299219,19.302136],[-99.299366,19.301754],[-99.299762,19.300843],[-99.300409,19.29995],[-99.301448,19.297937],[-99.301923,19.297443],[-99.302666,19.296448],[-99.303154,19.294645],[-99.303925,19.293773],[-99.304657,19.293466],[-99.305943,19.293216],[-99.306528,19.292585],[-99.306698,19.291871],[-99.306792,19.289324],[-99.304441,19.287785],[-99.303467,19.287536],[-99.301831,19.286629],[-99.301565,19.285371],[-99.30131,19.285012],[-99.301445,19.284635],[-99.301801,19.283866],[-99.301734,19.283164],[-99.302183,19.28203],[-99.302199,19.281009],[-99.302366,19.27979],[-99.303188,19.278001],[-99.304273,19.272889],[-99.304095,19.269848],[-99.306698,19.267569],[-99.308119,19.266914],[-99.310209,19.266569],[-99.312958,19.265603],[-99.315122,19.264601],[-99.322596,19.268229],[-99.32275,19.269905],[-99.323401,19.272321],[-99.323919,19.274905],[-99.324075,19.27791],[-99.324582,19.279187],[-99.325628,19.281932],[-99.326331,19.282486],[-99.327794,19.285477],[-99.328223,19.285793],[-99.329125,19.286699],[-99.329555,19.287424],[-99.330014,19.289687],[-99.330013,19.291774],[-99.329449,19.293292],[-99.328381,19.295229],[-99.327342,19.296797],[-99.32672,19.298715],[-99.326528,19.300522],[-99.326487,19.30119],[-99.326073,19.302796],[-99.325697,19.303704],[-99.325406,19.30464],[-99.325222,19.305875],[-99.32492,19.306377],[-99.324534,19.306882],[-99.324561,19.307984],[-99.324551,19.308124],[-99.324328,19.308384],[-99.323681,19.308546],[-99.323569,19.308575],[-99.323041,19.308174],[-99.322877,19.307829],[-99.322773,19.30761],[-99.322273,19.307055],[-99.322156,19.306861],[-99.322085,19.306739],[-99.322051,19.306682],[-99.322031,19.306648],[-99.322081,19.306409],[-99.322116,19.306192],[-99.322134,19.305697],[-99.322125,19.305489],[-99.322109,19.305293],[-99.321942,19.305024],[-99.321648,19.305025],[-99.321315,19.305662],[-99.321212,19.306225],[-99.321197,19.306307],[-99.321147,19.306585],[-99.321119,19.306729],[-99.321109,19.306822],[-99.321097,19.306917],[-99.321065,19.307177],[-99.321045,19.307355],[-99.321007,19.307651],[-99.320987,19.307821],[-99.320981,19.307875],[-99.320759,19.308194],[-99.320686,19.308237],[-99.320444,19.308382],[-99.32041,19.308438],[-99.320173,19.308861],[-99.320147,19.309078],[-99.320138,19.309148],[-99.320084,19.309636],[-99.320027,19.310195],[-99.320024,19.310219],[-99.319996,19.310504],[-99.319886,19.311193],[-99.319475,19.311736],[-99.319397,19.312003],[-99.319303,19.31232],[-99.31925,19.312491],[-99.319156,19.312666],[-99.318993,19.312962],[-99.318696,19.313511],[-99.318606,19.313674],[-99.318535,19.313801],[-99.318474,19.313921],[-99.318406,19.31407],[-99.318127,19.314649],[-99.318088,19.314884],[-99.318073,19.314972],[-99.318027,19.315268],[-99.318,19.315422],[-99.317983,19.315537],[-99.317822,19.315987],[-99.31779,19.316077],[-99.317703,19.316414],[-99.317589,19.316857],[-99.317553,19.316997],[-99.317461,19.317183],[-99.31732,19.317465],[-99.317301,19.317504],[-99.317258,19.317653],[-99.317153,19.318019],[-99.317077,19.318281],[-99.31702,19.318399],[-99.316968,19.31851],[-99.316845,19.318763],[-99.316782,19.318894],[-99.316664,19.319141],[-99.316584,19.31936],[-99.316445,19.319742],[-99.31641,19.319839],[-99.316346,19.320149],[-99.316283,19.320474],[-99.31624,19.320678],[-99.316192,19.320863],[-99.316126,19.321112],[-99.31581,19.321597],[-99.315712,19.321675],[-99.315491,19.321854],[-99.315281,19.322203],[-99.314037,19.322795],[-99.313713,19.322709],[-99.313478,19.322858],[-99.313466,19.323066],[-99.311645,19.323932]]]]}},{"type":"Feature","properties":{"area":"Desierto de los Leones","zona":"Zona de uso público","zona_k":"uso publico","ha":14.11},"geometry":{"type":"MultiPolygon","coordinates":[[[[-99.321855,19.311898],[-99.321609,19.311721],[-99.321392,19.311415],[-99.321187,19.311236],[-99.321233,19.311098],[-99.32182,19.310345],[-99.322276,19.30976],[-99.32272,19.309196],[-99.323006,19.308832],[-99.322224,19.307778],[-99.321929,19.307471],[-99.321686,19.306959],[-99.321622,19.306638],[-99.321763,19.306177],[-99.321688,19.305691],[-99.321489,19.306814],[-99.321473,19.30737],[-99.321457,19.307813],[-99.321299,19.308132],[-99.320982,19.308469],[-99.320696,19.308766],[-99.320585,19.309019],[-99.320458,19.309891],[-99.320442,19.310621],[-99.320283,19.31143],[-99.319966,19.311842],[-99.319791,19.312477],[-99.319094,19.313682],[-99.318538,19.314729],[-99.318396,19.315857],[-99.318902,19.315877],[-99.318731,19.316136],[-99.318391,19.316153],[-99.318193,19.316375],[-99.317936,19.317125],[-99.31773,19.317596],[-99.317197,19.31831],[-99.316909,19.31896],[-99.316535,19.319936],[-99.316188,19.321017],[-99.316126,19.321112],[-99.316192,19.320863],[-99.31624,19.320678],[-99.316283,19.320474],[-99.316346,19.320149],[-99.31641,19.319839],[-99.316445,19.319742],[-99.316584,19.31936],[-99.316664,19.319141],[-99.316782,19.318894],[-99.316845,19.318763],[-99.316968,19.31851],[-99.31702,19.318399],[-99.317077,19.318281],[-99.317153,19.318019],[-99.317258,19.317653],[-99.317301,19.317504],[-99.31732,19.317465],[-99.317461,19.317183],[-99.317553,19.316997],[-99.317589,19.316857],[-99.317703,19.316414],[-99.31779,19.316077],[-99.317822,19.315987],[-99.317983,19.315537],[-99.318,19.315422],[-99.318027,19.315268],[-99.318073,19.314972],[-99.318088,19.314884],[-99.318127,19.314649],[-99.318406,19.31407],[-99.318474,19.313921],[-99.318535,19.313801],[-99.318606,19.313674],[-99.318696,19.313511],[-99.318993,19.312962],[-99.319156,19.312666],[-99.31925,19.312491],[-99.319303,19.31232],[-99.319397,19.312003],[-99.319475,19.311736],[-99.319886,19.311193],[-99.319996,19.310504],[-99.320024,19.310219],[-99.320027,19.310195],[-99.320084,19.309636],[-99.320138,19.309148],[-99.320147,19.309078],[-99.320173,19.308861],[-99.32041,19.308438],[-99.320444,19.308382],[-99.320686,19.308237],[-99.320759,19.308194],[-99.320981,19.307875],[-99.320987,19.307821],[-99.321007,19.307651],[-99.321045,19.307355],[-99.321065,19.307177],[-99.321097,19.306917],[-99.321109,19.306822],[-99.321119,19.306729],[-99.321147,19.306585],[-99.321197,19.306307],[-99.321212,19.306225],[-99.321315,19.305662],[-99.321648,19.305025],[-99.321942,19.305024],[-99.322109,19.305293],[-99.322125,19.305489],[-99.322134,19.305697],[-99.322116,19.306192],[-99.322081,19.306409],[-99.322031,19.306648],[-99.322051,19.306682],[-99.322085,19.306739],[-99.322156,19.306861],[-99.322273,19.307055],[-99.322773,19.30761],[-99.322877,19.307829],[-99.323041,19.308174],[-99.323569,19.308575],[-99.323681,19.308546],[-99.324328,19.308384],[-99.324551,19.308124],[-99.324526,19.308444],[-99.324246,19.308819],[-99.323914,19.308956],[-99.3241,19.309015],[-99.323706,19.309542],[-99.322731,19.310934],[-99.321855,19.311898]]]]}},{"type":"Feature","properties":{"area":"Desierto de los Leones","zona":"Zona de Recuperación","zona_k":"recuperacion","ha":0.32},"geometry":{"type":"MultiPolygon","coordinates":[[[[-99.318731,19.316136],[-99.31852,19.316456],[-99.318127,19.316967],[-99.317792,19.317514],[-99.31773,19.317596],[-99.317936,19.317125],[-99.318193,19.316375],[-99.318391,19.316153],[-99.318731,19.316136]]]]}},{"type":"Feature","properties":{"area":"Desierto de los Leones","zona":"Zona de Recuperación","zona_k":"recuperacion","ha":11.68},"geometry":{"type":"MultiPolygon","coordinates":[[[[-99.318902,19.315877],[-99.318396,19.315857],[-99.318538,19.314729],[-99.319094,19.313682],[-99.319791,19.312477],[-99.319966,19.311842],[-99.320283,19.31143],[-99.320442,19.310621],[-99.320458,19.309891],[-99.320585,19.309019],[-99.320696,19.308766],[-99.320982,19.308469],[-99.321299,19.308132],[-99.321457,19.307813],[-99.321473,19.30737],[-99.321489,19.306814],[-99.321688,19.305691],[-99.321763,19.306177],[-99.321622,19.306638],[-99.321686,19.306959],[-99.321929,19.307471],[-99.322224,19.307778],[-99.323006,19.308832],[-99.32272,19.309196],[-99.322276,19.30976],[-99.32182,19.310345],[-99.321233,19.311098],[-99.321187,19.311236],[-99.321392,19.311415],[-99.321609,19.311721],[-99.321855,19.311898],[-99.321792,19.311968],[-99.321575,19.312115],[-99.321345,19.312201],[-99.321158,19.312166],[-99.320731,19.312365],[-99.320075,19.312831],[-99.319796,19.313638],[-99.319454,19.314926],[-99.319272,19.315315],[-99.318902,19.315877]]]]}},{"type":"Feature","properties":{"area":"Desierto de los Leones","zona":"Zona de Recuperación","zona_k":"recuperacion","ha":0.03},"geometry":{"type":"MultiPolygon","coordinates":[[[[-99.324246,19.308819],[-99.3241,19.309015],[-99.323914,19.308956],[-99.324246,19.308819]]]]}},{"type":"Feature","properties":{"area":"Desierto de los Leones","zona":"Zona de uso público","zona_k":"uso publico","ha":4.11},"geometry":{"type":"MultiPolygon","coordinates":[[[[-99.319406,19.296312],[-99.32243,19.294131],[-99.32267,19.295681],[-99.319828,19.296811],[-99.319406,19.296312]]]]}}]}