{"type":"FeatureCollection","features":[{"type":"Feature","properties":{"area":"Ejidos de Xochimilco y San Gregorio Atlapulco","zona":"Agricola Chinampera","zona_k":"agricola chinampera","ha":1186.02},"geometry":{"type":"MultiPolygon","coordinates":[[[[-99.057022,19.256198],[-99.057184,19.256262],[-99.057321,19.256345],[-99.057394,19.256408],[-99.057462,19.256433],[-99.057624,19.256469],[-99.057741,19.256515],[-99.057888,19.256555],[-99.058094,19.2566],[-99.058177,19.256627],[-99.058375,19.256648],[-99.058303,19.256716],[-99.057829,19.25671],[-99.057545,19.256635],[-99.056868,19.256285],[-99.056668,19.256199],[-99.056844,19.25618],[-99.057022,19.256198]]],[[[-99.058835,19.256693],[-99.059144,19.25672],[-99.059597,19.256742],[-99.059447,19.257397],[-99.059549,19.257415],[-99.059527,19.257488],[-99.059737,19.25754],[-99.059694,19.257714],[-99.05967,19.257729],[-99.05956,19.258267],[-99.059631,19.258308],[-99.059708,19.258297],[-99.059854,19.258342],[-99.0599,19.258346],[-99.059923,19.258256],[-99.060137,19.258299],[-99.060117,19.258396],[-99.060072,19.258457],[-99.059795,19.25883],[-99.059232,19.258933],[-99.059093,19.258449],[-99.059034,19.257444],[-99.059163,19.256967],[-99.058835,19.256693]]],[[[-99.060638,19.258547],[-99.060701,19.258567],[-99.060631,19.258787],[-99.060494,19.258757],[-99.060594,19.258152],[-99.060633,19.258143],[-99.060646,19.258093],[-99.060734,19.258106],[-99.060638,19.258547]]],[[[-99.060912,19.258565],[-99.060916,19.258694],[-99.061113,19.258732],[-99.061156,19.258606],[-99.061446,19.258664],[-99.061599,19.2587],[-99.061834,19.258764],[-99.061974,19.258791],[-99.062089,19.258822],[-99.062211,19.258863],[-99.062251,19.259127],[-99.062277,19.259433],[-99.062151,19.259854],[-99.06202,19.260179],[-99.061763,19.260332],[-99.061342,19.260316],[-99.061208,19.260191],[-99.061078,19.259955],[-99.061028,19.25974],[-99.061003,19.25951],[-99.060922,19.259249],[-99.060778,19.258836],[-99.060835,19.258552],[-99.060912,19.258565]]],[[[-99.024061,19.261768],[-99.023279,19.263448],[-99.022908,19.263152],[-99.022664,19.262957],[-99.022101,19.262747],[-99.020916,19.261656],[-99.019339,19.261021],[-99.020253,19.260892],[-99.02278,19.261405],[-99.024061,19.261768]]],[[[-99.072342,19.284834],[-99.07142,19.283952],[-99.070476,19.283019],[-99.070248,19.28273],[-99.070013,19.283196],[-99.069247,19.284657],[-99.069257,19.284863],[-99.069064,19.284689],[-99.068093,19.284021],[-99.0648,19.281971],[-99.064147,19.281655],[-99.062524,19.281065],[-99.061849,19.280826],[-99.060675,19.2804],[-99.059907,19.280135],[-99.059067,19.279869],[-99.058069,19.279567],[-99.057065,19.279267],[-99.056522,19.279224],[-99.055929,19.279224],[-99.055019,19.279188],[-99.054744,19.279132],[-99.054174,19.278949],[-99.053384,19.278642],[-99.052989,19.278475],[-99.052808,19.278366],[-99.052687,19.278303],[-99.05255,19.27824],[-99.052358,19.278215],[-99.051502,19.277761],[-99.051222,19.27759],[-99.050317,19.277018],[-99.049916,19.276752],[-99.049191,19.276341],[-99.04852,19.275941],[-99.047963,19.275656],[-99.047537,19.275498],[-99.047071,19.275352],[-99.045879,19.274918],[-99.044841,19.274598],[-99.044423,19.274482],[-99.043114,19.274094],[-99.042451,19.273905],[-99.041889,19.273744],[-99.041479,19.273618],[-99.040976,19.273356],[-99.039653,19.272602],[-99.039484,19.272505],[-99.040231,19.272053],[-99.040855,19.27189],[-99.041057,19.271679],[-99.041278,19.271545],[-99.04153,19.271574],[-99.042154,19.271842],[-99.042457,19.271918],[-99.04287,19.272052],[-99.043091,19.27166],[-99.043187,19.27164],[-99.043455,19.271584],[-99.043859,19.271828],[-99.043957,19.271977],[-99.044126,19.272091],[-99.044264,19.272189],[-99.044586,19.272256],[-99.044748,19.272247],[-99.044924,19.272304],[-99.045297,19.272464],[-99.045519,19.272477],[-99.045628,19.272499],[-99.045829,19.272373],[-99.04591,19.272396],[-99.045958,19.272534],[-99.04612,19.272564],[-99.046285,19.27243],[-99.046478,19.272427],[-99.046744,19.272446],[-99.047046,19.272461],[-99.047219,19.271958],[-99.04731,19.272139],[-99.047642,19.272216],[-99.048881,19.272244],[-99.049234,19.272455],[-99.05012,19.272713],[-99.051007,19.272913],[-99.052374,19.273203],[-99.054034,19.273739],[-99.05523,19.273772],[-99.055556,19.27373],[-99.060925,19.276851],[-99.06125,19.276649],[-99.064462,19.277992],[-99.066943,19.276799],[-99.067672,19.277857],[-99.071854,19.279291],[-99.072399,19.279495],[-99.073357,19.279852],[-99.073621,19.279381],[-99.073947,19.279491],[-99.075381,19.279965],[-99.075545,19.280024],[-99.075545,19.280284],[-99.078468,19.281492],[-99.079947,19.27911],[-99.080098,19.277991],[-99.079463,19.276442],[-99.080277,19.274203],[-99.081102,19.2723],[-99.081464,19.270769],[-99.081806,19.269698],[-99.083901,19.270386],[-99.084795,19.268342],[-99.081555,19.26746],[-99.081978,19.266289],[-99.08263,19.266105],[-99.082811,19.265508],[-99.080986,19.264832],[-99.081191,19.264292],[-99.080732,19.264201],[-99.080309,19.265211],[-99.079935,19.265085],[-99.080087,19.26456],[-99.079612,19.264591],[-99.07933,19.264798],[-99.079145,19.265074],[-99.078734,19.264936],[-99.078621,19.26476],[-99.078766,19.264247],[-99.079007,19.263451],[-99.077766,19.263108],[-99.077629,19.263391],[-99.076912,19.263139],[-99.076655,19.263743],[-99.0763,19.263674],[-99.076027,19.264478],[-99.076357,19.264677],[-99.075942,19.265928],[-99.075931,19.265962],[-99.076445,19.266148],[-99.076608,19.266207],[-99.076621,19.266329],[-99.075825,19.268487],[-99.075785,19.268472],[-99.07516,19.268246],[-99.07441,19.267879],[-99.072247,19.268454],[-99.070641,19.272448],[-99.068373,19.27165],[-99.068251,19.27157],[-99.067939,19.271299],[-99.067602,19.271173],[-99.068405,19.26937],[-99.068855,19.267977],[-99.065649,19.266863],[-99.06302,19.265869],[-99.062818,19.266165],[-99.062184,19.266146],[-99.061882,19.266873],[-99.061237,19.266673],[-99.060976,19.266998],[-99.060774,19.267629],[-99.060573,19.267543],[-99.060975,19.266353],[-99.060359,19.26621],[-99.060226,19.266394],[-99.059785,19.266193],[-99.059622,19.266538],[-99.059344,19.266538],[-99.058895,19.266404],[-99.059019,19.265742],[-99.058765,19.26562],[-99.058765,19.26546],[-99.05801,19.265088],[-99.057506,19.264625],[-99.057627,19.26428],[-99.057433,19.264194],[-99.056279,19.263856],[-99.055778,19.263736],[-99.055572,19.263902],[-99.05553,19.26404],[-99.055349,19.264],[-99.055131,19.26396],[-99.055264,19.26342],[-99.055088,19.263317],[-99.055318,19.262588],[-99.054581,19.262497],[-99.054393,19.262933],[-99.053255,19.262732],[-99.053124,19.262512],[-99.052087,19.263029],[-99.051407,19.265091],[-99.05073,19.264862],[-99.049068,19.264243],[-99.046854,19.263426],[-99.046255,19.264747],[-99.045878,19.265493],[-99.045728,19.265422],[-99.045305,19.265326],[-99.045154,19.26548],[-99.0446,19.265155],[-99.043689,19.2641],[-99.043165,19.263893],[-99.043165,19.264192],[-99.043504,19.264406],[-99.043407,19.264505],[-99.043117,19.264459],[-99.04298,19.265072],[-99.042706,19.265408],[-99.042312,19.265753],[-99.041884,19.26573],[-99.04128,19.26547],[-99.040998,19.266036],[-99.040526,19.266061],[-99.040206,19.266078],[-99.040061,19.266543],[-99.040347,19.266595],[-99.040405,19.266606],[-99.040484,19.266715],[-99.040461,19.267087],[-99.04032,19.267317],[-99.040239,19.2677],[-99.039985,19.267675],[-99.039947,19.267671],[-99.039846,19.267585],[-99.039607,19.267759],[-99.038881,19.267601],[-99.038876,19.267333],[-99.038731,19.26721],[-99.038401,19.267145],[-99.038268,19.26723],[-99.038288,19.267463],[-99.038168,19.267662],[-99.037829,19.267589],[-99.037793,19.267777],[-99.037551,19.267689],[-99.037454,19.267785],[-99.037414,19.268045],[-99.03797,19.268209],[-99.038561,19.268564],[-99.03815,19.269322],[-99.038314,19.269379],[-99.038447,19.269511],[-99.038447,19.269723],[-99.038604,19.269769],[-99.038507,19.270037],[-99.038277,19.270859],[-99.038277,19.270932],[-99.038483,19.270993],[-99.038833,19.271131],[-99.038882,19.271188],[-99.038656,19.271846],[-99.038622,19.272026],[-99.038117,19.271836],[-99.037317,19.271608],[-99.036815,19.271545],[-99.035921,19.270725],[-99.035179,19.26962],[-99.034167,19.268197],[-99.033809,19.267734],[-99.033383,19.267393],[-99.032918,19.266985],[-99.031939,19.265907],[-99.030839,19.264662],[-99.030739,19.264548],[-99.030581,19.264371],[-99.030488,19.264266],[-99.030468,19.264117],[-99.030429,19.263829],[-99.030411,19.263704],[-99.030373,19.263421],[-99.030331,19.263118],[-99.029438,19.262443],[-99.030106,19.260644],[-99.030394,19.259831],[-99.030704,19.259768],[-99.030604,19.260053],[-99.030419,19.260568],[-99.030779,19.260733],[-99.031293,19.260692],[-99.031499,19.260493],[-99.031682,19.260398],[-99.032263,19.260003],[-99.032482,19.260002],[-99.032727,19.259989],[-99.032721,19.260026],[-99.03271,19.260086],[-99.03265,19.260083],[-99.032612,19.260082],[-99.032554,19.260111],[-99.032439,19.260217],[-99.032399,19.260265],[-99.032356,19.260308],[-99.032333,19.260339],[-99.032069,19.261808],[-99.03215,19.261819],[-99.031904,19.262962],[-99.032088,19.263005],[-99.032046,19.263193],[-99.031994,19.263392],[-99.031896,19.263706],[-99.032476,19.263812],[-99.032591,19.263317],[-99.032899,19.263362],[-99.033014,19.263367],[-99.032978,19.263602],[-99.032652,19.26519],[-99.033306,19.265364],[-99.033383,19.265352],[-99.033426,19.265359],[-99.033502,19.265391],[-99.033577,19.265413],[-99.033661,19.265434],[-99.033685,19.265445],[-99.033743,19.265465],[-99.033795,19.26547],[-99.033858,19.265483],[-99.033901,19.265481],[-99.033975,19.26547],[-99.034023,19.265454],[-99.034136,19.265429],[-99.034268,19.265404],[-99.034309,19.265391],[-99.034372,19.265368],[-99.034551,19.265327],[-99.034616,19.265334],[-99.034751,19.265316],[-99.034839,19.265289],[-99.034933,19.265214],[-99.035079,19.265086],[-99.035376,19.26479],[-99.03586,19.264401],[-99.035907,19.26436],[-99.036026,19.264204],[-99.036076,19.264164],[-99.036149,19.264109],[-99.036253,19.26403],[-99.036388,19.263929],[-99.036599,19.263775],[-99.036614,19.26366],[-99.036835,19.261893],[-99.036682,19.26187],[-99.036701,19.26164],[-99.036965,19.261665],[-99.036936,19.26119],[-99.037211,19.261208],[-99.037227,19.26124],[-99.037295,19.261319],[-99.037324,19.261222],[-99.037368,19.261072],[-99.037751,19.261149],[-99.037929,19.260408],[-99.038026,19.260385],[-99.038069,19.260388],[-99.03806,19.260437],[-99.038206,19.260467],[-99.038219,19.260331],[-99.038229,19.260202],[-99.038239,19.260083],[-99.038289,19.260022],[-99.038451,19.26004],[-99.038463,19.259902],[-99.038478,19.259843],[-99.038613,19.259854],[-99.038624,19.259789],[-99.038717,19.259802],[-99.038708,19.259658],[-99.038736,19.259556],[-99.038726,19.259552],[-99.038748,19.25947],[-99.038835,19.259495],[-99.038932,19.259524],[-99.038979,19.259529],[-99.038963,19.259601],[-99.039156,19.259637],[-99.039172,19.259545],[-99.039179,19.259491],[-99.039349,19.259524],[-99.039346,19.259558],[-99.039466,19.259581],[-99.039545,19.259251],[-99.039564,19.259255],[-99.039571,19.25919],[-99.039611,19.259192],[-99.039616,19.259156],[-99.039697,19.259165],[-99.039644,19.259452],[-99.039556,19.260015],[-99.03941,19.26072],[-99.039711,19.260765],[-99.039871,19.259567],[-99.039881,19.259484],[-99.039894,19.259486],[-99.03992,19.259296],[-99.040031,19.259316],[-99.040241,19.259348],[-99.040404,19.259373],[-99.040572,19.259398],[-99.040569,19.259407],[-99.040671,19.25942],[-99.040683,19.259422],[-99.040669,19.259522],[-99.040777,19.259538],[-99.040791,19.259427],[-99.040996,19.259459],[-99.041238,19.259497],[-99.041233,19.259553],[-99.041422,19.259574],[-99.041467,19.259214],[-99.041611,19.25923],[-99.041718,19.259241],[-99.041823,19.25925],[-99.0419,19.25848],[-99.042027,19.258496],[-99.04215,19.258509],[-99.042303,19.258525],[-99.042488,19.258548],[-99.042535,19.258568],[-99.042501,19.258873],[-99.042657,19.258882],[-99.042672,19.258846],[-99.04267,19.258823],[-99.042684,19.258765],[-99.042694,19.258728],[-99.0427,19.258688],[-99.042704,19.258652],[-99.042718,19.258597],[-99.043046,19.258645],[-99.043057,19.258376],[-99.043226,19.258389],[-99.043222,19.258453],[-99.043287,19.258459],[-99.043334,19.258464],[-99.043518,19.258473],[-99.043504,19.258608],[-99.044078,19.258633],[-99.044054,19.258911],[-99.044147,19.258927],[-99.044177,19.258638],[-99.044244,19.25864],[-99.044288,19.25864],[-99.044284,19.258671],[-99.044366,19.258681],[-99.044366,19.25869],[-99.044409,19.258696],[-99.044415,19.258647],[-99.044499,19.258649],[-99.04448,19.258841],[-99.044659,19.258867],[-99.044781,19.257637],[-99.044818,19.25728],[-99.044829,19.257178],[-99.04491,19.25718],[-99.045001,19.256252],[-99.045243,19.256274],[-99.045544,19.256306],[-99.045546,19.256281],[-99.045561,19.256281],[-99.045562,19.256269],[-99.045758,19.25629],[-99.046081,19.256274],[-99.046073,19.256346],[-99.046233,19.256362],[-99.046253,19.256179],[-99.04635,19.256192],[-99.046355,19.256147],[-99.046361,19.256032],[-99.047325,19.256124],[-99.047189,19.257042],[-99.047361,19.257073],[-99.047534,19.256072],[-99.047784,19.256099],[-99.047805,19.255953],[-99.047892,19.255966],[-99.04791,19.255869],[-99.048048,19.255887],[-99.048109,19.255535],[-99.048214,19.255557],[-99.048536,19.255613],[-99.048719,19.255641],[-99.049023,19.255672],[-99.05062,19.255904],[-99.050675,19.256013],[-99.050791,19.256133],[-99.050978,19.256236],[-99.051149,19.256121],[-99.051358,19.256001],[-99.051567,19.255857],[-99.051796,19.255773],[-99.05218,19.25592],[-99.052516,19.256087],[-99.052825,19.25617],[-99.053186,19.256322],[-99.053292,19.256385],[-99.053443,19.256414],[-99.053565,19.256385],[-99.053653,19.256306],[-99.053845,19.256188],[-99.054197,19.256143],[-99.05429,19.256163],[-99.05447,19.25615],[-99.054663,19.256149],[-99.054998,19.256238],[-99.055119,19.256289],[-99.055409,19.256409],[-99.055496,19.256443],[-99.055599,19.256486],[-99.055713,19.256526],[-99.055788,19.25656],[-99.055877,19.256569],[-99.055959,19.256554],[-99.056134,19.256477],[-99.056406,19.256341],[-99.056359,19.256685],[-99.05674,19.2575],[-99.057141,19.258172],[-99.057727,19.258858],[-99.058485,19.259578],[-99.058735,19.260311],[-99.058717,19.26103],[-99.058756,19.262052],[-99.058293,19.262951],[-99.058253,19.263506],[-99.058837,19.263716],[-99.059678,19.263576],[-99.060287,19.263218],[-99.060886,19.262504],[-99.061286,19.262054],[-99.062301,19.262185],[-99.06281,19.262472],[-99.063852,19.262553],[-99.064597,19.262428],[-99.065327,19.262119],[-99.06645,19.261399],[-99.067426,19.260784],[-99.068021,19.260461],[-99.068028,19.25969],[-99.0688,19.259696],[-99.069412,19.259665],[-99.07043,19.259621],[-99.07054,19.259549],[-99.071525,19.25951],[-99.071788,19.259548],[-99.072102,19.259636],[-99.072251,19.259693],[-99.072372,19.259736],[-99.07301,19.259955],[-99.073076,19.259982],[-99.073255,19.26007],[-99.074528,19.260512],[-99.074715,19.261127],[-99.07686,19.261611],[-99.07813,19.26108],[-99.078923,19.261272],[-99.080708,19.261707],[-99.08168,19.261971],[-99.083794,19.262449],[-99.087202,19.263405],[-99.088128,19.263699],[-99.08983,19.264129],[-99.091193,19.264483],[-99.092005,19.264666],[-99.092323,19.264743],[-99.092483,19.26479],[-99.092548,19.264797],[-99.093136,19.264918],[-99.09302,19.26535],[-99.092956,19.265605],[-99.092825,19.26608],[-99.092801,19.266254],[-99.09279,19.266378],[-99.092761,19.266432],[-99.092703,19.266561],[-99.092663,19.266676],[-99.092588,19.266896],[-99.092159,19.266705],[-99.090796,19.267952],[-99.090499,19.267965],[-99.090436,19.268142],[-99.091302,19.269976],[-99.09081,19.27121],[-99.090631,19.270981],[-99.090743,19.271341],[-99.091115,19.271631],[-99.092022,19.271765],[-99.092897,19.272046],[-99.093593,19.271898],[-99.094263,19.272077],[-99.094781,19.271572],[-99.095687,19.270864],[-99.095647,19.271323],[-99.095626,19.272021],[-99.095285,19.272222],[-99.094741,19.272605],[-99.093976,19.273026],[-99.094722,19.273351],[-99.095524,19.273616],[-99.096726,19.273333],[-99.097884,19.273521],[-99.098751,19.273751],[-99.098711,19.274286],[-99.098611,19.274994],[-99.09851,19.275491],[-99.098768,19.275809],[-99.098186,19.276347],[-99.097715,19.276118],[-99.097564,19.276549],[-99.097502,19.277338],[-99.098273,19.27714],[-99.099176,19.276733],[-99.100231,19.275818],[-99.10114,19.275364],[-99.101329,19.275123],[-99.101562,19.274949],[-99.101772,19.274013],[-99.10191,19.273615],[-99.102023,19.273107],[-99.102038,19.272552],[-99.102114,19.272584],[-99.102281,19.272589],[-99.102549,19.272597],[-99.102539,19.272737],[-99.102543,19.272952],[-99.102522,19.273013],[-99.102519,19.27309],[-99.102514,19.273178],[-99.102517,19.273329],[-99.102516,19.273585],[-99.102512,19.273693],[-99.102522,19.273856],[-99.102532,19.274107],[-99.102585,19.274129],[-99.102653,19.274131],[-99.102691,19.274098],[-99.102723,19.274066],[-99.102907,19.273892],[-99.102962,19.273826],[-99.102994,19.273795],[-99.103026,19.273761],[-99.103053,19.273729],[-99.103142,19.273609],[-99.103178,19.273607],[-99.103482,19.273272],[-99.103544,19.273216],[-99.103627,19.273119],[-99.103669,19.273062],[-99.103737,19.272979],[-99.103806,19.272814],[-99.10388,19.27271],[-99.103994,19.272542],[-99.104028,19.272502],[-99.104051,19.272463],[-99.104064,19.272447],[-99.104066,19.27242],[-99.104104,19.272233],[-99.104142,19.272185],[-99.104186,19.272147],[-99.104224,19.272108],[-99.104258,19.272065],[-99.104293,19.272013],[-99.104326,19.271957],[-99.104384,19.271889],[-99.104943,19.271742],[-99.106172,19.272047],[-99.106111,19.27243],[-99.105906,19.272423],[-99.105683,19.272398],[-99.104552,19.27234],[-99.104419,19.272324],[-99.104155,19.275163],[-99.103371,19.283355],[-99.103195,19.285198],[-99.101911,19.286179],[-99.101655,19.286351],[-99.101093,19.286428],[-99.099584,19.286301],[-99.097819,19.286123],[-99.095692,19.285803],[-99.09237,19.28522],[-99.090376,19.288672],[-99.090422,19.289656],[-99.092619,19.290918],[-99.091723,19.292468],[-99.090357,19.29452],[-99.08785,19.298866],[-99.08684,19.300472],[-99.085452,19.298711],[-99.081588,19.293934],[-99.079717,19.291693],[-99.078758,19.290461],[-99.080176,19.289206],[-99.077984,19.287069],[-99.075333,19.284507],[-99.073712,19.286048],[-99.072342,19.284834]]]]}},{"type":"Feature","properties":{"area":"Ejidos de Xochimilco y San Gregorio Atlapulco","zona":"Protección","zona_k":"proteccion","ha":347.3},"geometry":{"type":"MultiPolygon","coordinates":[[[[-99.069213,19.274687],[-99.067691,19.277419],[-99.066988,19.276778],[-99.064462,19.277992],[-99.06125,19.276649],[-99.046876,19.268332],[-99.048259,19.267773],[-99.049084,19.267818],[-99.049362,19.267292],[-99.054592,19.266321],[-99.05583,19.266777],[-99.067939,19.271299],[-99.068251,19.27157],[-99.068953,19.27332],[-99.069625,19.273587],[-99.071287,19.272974],[-99.073359,19.271021],[-99.073731,19.270216],[-99.075311,19.26863],[-99.075679,19.268697],[-99.074116,19.272896],[-99.076254,19.27346],[-99.075807,19.274827],[-99.074515,19.276868],[-99.074807,19.277288],[-99.073947,19.279491],[-99.072058,19.278852],[-99.073162,19.276507],[-99.069213,19.274687]]],[[[-99.116376,19.281139],[-99.116486,19.281276],[-99.116545,19.281513],[-99.115257,19.28569],[-99.114945,19.286564],[-99.114315,19.288347],[-99.114149,19.288894],[-99.114081,19.289077],[-99.114013,19.289204],[-99.11392,19.289317],[-99.113885,19.289348],[-99.113859,19.289369],[-99.113847,19.289375],[-99.113828,19.289382],[-99.113739,19.289403],[-99.1136,19.289434],[-99.113394,19.289495],[-99.112905,19.289663],[-99.111381,19.290256],[-99.109007,19.291199],[-99.106434,19.292221],[-99.106292,19.289891],[-99.106163,19.287747],[-99.10611,19.286346],[-99.106112,19.286034],[-99.106119,19.285799],[-99.106153,19.285672],[-99.106209,19.285548],[-99.106346,19.285349],[-99.10656,19.285125],[-99.106892,19.284967],[-99.107597,19.284655],[-99.108125,19.284417],[-99.11054,19.283368],[-99.113353,19.282096],[-99.115764,19.281085],[-99.115927,19.281055],[-99.116154,19.281039],[-99.116376,19.281139]]],[[[-99.100043,19.305088],[-99.099688,19.309304],[-99.099315,19.313674],[-99.099262,19.314747],[-99.099111,19.317506],[-99.099029,19.319528],[-99.098495,19.318618],[-99.098155,19.317995],[-99.098018,19.317753],[-99.097839,19.317482],[-99.095968,19.314998],[-99.094604,19.313241],[-99.091827,19.309774],[-99.089947,19.307563],[-99.097957,19.304219],[-99.100188,19.303287],[-99.100043,19.305088]]]]}},{"type":"Feature","properties":{"area":"Ejidos de Xochimilco y San Gregorio Atlapulco","zona":"Restauración Ecológica","zona_k":"restauracion ecologica","ha":531.3},"geometry":{"type":"MultiPolygon","coordinates":[[[[-99.076883,19.257294],[-99.079293,19.257756],[-99.079118,19.258201],[-99.079054,19.258364],[-99.078996,19.25852],[-99.078936,19.258673],[-99.078906,19.25875],[-99.078925,19.258757],[-99.07858,19.259683],[-99.078697,19.259722],[-99.078452,19.260332],[-99.07813,19.26108],[-99.07686,19.261611],[-99.074715,19.261127],[-99.074528,19.260512],[-99.075613,19.257143],[-99.075629,19.257107],[-99.075649,19.257075],[-99.075667,19.257053],[-99.075694,19.257032],[-99.075718,19.257016],[-99.076883,19.257294]]],[[[-99.058735,19.260311],[-99.058485,19.259578],[-99.057727,19.258858],[-99.057141,19.258172],[-99.05674,19.2575],[-99.056359,19.256685],[-99.056406,19.256341],[-99.056668,19.256199],[-99.056868,19.256285],[-99.057545,19.256635],[-99.057829,19.25671],[-99.058303,19.256716],[-99.058375,19.256648],[-99.058497,19.256652],[-99.058573,19.256672],[-99.058666,19.256675],[-99.058737,19.256688],[-99.058835,19.256693],[-99.059163,19.256967],[-99.059034,19.257444],[-99.059093,19.258449],[-99.059232,19.258933],[-99.059795,19.25883],[-99.060072,19.258457],[-99.060117,19.258396],[-99.060335,19.258448],[-99.06028,19.258705],[-99.060494,19.258757],[-99.060631,19.258787],[-99.060778,19.258836],[-99.060922,19.259249],[-99.061003,19.25951],[-99.061028,19.25974],[-99.061078,19.259955],[-99.061208,19.260191],[-99.061342,19.260316],[-99.061763,19.260332],[-99.06202,19.260179],[-99.062151,19.259854],[-99.062277,19.259433],[-99.062251,19.259127],[-99.062211,19.258863],[-99.062283,19.258621],[-99.062431,19.258144],[-99.06249,19.257948],[-99.062759,19.258006],[-99.063103,19.258085],[-99.063565,19.258187],[-99.063728,19.258223],[-99.06372,19.258261],[-99.06392,19.258311],[-99.06393,19.258277],[-99.064189,19.258324],[-99.064213,19.258336],[-99.064426,19.258358],[-99.064477,19.258248],[-99.064506,19.258157],[-99.064538,19.258058],[-99.064874,19.258166],[-99.065025,19.258209],[-99.065156,19.258263],[-99.065482,19.258516],[-99.065551,19.2586],[-99.065771,19.258855],[-99.065881,19.258943],[-99.066031,19.258993],[-99.066424,19.259171],[-99.067565,19.259582],[-99.0678,19.259672],[-99.068028,19.25969],[-99.068021,19.260461],[-99.067426,19.260784],[-99.06645,19.261399],[-99.065327,19.262119],[-99.064597,19.262428],[-99.063852,19.262553],[-99.06281,19.262472],[-99.062301,19.262185],[-99.061286,19.262054],[-99.060886,19.262504],[-99.060287,19.263218],[-99.059678,19.263576],[-99.058837,19.263716],[-99.058253,19.263506],[-99.058293,19.262951],[-99.058756,19.262052],[-99.058717,19.26103],[-99.058735,19.260311]]],[[[-99.054034,19.273739],[-99.052374,19.273203],[-99.051007,19.272913],[-99.05012,19.272713],[-99.049234,19.272455],[-99.048881,19.272244],[-99.047642,19.272216],[-99.04731,19.272139],[-99.047219,19.271958],[-99.047046,19.272461],[-99.046744,19.272446],[-99.046478,19.272427],[-99.046285,19.27243],[-99.04612,19.272564],[-99.045958,19.272534],[-99.04591,19.272396],[-99.045829,19.272373],[-99.045628,19.272499],[-99.045519,19.272477],[-99.045297,19.272464],[-99.044924,19.272304],[-99.044748,19.272247],[-99.044586,19.272256],[-99.044264,19.272189],[-99.044126,19.272091],[-99.043957,19.271977],[-99.043859,19.271828],[-99.043455,19.271584],[-99.043187,19.27164],[-99.043091,19.27166],[-99.04287,19.272052],[-99.042457,19.271918],[-99.042154,19.271842],[-99.04153,19.271574],[-99.041278,19.271545],[-99.041057,19.271679],[-99.040855,19.27189],[-99.040231,19.272053],[-99.039484,19.272505],[-99.038676,19.272046],[-99.038622,19.272026],[-99.038656,19.271846],[-99.038882,19.271188],[-99.038833,19.271131],[-99.038483,19.270993],[-99.038277,19.270932],[-99.038277,19.270859],[-99.038507,19.270037],[-99.038604,19.269769],[-99.038447,19.269723],[-99.038447,19.269511],[-99.038314,19.269379],[-99.03815,19.269322],[-99.038561,19.268564],[-99.03797,19.268209],[-99.037414,19.268045],[-99.037454,19.267785],[-99.037551,19.267689],[-99.037793,19.267777],[-99.037829,19.267589],[-99.038168,19.267662],[-99.038288,19.267463],[-99.038268,19.26723],[-99.038401,19.267145],[-99.038731,19.26721],[-99.038876,19.267333],[-99.038881,19.267601],[-99.039607,19.267759],[-99.039846,19.267585],[-99.039947,19.267671],[-99.039985,19.267675],[-99.040239,19.2677],[-99.04032,19.267317],[-99.040461,19.267087],[-99.040484,19.266715],[-99.040405,19.266606],[-99.040347,19.266595],[-99.040061,19.266543],[-99.040206,19.266078],[-99.040526,19.266061],[-99.040998,19.266036],[-99.04128,19.26547],[-99.041884,19.26573],[-99.042312,19.265753],[-99.042706,19.265408],[-99.04298,19.265072],[-99.043117,19.264459],[-99.043407,19.264505],[-99.043504,19.264406],[-99.043165,19.264192],[-99.043165,19.263893],[-99.043689,19.2641],[-99.0446,19.265155],[-99.045154,19.26548],[-99.045305,19.265326],[-99.045728,19.265422],[-99.045878,19.265493],[-99.046255,19.264747],[-99.046854,19.263426],[-99.049068,19.264243],[-99.05073,19.264862],[-99.051407,19.265091],[-99.052087,19.263029],[-99.053124,19.262512],[-99.053255,19.262732],[-99.054393,19.262933],[-99.054581,19.262497],[-99.055318,19.262588],[-99.055088,19.263317],[-99.055264,19.26342],[-99.055131,19.26396],[-99.055349,19.264],[-99.05553,19.26404],[-99.055572,19.263902],[-99.055778,19.263736],[-99.056279,19.263856],[-99.057433,19.264194],[-99.057627,19.26428],[-99.057506,19.264625],[-99.05801,19.265088],[-99.058765,19.26546],[-99.058765,19.26562],[-99.059019,19.265742],[-99.058895,19.266404],[-99.059344,19.266538],[-99.059622,19.266538],[-99.059785,19.266193],[-99.060226,19.266394],[-99.060359,19.26621],[-99.060975,19.266353],[-99.060573,19.267543],[-99.060774,19.267629],[-99.060976,19.266998],[-99.061237,19.266673],[-99.061882,19.266873],[-99.062184,19.266146],[-99.062818,19.266165],[-99.06302,19.265869],[-99.065649,19.266863],[-99.068855,19.267977],[-99.068405,19.26937],[-99.067602,19.271173],[-99.05583,19.266777],[-99.054592,19.266321],[-99.049362,19.267292],[-99.049084,19.267818],[-99.048259,19.267773],[-99.046876,19.268332],[-99.06125,19.276649],[-99.060925,19.276851],[-99.055556,19.27373],[-99.05523,19.273772],[-99.054034,19.273739]]],[[[-99.098768,19.275809],[-99.09851,19.275491],[-99.098611,19.274994],[-99.098711,19.274286],[-99.098751,19.273751],[-99.097884,19.273521],[-99.096726,19.273332],[-99.095524,19.273616],[-99.094722,19.273351],[-99.093976,19.273026],[-99.094741,19.272605],[-99.095285,19.272222],[-99.095626,19.272021],[-99.095647,19.271323],[-99.095687,19.270864],[-99.094781,19.271572],[-99.094263,19.272077],[-99.093593,19.271898],[-99.092897,19.272046],[-99.092022,19.271765],[-99.091115,19.271631],[-99.090743,19.271341],[-99.090631,19.270981],[-99.09081,19.27121],[-99.091302,19.269976],[-99.090436,19.268142],[-99.090499,19.267965],[-99.090796,19.267952],[-99.092159,19.266705],[-99.092588,19.266896],[-99.09259,19.266936],[-99.092586,19.266981],[-99.09257,19.267029],[-99.092539,19.267117],[-99.092553,19.267149],[-99.092546,19.26721],[-99.092524,19.267248],[-99.092512,19.267277],[-99.092488,19.267332],[-99.092475,19.267372],[-99.09245,19.267481],[-99.092439,19.267549],[-99.092433,19.267571],[-99.092406,19.267734],[-99.092401,19.267766],[-99.092397,19.267784],[-99.092392,19.26782],[-99.09239,19.267856],[-99.092384,19.267912],[-99.092378,19.267964],[-99.092364,19.268037],[-99.092322,19.268217],[-99.092268,19.26838],[-99.092244,19.268457],[-99.092157,19.268665],[-99.092049,19.268936],[-99.092055,19.26899],[-99.092079,19.269022],[-99.09241,19.269141],[-99.092617,19.269225],[-99.092738,19.269268],[-99.092841,19.269329],[-99.092904,19.269358],[-99.092952,19.269383],[-99.093052,19.269426],[-99.09314,19.269485],[-99.0932,19.269521],[-99.09327,19.269548],[-99.093384,19.269588],[-99.093496,19.269572],[-99.093558,19.269539],[-99.093579,19.269489],[-99.093665,19.26943],[-99.093766,19.269412],[-99.093937,19.269419],[-99.094006,19.269403],[-99.09411,19.269337],[-99.094213,19.269267],[-99.094325,19.269215],[-99.094411,19.269154],[-99.094462,19.269143],[-99.094841,19.269199],[-99.094939,19.269133],[-99.095025,19.26898],[-99.09515,19.268729],[-99.095235,19.268541],[-99.095305,19.268417],[-99.095359,19.268268],[-99.095435,19.268186],[-99.095477,19.268071],[-99.095522,19.26799],[-99.095555,19.267899],[-99.095579,19.267863],[-99.095607,19.267712],[-99.095674,19.267662],[-99.095715,19.267594],[-99.095746,19.267508],[-99.095772,19.267434],[-99.095807,19.26735],[-99.095838,19.267264],[-99.095875,19.267138],[-99.095939,19.267023],[-99.096024,19.266912],[-99.096054,19.266858],[-99.096099,19.266756],[-99.096161,19.266638],[-99.096219,19.266467],[-99.096246,19.266388],[-99.096364,19.266417],[-99.096498,19.266469],[-99.096647,19.266534],[-99.096813,19.266595],[-99.097087,19.266703],[-99.097243,19.266785],[-99.097337,19.266909],[-99.097522,19.266961],[-99.097623,19.266995],[-99.097695,19.267008],[-99.097772,19.267024],[-99.097894,19.267042],[-99.097959,19.267031],[-99.098103,19.267008],[-99.098359,19.266976],[-99.098294,19.26722],[-99.098258,19.267342],[-99.098285,19.267351],[-99.098271,19.267403],[-99.098247,19.2675],[-99.098216,19.2676],[-99.098185,19.267715],[-99.09815,19.267828],[-99.098109,19.267882],[-99.098072,19.267964],[-99.098032,19.268108],[-99.097951,19.268321],[-99.097921,19.268445],[-99.097869,19.268587],[-99.098101,19.26868],[-99.098013,19.268942],[-99.09813,19.268974],[-99.098573,19.269127],[-99.098793,19.269167],[-99.098808,19.269127],[-99.098854,19.269023],[-99.098903,19.269045],[-99.098947,19.269059],[-99.098978,19.26907],[-99.099021,19.2691],[-99.099054,19.26912],[-99.099111,19.269131],[-99.09922,19.269158],[-99.099188,19.26919],[-99.099169,19.269242],[-99.09916,19.269287],[-99.099149,19.269321],[-99.099129,19.269391],[-99.099082,19.269472],[-99.099061,19.269524],[-99.099029,19.269624],[-99.099017,19.269612],[-99.098985,19.269669],[-99.098989,19.269714],[-99.098967,19.269789],[-99.098968,19.269836],[-99.098956,19.269897],[-99.098951,19.269931],[-99.09893,19.269974],[-99.098949,19.270071],[-99.099052,19.270137],[-99.099071,19.270148],[-99.099115,19.270166],[-99.09915,19.270182],[-99.099153,19.270213],[-99.099168,19.270245],[-99.099223,19.270247],[-99.099275,19.270263],[-99.099331,19.270254],[-99.099388,19.270258],[-99.099493,19.270292],[-99.099597,19.270292],[-99.099697,19.270324],[-99.099735,19.270322],[-99.099767,19.270303],[-99.099802,19.270297],[-99.099886,19.270301],[-99.099916,19.270299],[-99.099952,19.270299],[-99.099985,19.270303],[-99.100015,19.270306],[-99.100037,19.270306],[-99.100111,19.270301],[-99.100127,19.27029],[-99.10026,19.270292],[-99.100247,19.270389],[-99.100249,19.270439],[-99.100256,19.270509],[-99.100243,19.270588],[-99.100216,19.270647],[-99.100181,19.270742],[-99.100159,19.270818],[-99.100172,19.270823],[-99.100164,19.270888],[-99.100153,19.270949],[-99.100142,19.271051],[-99.100131,19.271096],[-99.10017,19.271123],[-99.100214,19.271146],[-99.100264,19.271166],[-99.100356,19.271187],[-99.100315,19.271281],[-99.100306,19.271347],[-99.100288,19.271496],[-99.100279,19.271528],[-99.100276,19.271546],[-99.100272,19.271562],[-99.100269,19.271577],[-99.100264,19.271645],[-99.100281,19.271708],[-99.100284,19.27172],[-99.100294,19.271742],[-99.100302,19.271758],[-99.100307,19.271765],[-99.100316,19.271776],[-99.100325,19.271788],[-99.10033,19.271792],[-99.100336,19.271799],[-99.100347,19.271803],[-99.100401,19.271833],[-99.100422,19.271851],[-99.100438,19.271891],[-99.100438,19.27193],[-99.100431,19.271952],[-99.100421,19.271993],[-99.100409,19.272038],[-99.100395,19.272056],[-99.100391,19.272068],[-99.100383,19.27209],[-99.100382,19.272108],[-99.100387,19.272122],[-99.100387,19.27214],[-99.100386,19.272185],[-99.100416,19.27219],[-99.100443,19.27219],[-99.100476,19.272194],[-99.10051,19.272192],[-99.100522,19.272196],[-99.100549,19.272199],[-99.100619,19.272201],[-99.100635,19.272208],[-99.100664,19.272217],[-99.100679,19.272223],[-99.100716,19.272235],[-99.100735,19.272237],[-99.100763,19.272244],[-99.100782,19.272246],[-99.100805,19.272248],[-99.100827,19.272244],[-99.100864,19.272248],[-99.100906,19.27225],[-99.100934,19.272255],[-99.100969,19.272257],[-99.101022,19.272262],[-99.101058,19.272266],[-99.101074,19.272262],[-99.101089,19.272259],[-99.101117,19.272253],[-99.101177,19.272234],[-99.101208,19.272243],[-99.101235,19.272248],[-99.10125,19.27228],[-99.101276,19.272282],[-99.101331,19.272291],[-99.101383,19.272295],[-99.101406,19.272304],[-99.101448,19.272318],[-99.101484,19.272334],[-99.101528,19.272349],[-99.101549,19.272358],[-99.101577,19.27237],[-99.101622,19.272379],[-99.101663,19.27239],[-99.101728,19.272417],[-99.101805,19.272453],[-99.101929,19.27251],[-99.102038,19.272552],[-99.102023,19.273107],[-99.10191,19.273615],[-99.101772,19.274013],[-99.101562,19.274949],[-99.101329,19.275123],[-99.10114,19.275364],[-99.100231,19.275818],[-99.099176,19.276733],[-99.098273,19.27714],[-99.097502,19.277338],[-99.097564,19.276549],[-99.097715,19.276118],[-99.098186,19.276347],[-99.098768,19.275809]]],[[[-99.073731,19.270216],[-99.073359,19.271021],[-99.071287,19.272974],[-99.069625,19.273587],[-99.068953,19.27332],[-99.068251,19.27157],[-99.068373,19.27165],[-99.070641,19.272448],[-99.072247,19.268454],[-99.07441,19.267879],[-99.07516,19.268246],[-99.075785,19.268472],[-99.075825,19.268487],[-99.076621,19.266329],[-99.076608,19.266207],[-99.076445,19.266148],[-99.075931,19.265962],[-99.075942,19.265928],[-99.076357,19.264677],[-99.076027,19.264478],[-99.0763,19.263674],[-99.076655,19.263743],[-99.076912,19.263139],[-99.077629,19.263391],[-99.077766,19.263108],[-99.079007,19.263451],[-99.078766,19.264247],[-99.078621,19.26476],[-99.078734,19.264936],[-99.079145,19.265074],[-99.07933,19.264798],[-99.079612,19.264591],[-99.080087,19.26456],[-99.079935,19.265085],[-99.080309,19.265211],[-99.080732,19.264201],[-99.081191,19.264292],[-99.080986,19.264832],[-99.082811,19.265508],[-99.08263,19.266105],[-99.081978,19.266289],[-99.081555,19.26746],[-99.084795,19.268342],[-99.083901,19.270386],[-99.081806,19.269698],[-99.081464,19.270769],[-99.081102,19.2723],[-99.080277,19.274203],[-99.079463,19.276442],[-99.080098,19.277991],[-99.079947,19.27911],[-99.078468,19.281492],[-99.075545,19.280284],[-99.075545,19.280024],[-99.073947,19.279491],[-99.074807,19.277288],[-99.074515,19.276868],[-99.075807,19.274827],[-99.076254,19.27346],[-99.074116,19.272896],[-99.075679,19.268697],[-99.075311,19.26863],[-99.073731,19.270216]]],[[[-99.106172,19.272047],[-99.104943,19.271742],[-99.104384,19.271889],[-99.104456,19.271731],[-99.104547,19.2716],[-99.104561,19.27155],[-99.104651,19.271421],[-99.104703,19.271351],[-99.104727,19.271283],[-99.104742,19.271234],[-99.104793,19.271109],[-99.104853,19.271051],[-99.105,19.270728],[-99.105257,19.270361],[-99.105308,19.270239],[-99.105409,19.270056],[-99.105417,19.270004],[-99.105442,19.269968],[-99.105501,19.269898],[-99.105618,19.269749],[-99.105715,19.269676],[-99.105779,19.269554],[-99.105834,19.269507],[-99.105903,19.269423],[-99.105958,19.269353],[-99.105972,19.269297],[-99.105996,19.269254],[-99.10603,19.269213],[-99.106178,19.269001],[-99.106385,19.268743],[-99.106439,19.268689],[-99.106521,19.268578],[-99.106528,19.268553],[-99.106653,19.268447],[-99.106708,19.268325],[-99.106722,19.268275],[-99.106745,19.268237],[-99.106773,19.268182],[-99.106779,19.268144],[-99.106815,19.268115],[-99.106868,19.268065],[-99.106901,19.268033],[-99.106935,19.267997],[-99.106943,19.267977],[-99.106957,19.26795],[-99.107104,19.26804],[-99.107238,19.268132],[-99.107271,19.268157],[-99.10732,19.268189],[-99.107365,19.268223],[-99.107402,19.268248],[-99.107447,19.268279],[-99.107487,19.268309],[-99.107532,19.268336],[-99.107565,19.268351],[-99.107607,19.268374],[-99.107641,19.268394],[-99.107679,19.268415],[-99.107712,19.26843],[-99.10775,19.268446],[-99.107848,19.26848],[-99.107874,19.268415],[-99.10788,19.268396],[-99.107887,19.268376],[-99.107893,19.268358],[-99.107896,19.268349],[-99.1079,19.26834],[-99.107906,19.26832],[-99.107913,19.268302],[-99.10792,19.268283],[-99.107926,19.268263],[-99.107934,19.268245],[-99.10794,19.268227],[-99.107947,19.268207],[-99.107955,19.268189],[-99.107962,19.26817],[-99.107969,19.268152],[-99.107976,19.268132],[-99.107984,19.268114],[-99.107991,19.268096],[-99.107999,19.268078],[-99.108006,19.268057],[-99.108014,19.268039],[-99.108022,19.268021],[-99.10803,19.268003],[-99.108038,19.267985],[-99.108046,19.267967],[-99.108054,19.267949],[-99.108062,19.267929],[-99.10807,19.267911],[-99.108078,19.267892],[-99.108087,19.267874],[-99.108096,19.267854],[-99.108103,19.267838],[-99.108112,19.26782],[-99.108121,19.267802],[-99.108172,19.267879],[-99.108186,19.267915],[-99.10821,19.267956],[-99.108294,19.268035],[-99.108412,19.268215],[-99.108598,19.268414],[-99.108749,19.268624],[-99.108861,19.268861],[-99.108918,19.269006],[-99.109063,19.269385],[-99.1091,19.269381],[-99.109125,19.269489],[-99.109187,19.269731],[-99.109196,19.269833],[-99.1091,19.270011],[-99.109021,19.270147],[-99.108873,19.2707],[-99.108851,19.270793],[-99.108871,19.270892],[-99.108916,19.271057],[-99.109031,19.271313],[-99.10917,19.271455],[-99.10927,19.271563],[-99.109359,19.271647],[-99.109575,19.271805],[-99.110202,19.271983],[-99.110634,19.272098],[-99.110882,19.272152],[-99.111086,19.272211],[-99.111174,19.272231],[-99.111188,19.272251],[-99.111364,19.272301],[-99.111428,19.272328],[-99.111672,19.272402],[-99.111653,19.272461],[-99.111592,19.272653],[-99.111514,19.272906],[-99.111483,19.273026],[-99.111452,19.273121],[-99.111412,19.27318],[-99.111352,19.273232],[-99.111251,19.273487],[-99.111167,19.273727],[-99.111094,19.273882],[-99.111061,19.273971],[-99.111009,19.274059],[-99.110966,19.274188],[-99.111763,19.274388],[-99.111859,19.27442],[-99.112057,19.274487],[-99.112191,19.274535],[-99.112393,19.274993],[-99.113826,19.275474],[-99.114167,19.274599],[-99.114209,19.2745],[-99.114295,19.274289],[-99.114351,19.274127],[-99.114498,19.273738],[-99.114557,19.273605],[-99.114609,19.273465],[-99.114698,19.273241],[-99.114944,19.273327],[-99.116407,19.273796],[-99.116601,19.273861],[-99.117329,19.274084],[-99.118221,19.274337],[-99.11866,19.274495],[-99.119349,19.274729],[-99.118946,19.275019],[-99.118205,19.275432],[-99.11593,19.27674],[-99.106511,19.281775],[-99.105689,19.28234],[-99.105674,19.282352],[-99.105593,19.282413],[-99.105571,19.281759],[-99.105079,19.281247],[-99.105906,19.272423],[-99.106111,19.27243],[-99.106172,19.272047]]],[[[-99.067691,19.277419],[-99.069213,19.274687],[-99.073162,19.276507],[-99.072058,19.278852],[-99.073621,19.279381],[-99.073357,19.279852],[-99.072399,19.279495],[-99.071854,19.279291],[-99.067672,19.277857],[-99.066943,19.276799],[-99.066988,19.276778],[-99.067691,19.277419]]]]}},{"type":"Feature","properties":{"area":"Ejidos de Xochimilco y San Gregorio Atlapulco","zona":"Uso Público","zona_k":"uso publico","ha":446.07},"geometry":{"type":"MultiPolygon","coordinates":[[[[-99.024061,19.261768],[-99.025986,19.262315],[-99.026104,19.262161],[-99.026293,19.26212],[-99.026559,19.262082],[-99.0267,19.262055],[-99.026729,19.261942],[-99.027215,19.260496],[-99.027181,19.260417],[-99.027519,19.259438],[-99.027654,19.259479],[-99.027611,19.259594],[-99.02772,19.259619],[-99.028425,19.259791],[-99.02853,19.259696],[-99.029024,19.259732],[-99.029525,19.259768],[-99.029968,19.2598],[-99.030394,19.259831],[-99.030106,19.260644],[-99.029438,19.262443],[-99.030331,19.263118],[-99.030488,19.264266],[-99.031939,19.265907],[-99.032918,19.266985],[-99.033383,19.267393],[-99.030666,19.266982],[-99.026775,19.265575],[-99.025251,19.265024],[-99.023279,19.263448],[-99.024061,19.261768]]],[[[-99.08337,19.2996],[-99.083189,19.299374],[-99.079987,19.29548],[-99.075078,19.289619],[-99.074112,19.288878],[-99.073045,19.288212],[-99.072066,19.287451],[-99.071042,19.286508],[-99.069257,19.284863],[-99.069247,19.284657],[-99.070013,19.283196],[-99.070248,19.28273],[-99.070476,19.283019],[-99.07142,19.283952],[-99.072342,19.284834],[-99.073712,19.286048],[-99.075333,19.284507],[-99.077984,19.287069],[-99.080176,19.289206],[-99.078758,19.290461],[-99.079717,19.291693],[-99.081588,19.293934],[-99.085452,19.298711],[-99.08684,19.300472],[-99.08785,19.298866],[-99.090357,19.29452],[-99.091723,19.292468],[-99.092619,19.290918],[-99.090422,19.289656],[-99.090376,19.288672],[-99.09237,19.28522],[-99.095692,19.285803],[-99.097805,19.286124],[-99.099584,19.286301],[-99.101093,19.286428],[-99.101655,19.286351],[-99.101911,19.286179],[-99.103195,19.285198],[-99.104155,19.275163],[-99.104419,19.272324],[-99.104552,19.27234],[-99.105683,19.272398],[-99.105906,19.272423],[-99.105079,19.281247],[-99.105571,19.281759],[-99.105593,19.282413],[-99.10558,19.282465],[-99.105263,19.286021],[-99.105118,19.287664],[-99.106163,19.287747],[-99.106292,19.289891],[-99.106434,19.292221],[-99.106033,19.292381],[-99.104666,19.292927],[-99.101858,19.294048],[-99.101149,19.294322],[-99.101076,19.294959],[-99.100936,19.296184],[-99.1005,19.299991],[-99.100343,19.301358],[-99.100188,19.303287],[-99.097957,19.304219],[-99.089947,19.307563],[-99.088799,19.306158],[-99.087624,19.304796],[-99.087073,19.304139],[-99.086855,19.303891],[-99.086688,19.303735],[-99.085132,19.301796],[-99.08337,19.2996]]]]}}]}