{"type":"FeatureCollection","features":[{"type":"Feature","properties":{"area":"Sierra de Santa Catarina (ZCE) · Sierra de Santa Catarina (ZSCE)","zona":"Uso público","zona_k":"uso publico","ha":21.97},"geometry":{"type":"MultiPolygon","coordinates":[[[[-98.994888,19.33477],[-98.994895,19.334781],[-98.994903,19.334788],[-98.994906,19.334797],[-98.994914,19.334806],[-98.994933,19.334824],[-98.994937,19.334833],[-98.99494,19.33484],[-98.994948,19.334849],[-98.99497,19.334851],[-98.994993,19.334849],[-98.995045,19.33484],[-98.995098,19.334837],[-98.995154,19.334833],[-98.995264,19.334831],[-98.994971,19.33613],[-98.994923,19.336216],[-98.994934,19.336403],[-98.995138,19.337198],[-98.994913,19.338116],[-98.994892,19.338427],[-98.994902,19.338572],[-98.994615,19.338561],[-98.994554,19.339275],[-98.994492,19.339446],[-98.99353,19.339324],[-98.993651,19.338816],[-98.993704,19.338502],[-98.993766,19.338233],[-98.993629,19.338208],[-98.99348,19.338111],[-98.993565,19.337842],[-98.993676,19.337415],[-98.993696,19.337291],[-98.993201,19.33728],[-98.993208,19.337004],[-98.993149,19.336945],[-98.993154,19.336737],[-98.992742,19.336532],[-98.992763,19.336285],[-98.992644,19.336252],[-98.992653,19.336184],[-98.99277,19.336139],[-98.992885,19.336069],[-98.992905,19.336051],[-98.992926,19.335723],[-98.992053,19.335438],[-98.991865,19.335416],[-98.991646,19.335465],[-98.99005,19.335068],[-98.990006,19.335036],[-98.989973,19.334991],[-98.989937,19.334918],[-98.98989,19.334844],[-98.989837,19.334778],[-98.98985,19.334632],[-98.989898,19.334439],[-98.98988,19.334315],[-98.989928,19.334067],[-98.989603,19.334024],[-98.989279,19.334114],[-98.989137,19.334121],[-98.9886,19.333999],[-98.988042,19.333942],[-98.987838,19.33476],[-98.988334,19.334866],[-98.988233,19.335196],[-98.988709,19.335264],[-98.988741,19.335682],[-98.988721,19.336132],[-98.988652,19.336538],[-98.988552,19.3369],[-98.987976,19.336737],[-98.987793,19.337582],[-98.98692,19.33746],[-98.987106,19.336586],[-98.987215,19.336606],[-98.987368,19.336007],[-98.987299,19.335991],[-98.987249,19.33593],[-98.987211,19.335836],[-98.987181,19.335806],[-98.987172,19.335795],[-98.987481,19.334421],[-98.987887,19.333459],[-98.987947,19.333466],[-98.988008,19.333468],[-98.988064,19.333472],[-98.988116,19.333475],[-98.988221,19.333486],[-98.988274,19.33349],[-98.98833,19.333493],[-98.988387,19.333499],[-98.988439,19.333504],[-98.988544,19.333515],[-98.988597,19.333518],[-98.988653,19.333522],[-98.988709,19.333524],[-98.988762,19.333533],[-98.988867,19.33354],[-98.988919,19.333542],[-98.988976,19.333551],[-98.989036,19.333554],[-98.989058,19.333558],[-98.989081,19.333558],[-98.989088,19.33354],[-98.989092,19.333522],[-98.9891,19.333486],[-98.989111,19.33345],[-98.989115,19.333432],[-98.989118,19.333418],[-98.989126,19.333405],[-98.98913,19.333387],[-98.989137,19.33335],[-98.989148,19.333314],[-98.989152,19.333298],[-98.98916,19.333283],[-98.989163,19.333269],[-98.989167,19.333251],[-98.989179,19.333215],[-98.989186,19.333179],[-98.98919,19.333163],[-98.989197,19.333152],[-98.989205,19.333134],[-98.989216,19.333115],[-98.989223,19.333097],[-98.989235,19.333079],[-98.989242,19.333061],[-98.989254,19.333045],[-98.989261,19.333027],[-98.989272,19.333005],[-98.989284,19.332987],[-98.989291,19.332969],[-98.989302,19.332953],[-98.98931,19.332935],[-98.989321,19.332917],[-98.989329,19.332899],[-98.98934,19.33288],[-98.989348,19.332862],[-98.989355,19.332851],[-98.989378,19.33286],[-98.989396,19.332867],[-98.98943,19.332899],[-98.989437,19.332917],[-98.989479,19.332953],[-98.989486,19.332969],[-98.98952,19.333005],[-98.989524,19.333016],[-98.989558,19.333052],[-98.989561,19.333061],[-98.989606,19.333104],[-98.98961,19.333115],[-98.989644,19.333152],[-98.989648,19.333163],[-98.989685,19.333197],[-98.989693,19.333206],[-98.989697,19.333215],[-98.989723,19.33324],[-98.98973,19.333251],[-98.989734,19.333262],[-98.989775,19.333305],[-98.989783,19.333314],[-98.989809,19.333339],[-98.98982,19.333357],[-98.989847,19.333387],[-98.989858,19.333405],[-98.989896,19.333441],[-98.989899,19.33345],[-98.989907,19.333459],[-98.989918,19.333472],[-98.989929,19.333475],[-98.98994,19.333472],[-98.989967,19.333468],[-98.990023,19.333459],[-98.990083,19.33345],[-98.990139,19.333441],[-98.990196,19.333432],[-98.990252,19.333423],[-98.990308,19.333416],[-98.990368,19.333405],[-98.990425,19.333398],[-98.990481,19.333387],[-98.990537,19.333375],[-98.990567,19.333373],[-98.990586,19.333369],[-98.990605,19.333373],[-98.99062,19.333387],[-98.990627,19.333405],[-98.990669,19.333441],[-98.990672,19.33345],[-98.990676,19.333459],[-98.990714,19.333493],[-98.990721,19.333504],[-98.990725,19.333515],[-98.99077,19.333558],[-98.990778,19.333567],[-98.990781,19.333576],[-98.990819,19.33361],[-98.990823,19.333622],[-98.99083,19.333633],[-98.990853,19.333653],[-98.990913,19.333658],[-98.990976,19.33366],[-98.991089,19.333669],[-98.991318,19.333676],[-98.991434,19.333678],[-98.991524,19.333685],[-98.991615,19.333678],[-98.991682,19.333676],[-98.991746,19.333671],[-98.991817,19.333669],[-98.99196,19.333658],[-98.992035,19.333653],[-98.992099,19.333651],[-98.992166,19.333644],[-98.992238,19.33364],[-98.99238,19.333633],[-98.992452,19.333626],[-98.992519,19.333622],[-98.992587,19.333617],[-98.992624,19.33361],[-98.992662,19.33361],[-98.992666,19.333633],[-98.992669,19.333658],[-98.992677,19.333685],[-98.992681,19.333708],[-98.992684,19.333728],[-98.992692,19.333757],[-98.992699,19.333812],[-98.992703,19.333839],[-98.992711,19.333861],[-98.992714,19.333886],[-98.992718,19.333911],[-98.992722,19.333938],[-98.992729,19.333961],[-98.992733,19.333981],[-98.992737,19.33401],[-98.992741,19.33404],[-98.992748,19.33406],[-98.992752,19.33408],[-98.992755,19.33411],[-98.992763,19.334139],[-98.992767,19.334159],[-98.992771,19.334182],[-98.992775,19.334209],[-98.992786,19.334263],[-98.992789,19.334293],[-98.992793,19.334313],[-98.992801,19.334333],[-98.992804,19.334363],[-98.992808,19.334392],[-98.992812,19.334412],[-98.992819,19.334435],[-98.992823,19.334462],[-98.992827,19.334487],[-98.992834,19.334503],[-98.992834,19.334516],[-98.993157,19.334516],[-98.993161,19.334444],[-98.993165,19.334413],[-98.993165,19.334381],[-98.99318,19.334381],[-98.993195,19.334376],[-98.993232,19.33437],[-98.993307,19.334363],[-98.993386,19.334352],[-98.993461,19.334345],[-98.993499,19.334342],[-98.993518,19.334333],[-98.993536,19.334333],[-98.993536,19.334175],[-98.993589,19.334175],[-98.993641,19.334166],[-98.993698,19.334164],[-98.993758,19.334164],[-98.993765,19.334275],[-98.993765,19.334309],[-98.994099,19.334309],[-98.994099,19.334284],[-98.994096,19.334263],[-98.994088,19.334245],[-98.994088,19.334227],[-98.994118,19.334227],[-98.994148,19.334225],[-98.994208,19.334216],[-98.994272,19.334214],[-98.99431,19.334209],[-98.994347,19.334214],[-98.994538,19.334394],[-98.994557,19.334401],[-98.994764,19.334605],[-98.994771,19.334616],[-98.99479,19.334634],[-98.994798,19.334652],[-98.994812,19.33467],[-98.994816,19.334679],[-98.994843,19.334704],[-98.994846,19.334715],[-98.994858,19.334722],[-98.994865,19.33474],[-98.994888,19.33477]]]]}},{"type":"Feature","properties":{"area":"Sierra de Santa Catarina (ZCE) · Sierra de Santa Catarina (ZSCE)","zona":"Uso público","zona_k":"uso publico","ha":42.45},"geometry":{"type":"MultiPolygon","coordinates":[[[[-98.98504,19.33326],[-98.985065,19.333813],[-98.984587,19.335381],[-98.985284,19.335594],[-98.98484,19.336888],[-98.984316,19.336834],[-98.983639,19.336809],[-98.98316,19.336834],[-98.983283,19.336662],[-98.983192,19.33661],[-98.983245,19.336524],[-98.983165,19.336468],[-98.98276,19.336224],[-98.982703,19.33633],[-98.982634,19.336285],[-98.98243,19.336628],[-98.982313,19.336752],[-98.982216,19.336809],[-98.982126,19.336938],[-98.982393,19.337015],[-98.982367,19.337123],[-98.98227,19.337234],[-98.98222,19.337383],[-98.982093,19.337358],[-98.981994,19.337394],[-98.98181,19.337329],[-98.981817,19.337308],[-98.981646,19.337252],[-98.980852,19.336967],[-98.980893,19.336877],[-98.980438,19.336723],[-98.980712,19.336084],[-98.980061,19.336031],[-98.979055,19.335914],[-98.979029,19.335939],[-98.978876,19.336165],[-98.978577,19.336203],[-98.977961,19.336022],[-98.977715,19.335961],[-98.977279,19.335889],[-98.977288,19.335841],[-98.977229,19.33583],[-98.977256,19.335724],[-98.97704,19.335665],[-98.976979,19.335597],[-98.977001,19.3355],[-98.976373,19.335285],[-98.976379,19.335267],[-98.97642,19.33524],[-98.976432,19.335098],[-98.976422,19.335096],[-98.976897,19.333067],[-98.976689,19.332832],[-98.976689,19.332821],[-98.976707,19.332696],[-98.976776,19.332346],[-98.977146,19.332405],[-98.977533,19.332299],[-98.977841,19.332346],[-98.97859,19.333124],[-98.9791,19.333212],[-98.979639,19.33302],[-98.979793,19.332923],[-98.979805,19.332864],[-98.979858,19.332873],[-98.979888,19.33276],[-98.979917,19.332767],[-98.980013,19.332502],[-98.9801,19.332435],[-98.980137,19.332437],[-98.980196,19.332365],[-98.980232,19.332265],[-98.980293,19.332267],[-98.980312,19.332166],[-98.98034,19.332175],[-98.980539,19.332008],[-98.98066,19.331766],[-98.980742,19.331626],[-98.98077,19.33156],[-98.980835,19.33124],[-98.980904,19.331249],[-98.980918,19.331188],[-98.980968,19.331043],[-98.981053,19.331063],[-98.981423,19.331104],[-98.98151,19.33112],[-98.98187,19.331244],[-98.981915,19.331285],[-98.98235,19.331375],[-98.982385,19.331224],[-98.983264,19.33157],[-98.983749,19.331414],[-98.984354,19.331676],[-98.984322,19.331911],[-98.984719,19.33206],[-98.984669,19.332227],[-98.985028,19.332471],[-98.985148,19.332722],[-98.985435,19.333154],[-98.98504,19.33326]]]]}},{"type":"Feature","properties":{"area":"Sierra de Santa Catarina (ZCE) · Sierra de Santa Catarina (ZSCE)","zona":"Uso público","zona_k":"uso publico","ha":28.92},"geometry":{"type":"MultiPolygon","coordinates":[[[[-98.974044,19.330346],[-98.974201,19.330398],[-98.974765,19.331076],[-98.974449,19.331657],[-98.974886,19.331903],[-98.975356,19.332095],[-98.975316,19.332181],[-98.975631,19.33231],[-98.975702,19.332145],[-98.975781,19.332168],[-98.976014,19.332425],[-98.976573,19.333266],[-98.976069,19.335482],[-98.976002,19.335534],[-98.976042,19.335602],[-98.975823,19.336535],[-98.975435,19.336456],[-98.975428,19.336492],[-98.975192,19.336352],[-98.974903,19.336232],[-98.974688,19.336225],[-98.973598,19.335622],[-98.973236,19.3354],[-98.973083,19.335624],[-98.972933,19.335497],[-98.97226,19.33493],[-98.971523,19.334306],[-98.970182,19.333192],[-98.968625,19.331866],[-98.969124,19.331254],[-98.969237,19.331251],[-98.969541,19.331346],[-98.969647,19.331403],[-98.969913,19.331441],[-98.970293,19.33157],[-98.970903,19.331695],[-98.971136,19.331735],[-98.971443,19.331769],[-98.971664,19.331098],[-98.972479,19.331471],[-98.972588,19.331153],[-98.972686,19.33087],[-98.972691,19.330854],[-98.972909,19.330906],[-98.973176,19.330918],[-98.973803,19.330909],[-98.973888,19.330644],[-98.973935,19.330348],[-98.974044,19.330346]]]]}},{"type":"Feature","properties":{"area":"Sierra de Santa Catarina (ZCE) · Sierra de Santa Catarina (ZSCE)","zona":"Uso público","zona_k":"uso publico","ha":0.5},"geometry":{"type":"MultiPolygon","coordinates":[[[[-99.002439,19.334688],[-99.002435,19.334724],[-99.002436,19.335106],[-99.002503,19.335264],[-99.002573,19.335601],[-99.002478,19.335601],[-99.002436,19.335789],[-99.002447,19.335865],[-99.00244,19.336005],[-99.002482,19.336075],[-99.002295,19.336098],[-99.002137,19.335343],[-99.002106,19.335294],[-99.002106,19.335127],[-99.002102,19.334975],[-99.002094,19.334824],[-99.002094,19.33467],[-99.002192,19.334672],[-99.002279,19.334679],[-99.002361,19.334684],[-99.002402,19.334688],[-99.002439,19.334688]]]]}},{"type":"Feature","properties":{"area":"Sierra de Santa Catarina (ZCE) · Sierra de Santa Catarina (ZSCE)","zona":"Recuperación","zona_k":"recuperacion","ha":66.59},"geometry":{"type":"MultiPolygon","coordinates":[[[[-98.98504,19.33326],[-98.985435,19.333154],[-98.985148,19.332722],[-98.985028,19.332471],[-98.984669,19.332227],[-98.984719,19.33206],[-98.984322,19.331911],[-98.984354,19.331676],[-98.983749,19.331414],[-98.983264,19.33157],[-98.982385,19.331224],[-98.98235,19.331375],[-98.981915,19.331285],[-98.982021,19.330754],[-98.98194,19.330697],[-98.981954,19.33058],[-98.981779,19.330528],[-98.9818,19.33037],[-98.981818,19.330288],[-98.982141,19.330377],[-98.982264,19.329986],[-98.982229,19.329977],[-98.982161,19.32997],[-98.981918,19.3299],[-98.982015,19.329574],[-98.982067,19.329493],[-98.982111,19.329269],[-98.982003,19.329249],[-98.981622,19.329197],[-98.981652,19.329089],[-98.981504,19.329066],[-98.981413,19.329055],[-98.981133,19.329032],[-98.980911,19.32893],[-98.980857,19.329245],[-98.980838,19.329439],[-98.980711,19.329333],[-98.980457,19.329238],[-98.980297,19.329131],[-98.980223,19.329064],[-98.980129,19.329034],[-98.979981,19.329037],[-98.979882,19.329059],[-98.979855,19.329224],[-98.979298,19.329107],[-98.97927,19.328851],[-98.979163,19.328795],[-98.979399,19.327954],[-98.979503,19.327505],[-98.979422,19.327473],[-98.979569,19.327254],[-98.979609,19.327177],[-98.979665,19.326949],[-98.979761,19.326635],[-98.979796,19.326472],[-98.979812,19.326104],[-98.979784,19.326036],[-98.979537,19.325769],[-98.980306,19.324947],[-98.98053,19.324733],[-98.980509,19.324651],[-98.980553,19.324606],[-98.980281,19.324134],[-98.980246,19.3241],[-98.980022,19.324071],[-98.979863,19.324032],[-98.979669,19.323953],[-98.979319,19.323944],[-98.979011,19.323951],[-98.978911,19.323937],[-98.978752,19.323874],[-98.978658,19.323966],[-98.978679,19.323978],[-98.978584,19.324527],[-98.978506,19.324531],[-98.978504,19.324567],[-98.978448,19.324581],[-98.97836,19.324665],[-98.978352,19.324766],[-98.978349,19.324816],[-98.978367,19.324836],[-98.978363,19.324854],[-98.978423,19.324999],[-98.978489,19.32506],[-98.978535,19.325089],[-98.978472,19.325333],[-98.978476,19.325342],[-98.977942,19.325403],[-98.977793,19.32534],[-98.977434,19.325216],[-98.976961,19.325042],[-98.976532,19.324886],[-98.976409,19.324854],[-98.97622,19.324856],[-98.976177,19.324863],[-98.975988,19.324856],[-98.975914,19.325003],[-98.975708,19.32541],[-98.975648,19.325518],[-98.975471,19.325371],[-98.97539,19.325387],[-98.975283,19.325426],[-98.975111,19.32555],[-98.975005,19.325581],[-98.974986,19.325572],[-98.974944,19.325568],[-98.974872,19.325561],[-98.974836,19.325545],[-98.974803,19.325529],[-98.974793,19.325529],[-98.974789,19.325518],[-98.97473,19.325491],[-98.974714,19.325477],[-98.974667,19.325464],[-98.974643,19.325444],[-98.974628,19.325444],[-98.974571,19.325416],[-98.974521,19.32541],[-98.974496,19.325401],[-98.974464,19.325396],[-98.974437,19.325385],[-98.974346,19.325428],[-98.973558,19.325199],[-98.973283,19.324906],[-98.973283,19.324779],[-98.973259,19.324743],[-98.972842,19.324406],[-98.972748,19.324309],[-98.972622,19.324234],[-98.972472,19.324137],[-98.972228,19.32416],[-98.972047,19.324189],[-98.97196,19.324151],[-98.971278,19.323771],[-98.971194,19.322587],[-98.973394,19.322002],[-98.975426,19.322416],[-98.97538,19.322692],[-98.975914,19.322911],[-98.976566,19.322929],[-98.976629,19.322859],[-98.977132,19.322739],[-98.978405,19.322636],[-98.97946,19.322914],[-98.979535,19.322932],[-98.980865,19.322957],[-98.981266,19.322945],[-98.981566,19.323133],[-98.981964,19.32307],[-98.982072,19.323165],[-98.981729,19.32398],[-98.982639,19.324615],[-98.983035,19.324814],[-98.983612,19.324911],[-98.983904,19.324909],[-98.984117,19.325232],[-98.983901,19.325524],[-98.983788,19.3265],[-98.983341,19.32647],[-98.982876,19.328223],[-98.983746,19.328565],[-98.983515,19.329091],[-98.983348,19.330223],[-98.983891,19.330277],[-98.984203,19.330526],[-98.988812,19.329767],[-98.989221,19.329376],[-98.987092,19.334435],[-98.986537,19.334164],[-98.985786,19.333976],[-98.985065,19.333813],[-98.98504,19.33326]]]]}},{"type":"Feature","properties":{"area":"Sierra de Santa Catarina (ZCE) · Sierra de Santa Catarina (ZSCE)","zona":"Uso público","zona_k":"uso publico","ha":1.83},"geometry":{"type":"MultiPolygon","coordinates":[[[[-99.009982,19.334083],[-99.009984,19.334073],[-99.009988,19.334064],[-99.010003,19.33404],[-99.010011,19.334028],[-99.01003,19.333992],[-99.010044,19.333974],[-99.010056,19.333956],[-99.010063,19.333942],[-99.010041,19.333922],[-99.01003,19.333904],[-99.009988,19.333857],[-99.009984,19.333845],[-99.009947,19.333811],[-99.009939,19.333802],[-99.009936,19.333793],[-99.009898,19.333757],[-99.009887,19.333739],[-99.009842,19.333694],[-99.009834,19.333685],[-99.009831,19.333676],[-99.009789,19.333633],[-99.009786,19.333622],[-99.009744,19.333585],[-99.00974,19.333576],[-99.009737,19.333567],[-99.009684,19.333515],[-99.00968,19.333504],[-99.009643,19.333468],[-99.009635,19.333459],[-99.009631,19.33345],[-99.009594,19.333416],[-99.009583,19.333398],[-99.009542,19.33335],[-99.009538,19.333339],[-99.009519,19.333323],[-99.009512,19.333314],[-99.009519,19.333305],[-99.009523,19.333289],[-99.00953,19.333265],[-99.009542,19.333238],[-99.009549,19.333213],[-99.009557,19.333197],[-99.00956,19.333179],[-99.009564,19.333163],[-99.009568,19.333147],[-99.009579,19.33312],[-99.00959,19.333095],[-99.009598,19.333066],[-99.009601,19.333052],[-99.009609,19.33303],[-99.009613,19.333005],[-99.009617,19.33298],[-99.00962,19.332953],[-99.009628,19.332919],[-99.009635,19.33286],[-99.009643,19.332826],[-99.009647,19.332799],[-99.009651,19.332774],[-99.009654,19.332743],[-99.009662,19.332709],[-99.009665,19.332695],[-99.009665,19.332682],[-99.009655,19.332605],[-99.009651,19.332508],[-99.009637,19.332476],[-99.009609,19.332408],[-99.009585,19.332322],[-99.009534,19.332207],[-99.009456,19.332022],[-99.009825,19.331999],[-99.010119,19.331914],[-99.010197,19.331977],[-99.010261,19.331986],[-99.010307,19.332137],[-99.010352,19.332198],[-99.010374,19.332291],[-99.010385,19.332334],[-99.010396,19.332365],[-99.010406,19.332381],[-99.010411,19.332402],[-99.010423,19.332413],[-99.010431,19.332424],[-99.010442,19.332438],[-99.010469,19.332447],[-99.010499,19.332456],[-99.010525,19.332465],[-99.010555,19.332474],[-99.010585,19.332481],[-99.010596,19.33249],[-99.010608,19.332496],[-99.01063,19.332499],[-99.01066,19.33251],[-99.01069,19.332521],[-99.010716,19.332528],[-99.010747,19.332539],[-99.010773,19.332546],[-99.010803,19.332557],[-99.010833,19.332564],[-99.010859,19.332573],[-99.010889,19.332582],[-99.010904,19.332591],[-99.010923,19.332596],[-99.010934,19.332598],[-99.010964,19.332609],[-99.010994,19.332616],[-99.011021,19.332627],[-99.011035,19.332627],[-99.011035,19.332641],[-99.011032,19.332657],[-99.011021,19.332675],[-99.011005,19.332691],[-99.011001,19.3327],[-99.010994,19.332709],[-99.010979,19.332734],[-99.010975,19.332745],[-99.010964,19.332752],[-99.01096,19.332763],[-99.010957,19.332774],[-99.010945,19.332781],[-99.010942,19.332792],[-99.01093,19.332808],[-99.010927,19.332817],[-99.010915,19.332826],[-99.010912,19.332835],[-99.010908,19.332844],[-99.010896,19.332851],[-99.010893,19.332862],[-99.010882,19.33288],[-99.010878,19.332892],[-99.010863,19.33291],[-99.010852,19.332928],[-99.010836,19.332953],[-99.010833,19.332962],[-99.010822,19.332969],[-99.010818,19.33298],[-99.010799,19.333005],[-99.010791,19.333027],[-99.010773,19.333045],[-99.010769,19.333036],[-99.01075,19.333034],[-99.010713,19.333027],[-99.010694,19.333021],[-99.010679,19.333016],[-99.010664,19.333012],[-99.010645,19.333005],[-99.010626,19.333002],[-99.010611,19.332998],[-99.010596,19.332993],[-99.010578,19.332987],[-99.01054,19.33298],[-99.010521,19.332978],[-99.010506,19.332969],[-99.010495,19.332978],[-99.010484,19.332987],[-99.01048,19.332998],[-99.010442,19.333034],[-99.010431,19.333052],[-99.010394,19.333086],[-99.010382,19.333104],[-99.010341,19.333152],[-99.010337,19.333163],[-99.010322,19.333172],[-99.010258,19.333179],[-99.010199,19.333179],[-99.010199,19.333197],[-99.010195,19.333215],[-99.010187,19.333251],[-99.01018,19.333323],[-99.010176,19.333357],[-99.010169,19.3334],[-99.010165,19.333441],[-99.010161,19.333475],[-99.01015,19.333552],[-99.010146,19.333585],[-99.010142,19.33361],[-99.010146,19.33364],[-99.01015,19.333651],[-99.010161,19.333669],[-99.010169,19.333685],[-99.01018,19.333703],[-99.010187,19.333721],[-99.010199,19.333739],[-99.010206,19.333757],[-99.010217,19.333775],[-99.010221,19.333787],[-99.010225,19.333796],[-99.010232,19.333811],[-99.010236,19.33382],[-99.010247,19.333838],[-99.010255,19.333857],[-99.010266,19.333875],[-99.010274,19.333893],[-99.010285,19.333911],[-99.010292,19.333929],[-99.010304,19.333947],[-99.01031,19.333956],[-99.010318,19.333963],[-99.010311,19.333972],[-99.010181,19.334153],[-99.009982,19.334083]]]]}},{"type":"Feature","properties":{"area":"Sierra de Santa Catarina (ZCE) · Sierra de Santa Catarina (ZSCE)","zona":"Uso público","zona_k":"uso publico","ha":1.36},"geometry":{"type":"MultiPolygon","coordinates":[[[[-99.001562,19.334092],[-99.001562,19.334081],[-99.001573,19.334078],[-99.001592,19.334071],[-99.001603,19.334065],[-99.001622,19.334049],[-99.00164,19.334042],[-99.001648,19.334031],[-99.001659,19.334029],[-99.001678,19.334015],[-99.001697,19.334006],[-99.001704,19.333997],[-99.001715,19.333992],[-99.001734,19.333981],[-99.001745,19.333979],[-99.001764,19.333963],[-99.001783,19.333954],[-99.001802,19.333943],[-99.001809,19.333931],[-99.00182,19.333929],[-99.001839,19.333913],[-99.001858,19.333907],[-99.002005,19.333769],[-99.002012,19.333757],[-99.002019,19.333739],[-99.002031,19.333721],[-99.002038,19.333703],[-99.002042,19.333694],[-99.002053,19.333685],[-99.002057,19.333676],[-99.002068,19.333658],[-99.002076,19.33364],[-99.002087,19.333622],[-99.002094,19.333611],[-99.002117,19.333604],[-99.002136,19.333592],[-99.002158,19.333586],[-99.002173,19.333583],[-99.0022,19.333568],[-99.002211,19.333561],[-99.002226,19.333559],[-99.002237,19.333554],[-99.002248,19.333552],[-99.002267,19.333541],[-99.002286,19.333534],[-99.002297,19.333525],[-99.002312,19.333522],[-99.002323,19.333518],[-99.002335,19.333516],[-99.002353,19.333504],[-99.002376,19.333493],[-99.002391,19.333491],[-99.002402,19.333486],[-99.002421,19.333475],[-99.00244,19.333468],[-99.002455,19.33345],[-99.002459,19.333437],[-99.002462,19.333423],[-99.002466,19.333405],[-99.002474,19.333387],[-99.002477,19.333373],[-99.002485,19.333348],[-99.002492,19.333333],[-99.002496,19.333315],[-99.0025,19.333299],[-99.002507,19.333283],[-99.002515,19.333256],[-99.002526,19.333231],[-99.00253,19.333215],[-99.002534,19.333197],[-99.002537,19.333179],[-99.002545,19.333165],[-99.002553,19.333138],[-99.002564,19.333113],[-99.002567,19.333098],[-99.002571,19.33308],[-99.002579,19.333062],[-99.002583,19.333048],[-99.00259,19.333021],[-99.002597,19.333005],[-99.002601,19.332987],[-99.002605,19.332969],[-99.002609,19.33296],[-99.002616,19.332944],[-99.00262,19.332928],[-99.002616,19.33291],[-99.002609,19.332885],[-99.002601,19.332842],[-99.002597,19.332818],[-99.00259,19.332793],[-99.002586,19.332763],[-99.002583,19.332743],[-99.002579,19.332716],[-99.002571,19.332684],[-99.002579,19.332657],[-99.002583,19.33261],[-99.002586,19.332564],[-99.00259,19.332524],[-99.002597,19.332481],[-99.002601,19.332438],[-99.002605,19.332393],[-99.002609,19.332363],[-99.002616,19.332339],[-99.00262,19.332325],[-99.002627,19.332305],[-99.002635,19.332293],[-99.002639,19.332278],[-99.00265,19.332253],[-99.002654,19.332239],[-99.002661,19.332221],[-99.002669,19.332207],[-99.002676,19.332178],[-99.002688,19.332153],[-99.002691,19.33214],[-99.002695,19.332128],[-99.002706,19.332108],[-99.002714,19.332083],[-99.002721,19.332067],[-99.002729,19.332052],[-99.002733,19.332036],[-99.00274,19.332022],[-99.002748,19.332004],[-99.002763,19.331986],[-99.002766,19.331975],[-99.002785,19.331959],[-99.002793,19.33195],[-99.002796,19.331941],[-99.002823,19.331916],[-99.002834,19.331898],[-99.002857,19.331869],[-99.002864,19.331857],[-99.00289,19.331832],[-99.002894,19.331823],[-99.002901,19.331814],[-99.00292,19.331799],[-99.002924,19.331787],[-99.002928,19.33178],[-99.002935,19.331774],[-99.002935,19.331769],[-99.002944,19.331769],[-99.002988,19.33178],[-99.003165,19.331936],[-99.003166,19.332259],[-99.003207,19.332501],[-99.00301,19.332546],[-99.002853,19.332607],[-99.002886,19.332684],[-99.002828,19.332714],[-99.00292,19.333032],[-99.002879,19.333037],[-99.002818,19.333057],[-99.002799,19.333113],[-99.002794,19.333177],[-99.00291,19.333308],[-99.002959,19.333337],[-99.00301,19.333344],[-99.003038,19.333443],[-99.003001,19.333667],[-99.0027,19.333748],[-99.002729,19.333877],[-99.002752,19.333929],[-99.002574,19.33399],[-99.002586,19.334022],[-99.00233,19.334128],[-99.001562,19.334092]]]]}},{"type":"Feature","properties":{"area":"Sierra de Santa Catarina (ZCE) · Sierra de Santa Catarina (ZSCE)","zona":"Recuperación","zona_k":"recuperacion","ha":31.26},"geometry":{"type":"MultiPolygon","coordinates":[[[[-99.009982,19.334083],[-99.009881,19.334046],[-99.009732,19.334024],[-99.009635,19.334046],[-99.009341,19.334035],[-99.009206,19.333888],[-99.009157,19.333866],[-99.009022,19.333834],[-99.009057,19.333714],[-99.008675,19.333556],[-99.008222,19.33329],[-99.00762,19.332939],[-99.007413,19.332842],[-99.007332,19.332802],[-99.007084,19.332632],[-99.00693,19.332605],[-99.00668,19.332433],[-99.006414,19.332196],[-99.006242,19.331954],[-99.006145,19.331798],[-99.006079,19.331661],[-99.00588,19.33169],[-99.005858,19.331618],[-99.005851,19.331423],[-99.00591,19.331383],[-99.005715,19.331085],[-99.005697,19.331017],[-99.005774,19.330872],[-99.005928,19.330669],[-99.006076,19.330529],[-99.006113,19.330497],[-99.00614,19.33045],[-99.006055,19.330407],[-99.006128,19.330301],[-99.005935,19.330197],[-99.005839,19.330167],[-99.005623,19.330068],[-99.005363,19.32993],[-99.005159,19.32972],[-99.005312,19.329517],[-99.005415,19.329431],[-99.005518,19.329322],[-99.005673,19.32916],[-99.005913,19.328983],[-99.006155,19.328764],[-99.006347,19.328626],[-99.006387,19.328599],[-99.006667,19.328407],[-99.006858,19.328206],[-99.006983,19.328089],[-99.007076,19.327971],[-99.00737,19.327282],[-99.007589,19.326873],[-99.008031,19.327106],[-99.008685,19.327858],[-99.009158,19.328204],[-99.009252,19.328448],[-99.009258,19.32845],[-99.009471,19.328843],[-99.009604,19.32901],[-99.010041,19.32934],[-99.010181,19.329324],[-99.010571,19.32958],[-99.01092,19.329794],[-99.011342,19.329774],[-99.011519,19.329744],[-99.011797,19.329677],[-99.011831,19.32986],[-99.011893,19.33019],[-99.011925,19.330506],[-99.011954,19.330702],[-99.012071,19.330702],[-99.012196,19.331114],[-99.012301,19.331116],[-99.012323,19.331138],[-99.012315,19.331254],[-99.012067,19.331279],[-99.012066,19.331263],[-99.011677,19.331276],[-99.0117,19.331321],[-99.011728,19.331525],[-99.01177,19.331663],[-99.011815,19.331728],[-99.011898,19.331913],[-99.011743,19.332374],[-99.011975,19.332546],[-99.012183,19.332684],[-99.012185,19.33284],[-99.012179,19.332914],[-99.012147,19.332919],[-99.011823,19.332833],[-99.011693,19.332786],[-99.011596,19.332851],[-99.01156,19.332946],[-99.011428,19.332941],[-99.011404,19.332964],[-99.011352,19.333054],[-99.011354,19.333255],[-99.011464,19.333269],[-99.011474,19.333321],[-99.011498,19.33338],[-99.011544,19.333387],[-99.011684,19.333531],[-99.011717,19.333653],[-99.01165,19.333651],[-99.011653,19.333782],[-99.011601,19.333791],[-99.011563,19.333807],[-99.011516,19.333836],[-99.011474,19.333829],[-99.011384,19.333809],[-99.011298,19.333791],[-99.01128,19.333712],[-99.011061,19.333673],[-99.011035,19.333414],[-99.011006,19.333427],[-99.010926,19.333418],[-99.010858,19.333441],[-99.010728,19.333434],[-99.010661,19.333425],[-99.010508,19.3334],[-99.010418,19.333531],[-99.010368,19.333705],[-99.010348,19.333859],[-99.01033,19.333947],[-99.010318,19.333963],[-99.01031,19.333956],[-99.010304,19.333947],[-99.010292,19.333929],[-99.010285,19.333911],[-99.010274,19.333893],[-99.010266,19.333875],[-99.010255,19.333857],[-99.010247,19.333838],[-99.010236,19.33382],[-99.010232,19.333811],[-99.010225,19.333796],[-99.010221,19.333787],[-99.010217,19.333775],[-99.010206,19.333757],[-99.010199,19.333739],[-99.010187,19.333721],[-99.01018,19.333703],[-99.010169,19.333685],[-99.010161,19.333669],[-99.01015,19.333651],[-99.010146,19.33364],[-99.010142,19.33361],[-99.010146,19.333585],[-99.01015,19.333552],[-99.010161,19.333475],[-99.010165,19.333441],[-99.010169,19.3334],[-99.010176,19.333357],[-99.01018,19.333323],[-99.010187,19.333251],[-99.010195,19.333215],[-99.010199,19.333197],[-99.010199,19.333179],[-99.010258,19.333179],[-99.010322,19.333172],[-99.010337,19.333163],[-99.010341,19.333152],[-99.010382,19.333104],[-99.010394,19.333086],[-99.010431,19.333052],[-99.010442,19.333034],[-99.01048,19.332998],[-99.010484,19.332987],[-99.010495,19.332978],[-99.010506,19.332969],[-99.010521,19.332978],[-99.01054,19.33298],[-99.010578,19.332987],[-99.010596,19.332993],[-99.010611,19.332998],[-99.010626,19.333002],[-99.010645,19.333005],[-99.010664,19.333012],[-99.010679,19.333016],[-99.010694,19.333021],[-99.010713,19.333027],[-99.01075,19.333034],[-99.010769,19.333036],[-99.010773,19.333045],[-99.010791,19.333027],[-99.010799,19.333005],[-99.010818,19.33298],[-99.010822,19.332969],[-99.010833,19.332962],[-99.010836,19.332953],[-99.010852,19.332928],[-99.010863,19.33291],[-99.010878,19.332892],[-99.010882,19.33288],[-99.010893,19.332862],[-99.010896,19.332851],[-99.010908,19.332844],[-99.010912,19.332835],[-99.010915,19.332826],[-99.010927,19.332817],[-99.01093,19.332808],[-99.010942,19.332792],[-99.010945,19.332781],[-99.010957,19.332774],[-99.01096,19.332763],[-99.010964,19.332752],[-99.010975,19.332745],[-99.010979,19.332734],[-99.010994,19.332709],[-99.011001,19.3327],[-99.011005,19.332691],[-99.011021,19.332675],[-99.011032,19.332657],[-99.011035,19.332641],[-99.011035,19.332627],[-99.011021,19.332627],[-99.010994,19.332616],[-99.010964,19.332609],[-99.010934,19.332598],[-99.010923,19.332596],[-99.010904,19.332591],[-99.010889,19.332582],[-99.010859,19.332573],[-99.010833,19.332564],[-99.010803,19.332557],[-99.010773,19.332546],[-99.010747,19.332539],[-99.010716,19.332528],[-99.01069,19.332521],[-99.01066,19.33251],[-99.01063,19.332499],[-99.010608,19.332496],[-99.010596,19.33249],[-99.010585,19.332481],[-99.010555,19.332474],[-99.010525,19.332465],[-99.010499,19.332456],[-99.010469,19.332447],[-99.010442,19.332438],[-99.010431,19.332424],[-99.010423,19.332413],[-99.010411,19.332402],[-99.010406,19.332381],[-99.010396,19.332365],[-99.010385,19.332334],[-99.010374,19.332291],[-99.010352,19.332198],[-99.010307,19.332137],[-99.010261,19.331986],[-99.010197,19.331977],[-99.010119,19.331914],[-99.009825,19.331999],[-99.009456,19.332022],[-99.009534,19.332207],[-99.009585,19.332322],[-99.009609,19.332408],[-99.009637,19.332476],[-99.009651,19.332508],[-99.009655,19.332605],[-99.009665,19.332682],[-99.009665,19.332695],[-99.009662,19.332709],[-99.009654,19.332743],[-99.009651,19.332774],[-99.009647,19.332799],[-99.009643,19.332826],[-99.009635,19.33286],[-99.009628,19.332919],[-99.00962,19.332953],[-99.009617,19.33298],[-99.009613,19.333005],[-99.009609,19.33303],[-99.009601,19.333052],[-99.009598,19.333066],[-99.00959,19.333095],[-99.009579,19.33312],[-99.009568,19.333147],[-99.009564,19.333163],[-99.00956,19.333179],[-99.009557,19.333197],[-99.009549,19.333213],[-99.009542,19.333238],[-99.00953,19.333265],[-99.009523,19.333289],[-99.009519,19.333305],[-99.009512,19.333314],[-99.009519,19.333323],[-99.009538,19.333339],[-99.009542,19.33335],[-99.009583,19.333398],[-99.009594,19.333416],[-99.009631,19.33345],[-99.009635,19.333459],[-99.009643,19.333468],[-99.00968,19.333504],[-99.009684,19.333515],[-99.009737,19.333567],[-99.00974,19.333576],[-99.009744,19.333585],[-99.009786,19.333622],[-99.009789,19.333633],[-99.009831,19.333676],[-99.009834,19.333685],[-99.009842,19.333694],[-99.009887,19.333739],[-99.009898,19.333757],[-99.009936,19.333793],[-99.009939,19.333802],[-99.009947,19.333811],[-99.009984,19.333845],[-99.009988,19.333857],[-99.01003,19.333904],[-99.010041,19.333922],[-99.010063,19.333942],[-99.010056,19.333956],[-99.010044,19.333974],[-99.01003,19.333992],[-99.010011,19.334028],[-99.010003,19.33404],[-99.009988,19.334064],[-99.009984,19.334073],[-99.009982,19.334083]]]]}},{"type":"Feature","properties":{"area":"Sierra de Santa Catarina (ZCE) · Sierra de Santa Catarina (ZSCE)","zona":"Uso público","zona_k":"uso publico","ha":0.1},"geometry":{"type":"MultiPolygon","coordinates":[[[[-98.976304,19.332271],[-98.976679,19.332321],[-98.976594,19.332726],[-98.976422,19.332534],[-98.976304,19.332271]]]]}},{"type":"Feature","properties":{"area":"Sierra de Santa Catarina (ZCE) · Sierra de Santa Catarina (ZSCE)","zona":"Uso público","zona_k":"uso publico","ha":0.12},"geometry":{"type":"MultiPolygon","coordinates":[[[[-98.974428,19.330333],[-98.975041,19.33052],[-98.974893,19.330819],[-98.974428,19.330333]]]]}},{"type":"Feature","properties":{"area":"Sierra de Santa Catarina (ZCE) · Sierra de Santa Catarina (ZSCE)","zona":"Uso público","zona_k":"uso publico","ha":13.48},"geometry":{"type":"MultiPolygon","coordinates":[[[[-98.96706,19.327553],[-98.966607,19.327539],[-98.96663,19.327144],[-98.966638,19.326884],[-98.966633,19.326703],[-98.966602,19.326515],[-98.966583,19.326421],[-98.966538,19.326204],[-98.965376,19.321423],[-98.965065,19.320157],[-98.965821,19.320998],[-98.96771,19.323124],[-98.968784,19.324331],[-98.96929,19.324943],[-98.969097,19.324882],[-98.968957,19.324778],[-98.968882,19.324896],[-98.968591,19.32535],[-98.968507,19.32547],[-98.968433,19.32563],[-98.968413,19.325716],[-98.968482,19.32591],[-98.968515,19.325931],[-98.968308,19.326297],[-98.968049,19.326188],[-98.967653,19.327437],[-98.967063,19.327329],[-98.967082,19.327476],[-98.96706,19.327553]]]]}},{"type":"Feature","properties":{"area":"Sierra de Santa Catarina (ZCE) · Sierra de Santa Catarina (ZSCE)","zona":"Uso público","zona_k":"uso publico","ha":9.97},"geometry":{"type":"MultiPolygon","coordinates":[[[[-98.969844,19.323775],[-98.971278,19.323771],[-98.97196,19.324151],[-98.972047,19.324189],[-98.972228,19.32416],[-98.972472,19.324137],[-98.972622,19.324234],[-98.972748,19.324309],[-98.972842,19.324406],[-98.973259,19.324743],[-98.973283,19.324779],[-98.973283,19.324906],[-98.973558,19.325199],[-98.974346,19.325428],[-98.974437,19.325385],[-98.974464,19.325396],[-98.974496,19.325401],[-98.974521,19.32541],[-98.974571,19.325416],[-98.974628,19.325444],[-98.974643,19.325444],[-98.974667,19.325464],[-98.974714,19.325477],[-98.97473,19.325491],[-98.974789,19.325518],[-98.974793,19.325529],[-98.974803,19.325529],[-98.974836,19.325545],[-98.974872,19.325561],[-98.974944,19.325568],[-98.974986,19.325572],[-98.975005,19.325581],[-98.975111,19.32555],[-98.975283,19.325426],[-98.97539,19.325387],[-98.975471,19.325371],[-98.975648,19.325518],[-98.975558,19.325681],[-98.975458,19.326045],[-98.975171,19.326634],[-98.974519,19.326352],[-98.974433,19.326517],[-98.973064,19.326198],[-98.972806,19.326085],[-98.972419,19.325918],[-98.971952,19.325766],[-98.971897,19.325929],[-98.97112,19.325683],[-98.970694,19.325384],[-98.970167,19.325084],[-98.96976,19.325023],[-98.969728,19.325088],[-98.969074,19.324383],[-98.969844,19.323775]]]]}},{"type":"Feature","properties":{"area":"Sierra de Santa Catarina (ZCE) · Sierra de Santa Catarina (ZSCE)","zona":"Recuperación","zona_k":"recuperacion","ha":3.64},"geometry":{"type":"MultiPolygon","coordinates":[[[[-98.969844,19.323775],[-98.969074,19.324383],[-98.968892,19.324186],[-98.967993,19.322044],[-98.968688,19.321638],[-98.969563,19.321819],[-98.969844,19.323775]]]]}},{"type":"Feature","properties":{"area":"Sierra de Santa Catarina (ZCE) · Sierra de Santa Catarina (ZSCE)","zona":"Uso público","zona_k":"uso publico","ha":15.59},"geometry":{"type":"MultiPolygon","coordinates":[[[[-98.967993,19.322044],[-98.968892,19.324186],[-98.968146,19.323348],[-98.968126,19.323326],[-98.968124,19.323323],[-98.967758,19.322912],[-98.965959,19.320887],[-98.964976,19.319791],[-98.964791,19.319039],[-98.964707,19.318386],[-98.965253,19.318153],[-98.965339,19.318149],[-98.966456,19.318418],[-98.966881,19.317867],[-98.967118,19.317905],[-98.967473,19.318127],[-98.968003,19.318314],[-98.968611,19.31939],[-98.968469,19.320409],[-98.968561,19.320425],[-98.968497,19.320709],[-98.969797,19.320877],[-98.969587,19.321722],[-98.969563,19.321819],[-98.968688,19.321638],[-98.967993,19.322044]]]]}},{"type":"Feature","properties":{"area":"Sierra de Santa Catarina (ZCE) · Sierra de Santa Catarina (ZSCE)","zona":"Uso público","zona_k":"uso publico","ha":10.46},"geometry":{"type":"MultiPolygon","coordinates":[[[[-98.973749,19.312707],[-98.973751,19.31268],[-98.973759,19.312626],[-98.973751,19.312572],[-98.973747,19.312563],[-98.97374,19.312545],[-98.973729,19.312527],[-98.973721,19.312509],[-98.973713,19.312502],[-98.973706,19.312491],[-98.973699,19.312479],[-98.973691,19.312461],[-98.97368,19.312445],[-98.973672,19.312427],[-98.973669,19.312418],[-98.973653,19.312405],[-98.973642,19.312402],[-98.973635,19.312393],[-98.973605,19.312369],[-98.973597,19.312362],[-98.973586,19.31236],[-98.973556,19.312335],[-98.973548,19.312326],[-98.973537,19.312323],[-98.973511,19.312294],[-98.9735,19.312292],[-98.973492,19.312287],[-98.973462,19.31226],[-98.973455,19.312256],[-98.973443,19.312251],[-98.973413,19.312224],[-98.973406,19.312219],[-98.973395,19.312217],[-98.973383,19.312201],[-98.973376,19.312192],[-98.973372,19.312183],[-98.973368,19.312167],[-98.973357,19.312131],[-98.973353,19.312109],[-98.973349,19.3121],[-98.973342,19.312084],[-98.973338,19.312066],[-98.973331,19.312032],[-98.973323,19.312014],[-98.973319,19.311998],[-98.973316,19.311984],[-98.973312,19.311966],[-98.973304,19.311948],[-98.973301,19.311935],[-98.973297,19.311921],[-98.973289,19.311903],[-98.973282,19.311867],[-98.973278,19.311849],[-98.973271,19.311835],[-98.973267,19.311822],[-98.973263,19.311804],[-98.973252,19.311768],[-98.973248,19.311749],[-98.973244,19.311736],[-98.973237,19.31172],[-98.973233,19.311704],[-98.973226,19.311668],[-98.973218,19.31165],[-98.973214,19.311636],[-98.973211,19.311621],[-98.973207,19.311603],[-98.973196,19.311569],[-98.973192,19.311551],[-98.973188,19.311535],[-98.973181,19.311526],[-98.973177,19.311508],[-98.973173,19.311485],[-98.973166,19.311476],[-98.973162,19.31146],[-98.973158,19.311442],[-98.973147,19.311408],[-98.973143,19.31139],[-98.973139,19.311374],[-98.973136,19.311361],[-98.973128,19.311343],[-98.973121,19.311307],[-98.973117,19.311291],[-98.973109,19.311279],[-98.973102,19.311261],[-98.973091,19.311243],[-98.973087,19.311232],[-98.973076,19.311225],[-98.973072,19.311214],[-98.973064,19.311198],[-98.973053,19.31118],[-98.973049,19.311173],[-98.973038,19.311162],[-98.973035,19.311155],[-98.973023,19.311137],[-98.973019,19.311126],[-98.973012,19.311115],[-98.973004,19.311108],[-98.972997,19.31109],[-98.972985,19.311072],[-98.972982,19.311063],[-98.972978,19.311063],[-98.972978,19.311054],[-98.972979,19.311051],[-98.97297,19.311049],[-98.973081,19.31066],[-98.973194,19.310674],[-98.973569,19.310715],[-98.973686,19.310157],[-98.974153,19.310184],[-98.974151,19.310116],[-98.974394,19.310116],[-98.974624,19.310155],[-98.974626,19.310132],[-98.974952,19.310207],[-98.97598,19.310073],[-98.976462,19.309911],[-98.976461,19.309933],[-98.976465,19.309942],[-98.976472,19.309965],[-98.97648,19.31001],[-98.976491,19.310053],[-98.976499,19.310101],[-98.976502,19.310121],[-98.97651,19.31015],[-98.976514,19.31018],[-98.976517,19.3102],[-98.976529,19.310245],[-98.976536,19.310288],[-98.976547,19.310336],[-98.976555,19.310381],[-98.976562,19.310403],[-98.976566,19.310417],[-98.97657,19.31043],[-98.976574,19.310439],[-98.976585,19.310458],[-98.976596,19.310473],[-98.976604,19.310491],[-98.976615,19.310514],[-98.976622,19.310532],[-98.976634,19.31055],[-98.976641,19.310566],[-98.976652,19.310584],[-98.97666,19.310602],[-98.976671,19.31062],[-98.976679,19.310638],[-98.97669,19.310656],[-98.976697,19.310674],[-98.976709,19.310693],[-98.976712,19.310702],[-98.976724,19.310711],[-98.976727,19.31072],[-98.976739,19.310738],[-98.976746,19.310756],[-98.976757,19.310774],[-98.976765,19.310792],[-98.976776,19.31081],[-98.976784,19.310828],[-98.976795,19.310844],[-98.976803,19.310862],[-98.976814,19.310885],[-98.976821,19.310903],[-98.976832,19.310921],[-98.97684,19.310937],[-98.976855,19.310961],[-98.976862,19.31097],[-98.976881,19.310977],[-98.9769,19.310979],[-98.976956,19.310998],[-98.976948,19.31102],[-98.976922,19.311045],[-98.976919,19.311054],[-98.976915,19.311063],[-98.976892,19.311081],[-98.976885,19.311097],[-98.976855,19.311126],[-98.976847,19.311144],[-98.976829,19.311162],[-98.976817,19.311181],[-98.976799,19.311199],[-98.976791,19.311214],[-98.976769,19.311233],[-98.976761,19.311251],[-98.976731,19.31128],[-98.976724,19.311298],[-98.976705,19.311316],[-98.976694,19.311332],[-98.976675,19.31135],[-98.976667,19.311368],[-98.976637,19.311397],[-98.976626,19.311416],[-98.976607,19.311434],[-98.976604,19.311443],[-98.9766,19.311452],[-98.976581,19.311467],[-98.97657,19.311486],[-98.976547,19.311515],[-98.976543,19.311526],[-98.976513,19.311551],[-98.976509,19.31156],[-98.976502,19.311569],[-98.976483,19.311585],[-98.976476,19.311603],[-98.976457,19.311621],[-98.976453,19.311632],[-98.976446,19.311644],[-98.976431,19.311653],[-98.976446,19.311669],[-98.976453,19.311678],[-98.976457,19.311687],[-98.976495,19.311721],[-98.976502,19.311739],[-98.976525,19.311761],[-98.976528,19.311867],[-98.976532,19.311974],[-98.976536,19.311985],[-98.976547,19.312003],[-98.976555,19.312021],[-98.976566,19.312039],[-98.976573,19.312057],[-98.976585,19.312075],[-98.976573,19.312091],[-98.976566,19.312109],[-98.976555,19.312132],[-98.976547,19.31215],[-98.976536,19.31217],[-98.976532,19.312184],[-98.976528,19.312193],[-98.976517,19.312209],[-98.976509,19.312227],[-98.976502,19.312238],[-98.976498,19.312251],[-98.976495,19.312267],[-98.976479,19.312292],[-98.976472,19.31231],[-98.975452,19.312875],[-98.975096,19.312484],[-98.974889,19.313535],[-98.973848,19.313186],[-98.973749,19.312707]]]]}},{"type":"Feature","properties":{"area":"Sierra de Santa Catarina (ZCE) · Sierra de Santa Catarina (ZSCE)","zona":"Zona de protección","zona_k":"proteccion","ha":25.83},"geometry":{"type":"MultiPolygon","coordinates":[[[[-99.024381,19.306201],[-99.02377,19.30297],[-99.023554,19.301822],[-99.023853,19.301944],[-99.024242,19.302107],[-99.024234,19.302114],[-99.02519,19.302552],[-99.02543,19.30278],[-99.025306,19.303155],[-99.026662,19.304447],[-99.027803,19.305448],[-99.030834,19.308048],[-99.030749,19.308421],[-99.030221,19.308229],[-99.028905,19.308141],[-99.02881,19.308618],[-99.02861,19.309221],[-99.028443,19.309784],[-99.027571,19.309775],[-99.027117,19.309732],[-99.027183,19.309293],[-99.026699,19.309131],[-99.026672,19.308528],[-99.026035,19.308394],[-99.025693,19.307739],[-99.025002,19.306413],[-99.02447,19.306497],[-99.024381,19.306201]]]]}},{"type":"Feature","properties":{"area":"Sierra de Santa Catarina (ZCE) · Sierra de Santa Catarina (ZSCE)","zona":"Zona de protección","zona_k":"proteccion","ha":0.22},"geometry":{"type":"MultiPolygon","coordinates":[[[[-99.023663,19.303374],[-99.023103,19.301635],[-99.023355,19.301739],[-99.023592,19.302999],[-99.023663,19.303374]]]]}},{"type":"Feature","properties":{"area":"Sierra de Santa Catarina (ZCE) · Sierra de Santa Catarina (ZSCE)","zona":"Uso público","zona_k":"uso publico","ha":0.3},"geometry":{"type":"MultiPolygon","coordinates":[[[[-98.987417,19.297339],[-98.987447,19.297327],[-98.987447,19.297339],[-98.987443,19.297345],[-98.987436,19.297363],[-98.987432,19.297381],[-98.987428,19.297406],[-98.987424,19.297427],[-98.987417,19.297445],[-98.987413,19.297463],[-98.98741,19.297483],[-98.987398,19.297531],[-98.987394,19.297551],[-98.987391,19.297569],[-98.987387,19.297592],[-98.98738,19.297612],[-98.987376,19.297635],[-98.987372,19.297653],[-98.987364,19.297668],[-98.987361,19.297693],[-98.987357,19.297716],[-98.987353,19.297734],[-98.987346,19.297752],[-98.987342,19.297777],[-98.987338,19.297797],[-98.987335,19.297815],[-98.987327,19.297833],[-98.987323,19.297854],[-98.987319,19.297879],[-98.987312,19.297897],[-98.987308,19.297915],[-98.987305,19.297937],[-98.987293,19.297982],[-98.987289,19.298005],[-98.987286,19.298023],[-98.987282,19.298039],[-98.987275,19.298064],[-98.987271,19.298086],[-98.987267,19.298104],[-98.987263,19.298123],[-98.987256,19.29815],[-98.987248,19.29815],[-98.987237,19.298147],[-98.987214,19.298141],[-98.987192,19.298136],[-98.987162,19.298132],[-98.987132,19.298125],[-98.987109,19.298123],[-98.987061,19.298116],[-98.987038,19.298107],[-98.987008,19.298104],[-98.986982,19.2981],[-98.986955,19.298098],[-98.986933,19.298091],[-98.986903,19.298086],[-98.986903,19.298073],[-98.98691,19.298057],[-98.986914,19.298032],[-98.986922,19.29798],[-98.986929,19.297951],[-98.986933,19.29793],[-98.986937,19.297906],[-98.986944,19.297879],[-98.986948,19.297851],[-98.986952,19.297829],[-98.986955,19.297804],[-98.986963,19.297779],[-98.986971,19.297727],[-98.986974,19.297698],[-98.986982,19.297677],[-98.986985,19.297653],[-98.986989,19.297628],[-98.987001,19.297569],[-98.987004,19.297544],[-98.987008,19.297535],[-98.987015,19.297526],[-98.987019,19.297524],[-98.987027,19.297517],[-98.987046,19.297508],[-98.987068,19.297499],[-98.987087,19.297492],[-98.987106,19.297481],[-98.987124,19.297474],[-98.987143,19.297463],[-98.987162,19.297452],[-98.987181,19.297445],[-98.987199,19.297433],[-98.987211,19.297431],[-98.987222,19.297427],[-98.987237,19.297424],[-98.987248,19.297415],[-98.987267,19.297409],[-98.987286,19.2974],[-98.987305,19.297391],[-98.987323,19.297381],[-98.987342,19.297375],[-98.987361,19.297363],[-98.98738,19.297357],[-98.987398,19.297345],[-98.987417,19.297339]]]]}},{"type":"Feature","properties":{"area":"Sierra de Santa Catarina (ZCE) · Sierra de Santa Catarina (ZSCE)","zona":"Recuperación","zona_k":"recuperacion","ha":91.03},"geometry":{"type":"MultiPolygon","coordinates":[[[[-98.994888,19.33477],[-98.994865,19.33474],[-98.994858,19.334722],[-98.994846,19.334715],[-98.994843,19.334704],[-98.994816,19.334679],[-98.994812,19.33467],[-98.994798,19.334652],[-98.99479,19.334634],[-98.994771,19.334616],[-98.994764,19.334605],[-98.994557,19.334401],[-98.994538,19.334394],[-98.994347,19.334214],[-98.99431,19.334209],[-98.994272,19.334214],[-98.994208,19.334216],[-98.994148,19.334225],[-98.994118,19.334227],[-98.994088,19.334227],[-98.994088,19.334245],[-98.994096,19.334263],[-98.994099,19.334284],[-98.994099,19.334309],[-98.993765,19.334309],[-98.993765,19.334275],[-98.993758,19.334164],[-98.993698,19.334164],[-98.993641,19.334166],[-98.993589,19.334175],[-98.993536,19.334175],[-98.993536,19.334333],[-98.993518,19.334333],[-98.993499,19.334342],[-98.993461,19.334345],[-98.993386,19.334352],[-98.993307,19.334363],[-98.993232,19.33437],[-98.993195,19.334376],[-98.99318,19.334381],[-98.993165,19.334381],[-98.993165,19.334413],[-98.993161,19.334444],[-98.993157,19.334516],[-98.992834,19.334516],[-98.992834,19.334503],[-98.992827,19.334487],[-98.992823,19.334462],[-98.992819,19.334435],[-98.992812,19.334412],[-98.992808,19.334392],[-98.992804,19.334363],[-98.992801,19.334333],[-98.992793,19.334313],[-98.992789,19.334293],[-98.992786,19.334263],[-98.992775,19.334209],[-98.992771,19.334182],[-98.992767,19.334159],[-98.992763,19.334139],[-98.992755,19.33411],[-98.992752,19.33408],[-98.992748,19.33406],[-98.992741,19.33404],[-98.992737,19.33401],[-98.992733,19.333981],[-98.992729,19.333961],[-98.992722,19.333938],[-98.992718,19.333911],[-98.992714,19.333886],[-98.992711,19.333861],[-98.992703,19.333839],[-98.992699,19.333812],[-98.992692,19.333757],[-98.992684,19.333728],[-98.992681,19.333708],[-98.992677,19.333685],[-98.992669,19.333658],[-98.992666,19.333633],[-98.992662,19.33361],[-98.992624,19.33361],[-98.992587,19.333617],[-98.992519,19.333622],[-98.992452,19.333626],[-98.99238,19.333633],[-98.992238,19.33364],[-98.992166,19.333644],[-98.992099,19.333651],[-98.992035,19.333653],[-98.99196,19.333658],[-98.991817,19.333669],[-98.991746,19.333671],[-98.991682,19.333676],[-98.991615,19.333678],[-98.991524,19.333685],[-98.991434,19.333678],[-98.991318,19.333676],[-98.991089,19.333669],[-98.990976,19.33366],[-98.990913,19.333658],[-98.990853,19.333653],[-98.99083,19.333633],[-98.990823,19.333622],[-98.990819,19.33361],[-98.990781,19.333576],[-98.990778,19.333567],[-98.99077,19.333558],[-98.990725,19.333515],[-98.990721,19.333504],[-98.990714,19.333493],[-98.990676,19.333459],[-98.990672,19.33345],[-98.990669,19.333441],[-98.990627,19.333405],[-98.99062,19.333387],[-98.990605,19.333373],[-98.990586,19.333369],[-98.990567,19.333373],[-98.990537,19.333375],[-98.990481,19.333387],[-98.990425,19.333398],[-98.990368,19.333405],[-98.990308,19.333416],[-98.990252,19.333423],[-98.990196,19.333432],[-98.990139,19.333441],[-98.990083,19.33345],[-98.990023,19.333459],[-98.989967,19.333468],[-98.98994,19.333472],[-98.989929,19.333475],[-98.989918,19.333472],[-98.989907,19.333459],[-98.989899,19.33345],[-98.989896,19.333441],[-98.989858,19.333405],[-98.989847,19.333387],[-98.98982,19.333357],[-98.989809,19.333339],[-98.989783,19.333314],[-98.989775,19.333305],[-98.989734,19.333262],[-98.98973,19.333251],[-98.989723,19.33324],[-98.989697,19.333215],[-98.989693,19.333206],[-98.989685,19.333197],[-98.989648,19.333163],[-98.989644,19.333152],[-98.98961,19.333115],[-98.989606,19.333104],[-98.989561,19.333061],[-98.989558,19.333052],[-98.989524,19.333016],[-98.98952,19.333005],[-98.989486,19.332969],[-98.989479,19.332953],[-98.989437,19.332917],[-98.98943,19.332899],[-98.989396,19.332867],[-98.989378,19.33286],[-98.989355,19.332851],[-98.989348,19.332862],[-98.98934,19.33288],[-98.989329,19.332899],[-98.989321,19.332917],[-98.98931,19.332935],[-98.989302,19.332953],[-98.989291,19.332969],[-98.989284,19.332987],[-98.989272,19.333005],[-98.989261,19.333027],[-98.989254,19.333045],[-98.989242,19.333061],[-98.989235,19.333079],[-98.989223,19.333097],[-98.989216,19.333115],[-98.989205,19.333134],[-98.989197,19.333152],[-98.98919,19.333163],[-98.989186,19.333179],[-98.989179,19.333215],[-98.989167,19.333251],[-98.989163,19.333269],[-98.98916,19.333283],[-98.989152,19.333298],[-98.989148,19.333314],[-98.989137,19.33335],[-98.98913,19.333387],[-98.989126,19.333405],[-98.989118,19.333418],[-98.989115,19.333432],[-98.989111,19.33345],[-98.9891,19.333486],[-98.989092,19.333522],[-98.989088,19.33354],[-98.989081,19.333558],[-98.989058,19.333558],[-98.989036,19.333554],[-98.988976,19.333551],[-98.988919,19.333542],[-98.988867,19.33354],[-98.988762,19.333533],[-98.988709,19.333524],[-98.988653,19.333522],[-98.988597,19.333518],[-98.988544,19.333515],[-98.988439,19.333504],[-98.988387,19.333499],[-98.98833,19.333493],[-98.988274,19.33349],[-98.988221,19.333486],[-98.988116,19.333475],[-98.988064,19.333472],[-98.988008,19.333468],[-98.987947,19.333466],[-98.987887,19.333459],[-98.989611,19.329363],[-98.989862,19.327797],[-98.990474,19.327497],[-98.992022,19.326735],[-98.992283,19.326283],[-99.000398,19.325479],[-98.99989,19.328796],[-98.999348,19.330936],[-98.998959,19.332465],[-98.999627,19.33209],[-98.999979,19.332015],[-99.000367,19.332235],[-99.000872,19.332185],[-99.001147,19.33237],[-99.001309,19.332479],[-99.001996,19.331654],[-99.002354,19.331609],[-99.00268,19.331701],[-99.002944,19.331769],[-99.002935,19.331769],[-99.002935,19.331774],[-99.002928,19.33178],[-99.002924,19.331787],[-99.00292,19.331799],[-99.002901,19.331814],[-99.002894,19.331823],[-99.00289,19.331832],[-99.002864,19.331857],[-99.002857,19.331869],[-99.002834,19.331898],[-99.002823,19.331916],[-99.002796,19.331941],[-99.002793,19.33195],[-99.002785,19.331959],[-99.002766,19.331975],[-99.002763,19.331986],[-99.002748,19.332004],[-99.00274,19.332022],[-99.002733,19.332036],[-99.002729,19.332052],[-99.002721,19.332067],[-99.002714,19.332083],[-99.002706,19.332108],[-99.002695,19.332128],[-99.002691,19.33214],[-99.002688,19.332153],[-99.002676,19.332178],[-99.002669,19.332207],[-99.002661,19.332221],[-99.002654,19.332239],[-99.00265,19.332253],[-99.002639,19.332278],[-99.002635,19.332293],[-99.002627,19.332305],[-99.00262,19.332325],[-99.002616,19.332339],[-99.002609,19.332363],[-99.002605,19.332393],[-99.002601,19.332438],[-99.002597,19.332481],[-99.00259,19.332524],[-99.002586,19.332564],[-99.002583,19.33261],[-99.002579,19.332657],[-99.002571,19.332684],[-99.002579,19.332716],[-99.002583,19.332743],[-99.002586,19.332763],[-99.00259,19.332793],[-99.002597,19.332818],[-99.002601,19.332842],[-99.002609,19.332885],[-99.002616,19.33291],[-99.00262,19.332928],[-99.002616,19.332944],[-99.002609,19.33296],[-99.002605,19.332969],[-99.002601,19.332987],[-99.002597,19.333005],[-99.00259,19.333021],[-99.002583,19.333048],[-99.002579,19.333062],[-99.002571,19.33308],[-99.002567,19.333098],[-99.002564,19.333113],[-99.002553,19.333138],[-99.002545,19.333165],[-99.002537,19.333179],[-99.002534,19.333197],[-99.00253,19.333215],[-99.002526,19.333231],[-99.002515,19.333256],[-99.002507,19.333283],[-99.0025,19.333299],[-99.002496,19.333315],[-99.002492,19.333333],[-99.002485,19.333348],[-99.002477,19.333373],[-99.002474,19.333387],[-99.002466,19.333405],[-99.002462,19.333423],[-99.002459,19.333437],[-99.002455,19.33345],[-99.00244,19.333468],[-99.002421,19.333475],[-99.002402,19.333486],[-99.002391,19.333491],[-99.002376,19.333493],[-99.002353,19.333504],[-99.002335,19.333516],[-99.002323,19.333518],[-99.002312,19.333522],[-99.002297,19.333525],[-99.002286,19.333534],[-99.002267,19.333541],[-99.002248,19.333552],[-99.002237,19.333554],[-99.002226,19.333559],[-99.002211,19.333561],[-99.0022,19.333568],[-99.002173,19.333583],[-99.002158,19.333586],[-99.002136,19.333592],[-99.002117,19.333604],[-99.002094,19.333611],[-99.002087,19.333622],[-99.002076,19.33364],[-99.002068,19.333658],[-99.002057,19.333676],[-99.002053,19.333685],[-99.002042,19.333694],[-99.002038,19.333703],[-99.002031,19.333721],[-99.002019,19.333739],[-99.002012,19.333757],[-99.002005,19.333769],[-99.001858,19.333907],[-99.001839,19.333913],[-99.00182,19.333929],[-99.001809,19.333931],[-99.001802,19.333943],[-99.001783,19.333954],[-99.001764,19.333963],[-99.001745,19.333979],[-99.001734,19.333981],[-99.001715,19.333992],[-99.001704,19.333997],[-99.001697,19.334006],[-99.001678,19.334015],[-99.001659,19.334029],[-99.001648,19.334031],[-99.00164,19.334042],[-99.001622,19.334049],[-99.001603,19.334065],[-99.001592,19.334071],[-99.001573,19.334078],[-99.001562,19.334081],[-99.001562,19.334092],[-99.00233,19.334128],[-99.002381,19.334198],[-99.002356,19.334216],[-99.002347,19.334273],[-99.002393,19.334379],[-99.002428,19.334422],[-99.002454,19.334537],[-99.002439,19.334688],[-99.002402,19.334688],[-99.002361,19.334684],[-99.002279,19.334679],[-99.002192,19.334672],[-99.002094,19.33467],[-99.002094,19.334824],[-99.002102,19.334975],[-99.002106,19.335127],[-99.002106,19.335294],[-99.001641,19.334532],[-99.001702,19.334467],[-99.001672,19.33434],[-99.001592,19.334279],[-99.001538,19.334144],[-99.001556,19.334092],[-99.001526,19.333821],[-99.001507,19.333751],[-99.0015,19.333653],[-99.00146,19.333622],[-99.001383,19.333321],[-99.001004,19.333204],[-99.000897,19.333043],[-99.000777,19.333089],[-99.000827,19.333554],[-99.000496,19.333608],[-99.000502,19.333694],[-99.000455,19.333701],[-98.99876,19.332822],[-98.998137,19.332971],[-98.997848,19.333041],[-98.996608,19.332775],[-98.996697,19.332115],[-98.996555,19.332097],[-98.996603,19.331677],[-98.996611,19.331473],[-98.996518,19.331469],[-98.99642,19.331679],[-98.996229,19.331656],[-98.996091,19.331652],[-98.996055,19.33174],[-98.995716,19.331638],[-98.995791,19.331369],[-98.995832,19.331191],[-98.995861,19.33113],[-98.996005,19.330721],[-98.995804,19.330601],[-98.995426,19.330414],[-98.99535,19.33042],[-98.995052,19.331521],[-98.994998,19.331631],[-98.994981,19.331869],[-98.994908,19.332036],[-98.994796,19.332133],[-98.994677,19.332235],[-98.994814,19.332515],[-98.995027,19.333043],[-98.995079,19.333129],[-98.995182,19.333163],[-98.995194,19.333206],[-98.995167,19.333287],[-98.995178,19.333439],[-98.995277,19.333956],[-98.995291,19.334182],[-98.99529,19.334541],[-98.995282,19.334751],[-98.995264,19.334831],[-98.995154,19.334833],[-98.995098,19.334837],[-98.995045,19.33484],[-98.994993,19.334849],[-98.99497,19.334851],[-98.994948,19.334849],[-98.99494,19.33484],[-98.994937,19.334833],[-98.994933,19.334824],[-98.994914,19.334806],[-98.994906,19.334797],[-98.994903,19.334788],[-98.994895,19.334781],[-98.994888,19.33477]]]]}},{"type":"Feature","properties":{"area":"Sierra de Santa Catarina (ZCE) · Sierra de Santa Catarina (ZSCE)","zona":"Zona de protección","zona_k":"proteccion","ha":23.12},"geometry":{"type":"MultiPolygon","coordinates":[[[[-99.037571,19.317617],[-99.036852,19.317306],[-99.036006,19.315751],[-99.034029,19.314624],[-99.033834,19.314154],[-99.033672,19.313766],[-99.03365,19.313581],[-99.033891,19.313251],[-99.034843,19.312435],[-99.035344,19.311646],[-99.035137,19.311303],[-99.034798,19.311312],[-99.034278,19.312214],[-99.033812,19.31187],[-99.034129,19.310027],[-99.038829,19.313887],[-99.039342,19.314309],[-99.039424,19.31437],[-99.03967,19.314574],[-99.039513,19.314655],[-99.039099,19.315229],[-99.038892,19.315608],[-99.038358,19.316006],[-99.03821,19.316119],[-99.03809,19.316259],[-99.037995,19.316418],[-99.037949,19.316591],[-99.037965,19.316729],[-99.037571,19.317617]]]]}},{"type":"Feature","properties":{"area":"Sierra de Santa Catarina (ZCE) · Sierra de Santa Catarina (ZSCE)","zona":"Zona de protección","zona_k":"proteccion","ha":356.17},"geometry":{"type":"MultiPolygon","coordinates":[[[[-98.971141,19.319596],[-98.97114,19.319596],[-98.970762,19.319295],[-98.97024,19.319072],[-98.970155,19.31902],[-98.970159,19.319013],[-98.970252,19.318834],[-98.970357,19.318814],[-98.970549,19.318771],[-98.970705,19.318778],[-98.970838,19.318852],[-98.970886,19.318875],[-98.971049,19.318857],[-98.971139,19.318604],[-98.971298,19.31834],[-98.970611,19.317924],[-98.970184,19.317522],[-98.970018,19.317526],[-98.969641,19.317716],[-98.9694,19.317795],[-98.969409,19.31775],[-98.969594,19.317323],[-98.96966,19.317253],[-98.969669,19.317024],[-98.969701,19.316864],[-98.969967,19.316317],[-98.969674,19.316225],[-98.969493,19.316191],[-98.969479,19.316252],[-98.969272,19.316227],[-98.969154,19.316184],[-98.96897,19.316229],[-98.969209,19.315904],[-98.969241,19.315879],[-98.969598,19.31559],[-98.969664,19.315465],[-98.96913,19.31521],[-98.969676,19.314874],[-98.969281,19.314126],[-98.969258,19.313988],[-98.969233,19.313845],[-98.96913,19.313504],[-98.969467,19.312519],[-98.969428,19.312449],[-98.969273,19.312352],[-98.969322,19.312298],[-98.969408,19.31225],[-98.969517,19.312248],[-98.969742,19.312296],[-98.969976,19.312363],[-98.97013,19.312264],[-98.970166,19.312255],[-98.970242,19.312303],[-98.970408,19.312368],[-98.970398,19.312434],[-98.970631,19.31261],[-98.970797,19.312716],[-98.970958,19.31282],[-98.970891,19.31291],[-98.97099,19.312983],[-98.970756,19.313265],[-98.970769,19.313281],[-98.97073,19.313387],[-98.970751,19.313462],[-98.970801,19.313505],[-98.970936,19.313498],[-98.971023,19.313566],[-98.971171,19.31357],[-98.971314,19.313591],[-98.971457,19.313552],[-98.971507,19.313505],[-98.971539,19.313491],[-98.97155,19.313423],[-98.971566,19.31338],[-98.971584,19.31331],[-98.971548,19.313252],[-98.971377,19.312788],[-98.971357,19.31263],[-98.97132,19.312549],[-98.971261,19.31249],[-98.97121,19.31244],[-98.971071,19.312294],[-98.970869,19.312102],[-98.970755,19.312007],[-98.970778,19.311399],[-98.970838,19.311369],[-98.971502,19.312194],[-98.971912,19.312698],[-98.972706,19.311496],[-98.972917,19.311234],[-98.97297,19.311049],[-98.972979,19.311051],[-98.972978,19.311054],[-98.972978,19.311063],[-98.972982,19.311063],[-98.972985,19.311072],[-98.972997,19.31109],[-98.973004,19.311108],[-98.973012,19.311115],[-98.973019,19.311126],[-98.973023,19.311137],[-98.973035,19.311155],[-98.973038,19.311162],[-98.973049,19.311173],[-98.973053,19.31118],[-98.973064,19.311198],[-98.973072,19.311214],[-98.973076,19.311225],[-98.973087,19.311232],[-98.973091,19.311243],[-98.973102,19.311261],[-98.973109,19.311279],[-98.973117,19.311291],[-98.973121,19.311307],[-98.973128,19.311343],[-98.973136,19.311361],[-98.973139,19.311374],[-98.973143,19.31139],[-98.973147,19.311408],[-98.973158,19.311442],[-98.973162,19.31146],[-98.973166,19.311476],[-98.973173,19.311485],[-98.973177,19.311508],[-98.973181,19.311526],[-98.973188,19.311535],[-98.973192,19.311551],[-98.973196,19.311569],[-98.973207,19.311603],[-98.973211,19.311621],[-98.973214,19.311636],[-98.973218,19.31165],[-98.973226,19.311668],[-98.973233,19.311704],[-98.973237,19.31172],[-98.973244,19.311736],[-98.973248,19.311749],[-98.973252,19.311768],[-98.973263,19.311804],[-98.973267,19.311822],[-98.973271,19.311835],[-98.973278,19.311849],[-98.973282,19.311867],[-98.973289,19.311903],[-98.973297,19.311921],[-98.973301,19.311935],[-98.973304,19.311948],[-98.973312,19.311966],[-98.973316,19.311984],[-98.973319,19.311998],[-98.973323,19.312014],[-98.973331,19.312032],[-98.973338,19.312066],[-98.973342,19.312084],[-98.973349,19.3121],[-98.973353,19.312109],[-98.973357,19.312131],[-98.973368,19.312167],[-98.973372,19.312183],[-98.973376,19.312192],[-98.973383,19.312201],[-98.973395,19.312217],[-98.973406,19.312219],[-98.973413,19.312224],[-98.973443,19.312251],[-98.973455,19.312256],[-98.973462,19.31226],[-98.973492,19.312287],[-98.9735,19.312292],[-98.973511,19.312294],[-98.973537,19.312323],[-98.973548,19.312326],[-98.973556,19.312335],[-98.973586,19.31236],[-98.973597,19.312362],[-98.973605,19.312369],[-98.973635,19.312393],[-98.973642,19.312402],[-98.973653,19.312405],[-98.973669,19.312418],[-98.973672,19.312427],[-98.97368,19.312445],[-98.973691,19.312461],[-98.973699,19.312479],[-98.973706,19.312491],[-98.973713,19.312502],[-98.973721,19.312509],[-98.973729,19.312527],[-98.97374,19.312545],[-98.973747,19.312563],[-98.973751,19.312572],[-98.973759,19.312626],[-98.973751,19.31268],[-98.973749,19.312707],[-98.973848,19.313186],[-98.974889,19.313535],[-98.975096,19.312484],[-98.975452,19.312875],[-98.976472,19.31231],[-98.976479,19.312292],[-98.976495,19.312267],[-98.976498,19.312251],[-98.976502,19.312238],[-98.976509,19.312227],[-98.976517,19.312209],[-98.976528,19.312193],[-98.976532,19.312184],[-98.976536,19.31217],[-98.976547,19.31215],[-98.976555,19.312132],[-98.976566,19.312109],[-98.976573,19.312091],[-98.976585,19.312075],[-98.976573,19.312057],[-98.976566,19.312039],[-98.976555,19.312021],[-98.976547,19.312003],[-98.976536,19.311985],[-98.976532,19.311974],[-98.976528,19.311867],[-98.976525,19.311761],[-98.976502,19.311739],[-98.976495,19.311721],[-98.976457,19.311687],[-98.976453,19.311678],[-98.976446,19.311669],[-98.976431,19.311653],[-98.976446,19.311644],[-98.976453,19.311632],[-98.976457,19.311621],[-98.976476,19.311603],[-98.976483,19.311585],[-98.976502,19.311569],[-98.976509,19.31156],[-98.976513,19.311551],[-98.976543,19.311526],[-98.976547,19.311515],[-98.97657,19.311486],[-98.976581,19.311467],[-98.9766,19.311452],[-98.976604,19.311443],[-98.976607,19.311434],[-98.976626,19.311416],[-98.976637,19.311397],[-98.976667,19.311368],[-98.976675,19.31135],[-98.976694,19.311332],[-98.976705,19.311316],[-98.976724,19.311298],[-98.976731,19.31128],[-98.976761,19.311251],[-98.976769,19.311233],[-98.976791,19.311214],[-98.976799,19.311199],[-98.976817,19.311181],[-98.976829,19.311162],[-98.976847,19.311144],[-98.976855,19.311126],[-98.976885,19.311097],[-98.976892,19.311081],[-98.976915,19.311063],[-98.976919,19.311054],[-98.976922,19.311045],[-98.976948,19.31102],[-98.976956,19.310998],[-98.9769,19.310979],[-98.976881,19.310977],[-98.976862,19.31097],[-98.976855,19.310961],[-98.97684,19.310937],[-98.976832,19.310921],[-98.976821,19.310903],[-98.976814,19.310885],[-98.976803,19.310862],[-98.976795,19.310844],[-98.976784,19.310828],[-98.976776,19.31081],[-98.976765,19.310792],[-98.976757,19.310774],[-98.976746,19.310756],[-98.976739,19.310738],[-98.976727,19.31072],[-98.976724,19.310711],[-98.976712,19.310702],[-98.976709,19.310693],[-98.976697,19.310674],[-98.97669,19.310656],[-98.976679,19.310638],[-98.976671,19.31062],[-98.97666,19.310602],[-98.976652,19.310584],[-98.976641,19.310566],[-98.976634,19.31055],[-98.976622,19.310532],[-98.976615,19.310514],[-98.976604,19.310491],[-98.976596,19.310473],[-98.976585,19.310458],[-98.976574,19.310439],[-98.97657,19.31043],[-98.976566,19.310417],[-98.976562,19.310403],[-98.976555,19.310381],[-98.976547,19.310336],[-98.976536,19.310288],[-98.976529,19.310245],[-98.976517,19.3102],[-98.976514,19.31018],[-98.97651,19.31015],[-98.976502,19.310121],[-98.976499,19.310101],[-98.976491,19.310053],[-98.97648,19.31001],[-98.976472,19.309965],[-98.976465,19.309942],[-98.976461,19.309933],[-98.976462,19.309911],[-98.976526,19.309542],[-98.976543,19.309459],[-98.976615,19.309296],[-98.976722,19.309104],[-98.976918,19.308826],[-98.977148,19.308533],[-98.977298,19.308386],[-98.977377,19.30828],[-98.977533,19.307941],[-98.977592,19.307661],[-98.977671,19.307295],[-98.977781,19.3071],[-98.977538,19.306999],[-98.977732,19.306633],[-98.977549,19.306422],[-98.977276,19.306522],[-98.977022,19.306445],[-98.975429,19.305342],[-98.975312,19.305265],[-98.975864,19.304836],[-98.975916,19.304771],[-98.979409,19.302279],[-98.980081,19.301818],[-98.980719,19.301348],[-98.982626,19.302458],[-98.984338,19.300655],[-98.985006,19.298999],[-98.985602,19.298391],[-98.986368,19.297743],[-98.988135,19.296733],[-98.989845,19.297531],[-98.992197,19.296329],[-98.993735,19.295324],[-98.995968,19.295624],[-98.995885,19.29646],[-98.994975,19.296548],[-98.994899,19.297933],[-98.995192,19.297908],[-98.997985,19.297737],[-98.997402,19.297447],[-98.997452,19.297113],[-98.997453,19.297038],[-98.997545,19.296449],[-98.997569,19.296347],[-98.997911,19.296343],[-98.998155,19.296372],[-98.998926,19.296564],[-98.99884,19.297172],[-98.99977,19.297264],[-98.99985,19.29679],[-99.000189,19.296876],[-99.000412,19.296948],[-99.000554,19.297],[-99.000851,19.297095],[-99.001927,19.296849],[-99.00202,19.296828],[-99.003069,19.296553],[-99.003217,19.296501],[-99.003719,19.296374],[-99.00482,19.296433],[-99.005346,19.296501],[-99.005741,19.296582],[-99.006397,19.29672],[-99.006697,19.296792],[-99.006722,19.29693],[-99.006659,19.297176],[-99.006581,19.297409],[-99.006457,19.297764],[-99.006335,19.298001],[-99.006208,19.298234],[-99.012755,19.299218],[-99.012888,19.300255],[-99.0134,19.300517],[-99.013487,19.300899],[-99.01466,19.301023],[-99.017202,19.300406],[-99.017177,19.301751],[-99.017076,19.301791],[-99.017054,19.301861],[-99.017219,19.30195],[-99.016917,19.303161],[-99.017218,19.303271],[-99.017424,19.304505],[-99.018582,19.305067],[-99.019553,19.305119],[-99.019042,19.304017],[-99.019086,19.303983],[-99.019256,19.304023],[-99.0208,19.304437],[-99.020908,19.304475],[-99.02105,19.304179],[-99.021143,19.303935],[-99.021156,19.303915],[-99.021992,19.304181],[-99.021968,19.304019],[-99.021835,19.303971],[-99.021892,19.303842],[-99.021823,19.303813],[-99.02191,19.303639],[-99.021919,19.303594],[-99.021825,19.303503],[-99.021869,19.303436],[-99.021885,19.303442],[-99.021921,19.303366],[-99.02194,19.303375],[-99.022178,19.303126],[-99.022318,19.302939],[-99.022509,19.302611],[-99.022761,19.302828],[-99.022914,19.302679],[-99.023278,19.302999],[-99.023662,19.303372],[-99.023663,19.303374],[-99.024114,19.305758],[-99.023922,19.306142],[-99.023591,19.305724],[-99.023216,19.305806],[-99.022938,19.305577],[-99.022838,19.305871],[-99.020879,19.305252],[-99.020681,19.305849],[-99.019497,19.305761],[-99.019486,19.306753],[-99.019317,19.308068],[-99.01778,19.307071],[-99.018045,19.306305],[-99.01716,19.306236],[-99.016476,19.305804],[-99.015421,19.305779],[-99.015158,19.305235],[-99.014068,19.304946],[-99.012293,19.304322],[-99.011349,19.305529],[-99.010798,19.305396],[-99.010926,19.305203],[-99.009985,19.304917],[-99.008957,19.304847],[-99.008113,19.30479],[-99.008369,19.304492],[-99.007589,19.304539],[-99.007765,19.303769],[-99.006374,19.303482],[-99.006025,19.303604],[-99.005041,19.30444],[-99.004986,19.303107],[-99.004013,19.303139],[-99.003381,19.302328],[-99.003258,19.302093],[-99.002316,19.302106],[-99.002073,19.301733],[-99.002114,19.301555],[-99.002106,19.301489],[-99.002043,19.30144],[-99.001876,19.301401],[-99.001781,19.301379],[-99.001788,19.301302],[-99.001769,19.300784],[-99.001171,19.30064],[-99.001117,19.300857],[-99.000287,19.300877],[-98.999787,19.302095],[-98.999533,19.302264],[-98.999169,19.302224],[-98.998844,19.301962],[-98.998401,19.301404],[-98.992988,19.299716],[-98.992675,19.30061],[-98.992251,19.302725],[-98.990999,19.302863],[-98.991118,19.303062],[-98.988489,19.302352],[-98.98814,19.303222],[-98.986875,19.303059],[-98.986764,19.303046],[-98.986657,19.303328],[-98.985015,19.302813],[-98.983662,19.305479],[-98.982869,19.305151],[-98.982524,19.305583],[-98.982502,19.306816],[-98.982414,19.307076],[-98.98256,19.307329],[-98.982197,19.307948],[-98.981551,19.30793],[-98.98109,19.308289],[-98.98148,19.309563],[-98.980731,19.309229],[-98.980656,19.30934],[-98.97993,19.309193],[-98.979777,19.30922],[-98.97955,19.309739],[-98.979944,19.31002],[-98.980085,19.310275],[-98.980398,19.310842],[-98.980377,19.311208],[-98.980955,19.311434],[-98.980834,19.311696],[-98.980817,19.311753],[-98.980826,19.311841],[-98.981239,19.312119],[-98.981198,19.312699],[-98.981333,19.313052],[-98.98131,19.313248],[-98.981125,19.313788],[-98.981165,19.314071],[-98.981325,19.314254],[-98.981483,19.314383],[-98.981569,19.314538],[-98.981797,19.314685],[-98.981888,19.314846],[-98.981953,19.314959],[-98.982127,19.315115],[-98.982044,19.315381],[-98.981293,19.315641],[-98.98039,19.31647],[-98.980482,19.316931],[-98.979734,19.31727],[-98.980082,19.318259],[-98.978243,19.317602],[-98.97736,19.318176],[-98.976603,19.317861],[-98.975607,19.31752],[-98.975436,19.31757],[-98.974528,19.317823],[-98.974472,19.317954],[-98.974,19.317924],[-98.973533,19.317653],[-98.973317,19.317628],[-98.972654,19.319219],[-98.97198,19.320536],[-98.972054,19.321702],[-98.971066,19.322079],[-98.970969,19.321584],[-98.971358,19.321317],[-98.97095,19.321139],[-98.9712,19.319643],[-98.971141,19.319596]],[[-98.987308,19.297915],[-98.987312,19.297897],[-98.987319,19.297879],[-98.987323,19.297854],[-98.987327,19.297833],[-98.987335,19.297815],[-98.987338,19.297797],[-98.987342,19.297777],[-98.987346,19.297752],[-98.987353,19.297734],[-98.987357,19.297716],[-98.987361,19.297693],[-98.987364,19.297668],[-98.987372,19.297653],[-98.987376,19.297635],[-98.98738,19.297612],[-98.987387,19.297592],[-98.987391,19.297569],[-98.987394,19.297551],[-98.987398,19.297531],[-98.98741,19.297483],[-98.987413,19.297463],[-98.987417,19.297445],[-98.987424,19.297427],[-98.987428,19.297406],[-98.987432,19.297381],[-98.987436,19.297363],[-98.987443,19.297345],[-98.987447,19.297339],[-98.987447,19.297327],[-98.987417,19.297339],[-98.987398,19.297345],[-98.98738,19.297357],[-98.987361,19.297363],[-98.987342,19.297375],[-98.987323,19.297381],[-98.987305,19.297391],[-98.987286,19.2974],[-98.987267,19.297409],[-98.987248,19.297415],[-98.987237,19.297424],[-98.987222,19.297427],[-98.987211,19.297431],[-98.987199,19.297433],[-98.987181,19.297445],[-98.987162,19.297452],[-98.987143,19.297463],[-98.987124,19.297474],[-98.987106,19.297481],[-98.987087,19.297492],[-98.987068,19.297499],[-98.987046,19.297508],[-98.987027,19.297517],[-98.987019,19.297524],[-98.987015,19.297526],[-98.987008,19.297535],[-98.987004,19.297544],[-98.987001,19.297569],[-98.986989,19.297628],[-98.986985,19.297653],[-98.986982,19.297677],[-98.986974,19.297698],[-98.986971,19.297727],[-98.986963,19.297779],[-98.986955,19.297804],[-98.986952,19.297829],[-98.986948,19.297851],[-98.986944,19.297879],[-98.986937,19.297906],[-98.986933,19.29793],[-98.986929,19.297951],[-98.986922,19.29798],[-98.986914,19.298032],[-98.98691,19.298057],[-98.986903,19.298073],[-98.986903,19.298086],[-98.986933,19.298091],[-98.986955,19.298098],[-98.986982,19.2981],[-98.987008,19.298104],[-98.987038,19.298107],[-98.987061,19.298116],[-98.987109,19.298123],[-98.987132,19.298125],[-98.987162,19.298132],[-98.987192,19.298136],[-98.987214,19.298141],[-98.987237,19.298147],[-98.987248,19.29815],[-98.987256,19.29815],[-98.987263,19.298123],[-98.987267,19.298104],[-98.987271,19.298086],[-98.987275,19.298064],[-98.987282,19.298039],[-98.987286,19.298023],[-98.987289,19.298005],[-98.987293,19.297982],[-98.987305,19.297937],[-98.987308,19.297915]]]]}}]}