{
  "type": "FeatureCollection",
  "name": "embarcaderos",
  "crs": { "type": "name", "properties": { "name": "urn:ogc:def:crs:OGC:1.3:CRS84" } },
  "features": [
    {
      "type": "Feature",
      "properties": {
        "nombre": "EJEMPLO — reemplazar (turístico)",
        "tipo": "Turístico"
      },
      "geometry": {
        "type": "Point",
        "coordinates": [-99.10553, 19.27170]
      }
    },
    {
      "type": "Feature",
      "properties": {
        "nombre": "EJEMPLO — reemplazar (productivo)",
        "tipo": "Productivo"
      },
      "geometry": {
        "type": "Point",
        "coordinates": [-99.09850, 19.26480]
      }
    }
  ]
}
