{"type": "FeatureCollection", "name": "zona_patrimonio", "features": [{"type": "Feature", "properties": {"nombre": "Zona Patrimonio Mundial Natural y Cultural de la Humanidad", "capa": "ZPM_POLIGONO", "tipo": "contenedor", "ambito": "Internacional", "anio": 1987, "superficie_ha": 7534.17, "superficie_ha_geom": 7550.87, "color": "#444441", "es_contenedor": true, "orden": 0}, "geometry": {"type": "MultiPolygon", "coordinates": [[[[-99.098155, 19.317995], [-99.097839, 19.317482], [-99.094604, 19.313241], [-99.091827, 19.309774], [-99.087073, 19.304139], [-99.079987, 19.29548], [-99.075078, 19.289619], [-99.072066, 19.287451], [-99.069064, 19.284689], [-99.0648, 19.281971], [-99.064147, 19.281655], [-99.059907, 19.280135], [-99.053367, 19.288078], [-99.051351, 19.287598], [-99.050701, 19.287574], [-99.040106, 19.28516], [-99.039846, 19.283371], [-99.030899, 19.283146], [-99.027071, 19.297786], [-99.021653, 19.298664], [-99.020159, 19.29856], [-99.017002, 19.297781], [-99.016825, 19.298121], [-99.013812, 19.29714], [-99.013104, 19.29707], [-99.012999, 19.295913], [-99.013102, 19.293814], [-99.015389, 19.293941], [-99.016401, 19.294195], [-99.016709, 19.292237], [-99.006197, 19.276387], [-99.003416, 19.276349], [-98.997687, 19.272329], [-98.999363, 19.265939], [-98.99317, 19.26428], [-98.992402, 19.265676], [-98.993007, 19.269603], [-98.991421, 19.279521], [-98.971891, 19.276927], [-98.976393, 19.253036], [-98.965848, 19.249803], [-98.968427, 19.231928], [-98.944791, 19.224577], [-98.940473, 19.223019], [-98.94305, 19.215573], [-98.945114, 19.216251], [-98.95119, 19.217796], [-98.952167, 19.216111], [-98.955891, 19.214695], [-98.957701, 19.215001], [-98.958608, 19.214987], [-98.959344, 19.214784], [-98.959753, 19.214656], [-98.960071, 19.214692], [-98.960681, 19.214324], [-98.961361, 19.214396], [-98.962574, 19.214439], [-98.963085, 19.214362], [-98.963158, 19.214207], [-98.963709, 19.214322], [-98.963935, 19.214495], [-98.964326, 19.214498], [-98.964571, 19.213697], [-98.96509, 19.213829], [-98.965662, 19.212555], [-98.966655, 19.211777], [-98.966848, 19.211852], [-98.967259, 19.211543], [-98.967937, 19.210663], [-98.968552, 19.210553], [-98.969483, 19.210968], [-98.969906, 19.211253], [-98.971382, 19.211877], [-98.972394, 19.212641], [-98.973522, 19.214005], [-98.974318, 19.214399], [-98.974967, 19.214555], [-98.988601, 19.216812], [-98.991341, 19.21695], [-98.991401, 19.215022], [-98.996416, 19.215183], [-98.996029, 19.217095], [-98.994835, 19.217033], [-98.994745, 19.218674], [-98.995434, 19.21873], [-98.995118, 19.22057], [-98.995872, 19.220571], [-98.995774, 19.221117], [-98.995498, 19.221672], [-98.995204, 19.221796], [-98.99303, 19.22166], [-98.993025, 19.223222], [-98.994528, 19.23076], [-98.994827, 19.234322], [-98.994799, 19.235938], [-98.996044, 19.236836], [-98.996933, 19.237719], [-98.998057, 19.239305], [-98.998632, 19.240115], [-98.999624, 19.241534], [-98.997942, 19.244466], [-99.001037, 19.245963], [-99.005388, 19.247844], [-99.007431, 19.249233], [-99.007872, 19.249367], [-99.00908, 19.250345], [-99.00964, 19.25039], [-99.012225, 19.251153], [-99.011974, 19.251853], [-99.015527, 19.252857], [-99.014912, 19.254629], [-99.02009, 19.255987], [-99.024349, 19.257421], [-99.026281, 19.25767], [-99.026719, 19.257919], [-99.028065, 19.258298], [-99.02971, 19.258462], [-99.030216, 19.258408], [-99.030737, 19.258237], [-99.032346, 19.258411], [-99.03259, 19.25831], [-99.032961, 19.25805], [-99.03325, 19.257607], [-99.033415, 19.256779], [-99.033705, 19.256288], [-99.034322, 19.255909], [-99.038214, 19.254988], [-99.040348, 19.25517], [-99.047225, 19.253443], [-99.049514, 19.251526], [-99.053285, 19.249855], [-99.058642, 19.248851], [-99.059535, 19.248741], [-99.060183, 19.249041], [-99.060539, 19.249584], [-99.060732, 19.250501], [-99.060906, 19.250882], [-99.061485, 19.251536], [-99.06188, 19.252563], [-99.062228, 19.253028], [-99.062645, 19.253428], [-99.064903, 19.254803], [-99.065347, 19.254905], [-99.065848, 19.254877], [-99.066106, 19.254789], [-99.068113, 19.253769], [-99.069185, 19.252909], [-99.071079, 19.250021], [-99.071247, 19.249671], [-99.07134, 19.248882], [-99.07142, 19.248827], [-99.071411, 19.248244], [-99.070986, 19.247722], [-99.072524, 19.246637], [-99.071816, 19.245712], [-99.070724, 19.245578], [-99.070053, 19.245369], [-99.069757, 19.245144], [-99.068783, 19.244744], [-99.068702, 19.244464], [-99.069002, 19.243957], [-99.068912, 19.243492], [-99.068647, 19.24319], [-99.068275, 19.242994], [-99.067721, 19.242922], [-99.067633, 19.242665], [-99.067595, 19.241859], [-99.067741, 19.241161], [-99.06769, 19.241001], [-99.067491, 19.240613], [-99.06746, 19.240414], [-99.067481, 19.240289], [-99.067383, 19.2399], [-99.068043, 19.239742], [-99.068358, 19.239747], [-99.068795, 19.239968], [-99.068939, 19.239943], [-99.069135, 19.239809], [-99.069685, 19.239713], [-99.069817, 19.239656], [-99.070486, 19.239748], [-99.070702, 19.240049], [-99.071137, 19.2404], [-99.071572, 19.240536], [-99.071833, 19.240867], [-99.071827, 19.241365], [-99.072118, 19.241565], [-99.073435, 19.242818], [-99.074, 19.243077], [-99.074324, 19.243357], [-99.075396, 19.244693], [-99.075637, 19.244539], [-99.076055, 19.24417], [-99.076212, 19.244357], [-99.076435, 19.24479], [-99.076625, 19.244963], [-99.0777, 19.245365], [-99.080019, 19.245324], [-99.080341, 19.24525], [-99.080686, 19.245068], [-99.081645, 19.24413], [-99.082291, 19.243084], [-99.082688, 19.242757], [-99.084083, 19.242399], [-99.084797, 19.24239], [-99.085408, 19.242745], [-99.086885, 19.245304], [-99.087057, 19.246396], [-99.087305, 19.24676], [-99.087676, 19.247103], [-99.088201, 19.247373], [-99.08876, 19.247422], [-99.089312, 19.247201], [-99.09002, 19.246726], [-99.091264, 19.246068], [-99.091226, 19.243785], [-99.093535, 19.243785], [-99.093568, 19.246], [-99.093973, 19.246221], [-99.09464, 19.247235], [-99.096207, 19.248254], [-99.096632, 19.248385], [-99.097106, 19.248445], [-99.098303, 19.248504], [-99.09875, 19.24845], [-99.101279, 19.247396], [-99.101708, 19.247044], [-99.102404, 19.245992], [-99.106298, 19.249733], [-99.105298, 19.255461], [-99.11023, 19.257042], [-99.112574, 19.26111], [-99.110927, 19.267224], [-99.108712, 19.266365], [-99.108121, 19.267802], [-99.108749, 19.268624], [-99.109063, 19.269385], [-99.109196, 19.269833], [-99.109021, 19.270147], [-99.108851, 19.270793], [-99.109031, 19.271313], [-99.109575, 19.271805], [-99.111672, 19.272402], [-99.114698, 19.273241], [-99.119349, 19.274729], [-99.118946, 19.275019], [-99.11593, 19.27674], [-99.106511, 19.281775], [-99.105593, 19.282413], [-99.105118, 19.287664], [-99.106163, 19.287747], [-99.106119, 19.285799], [-99.106248, 19.285491], [-99.10656, 19.285125], [-99.106892, 19.284967], [-99.115764, 19.281085], [-99.116154, 19.281039], [-99.116376, 19.281139], [-99.116486, 19.281276], [-99.116545, 19.281513], [-99.115257, 19.28569], [-99.114081, 19.289077], [-99.11396, 19.289269], [-99.113843, 19.289377], [-99.113394, 19.289495], [-99.101149, 19.294322], [-99.100343, 19.301358], [-99.099262, 19.314747], [-99.099029, 19.319528], [-99.098155, 19.317995]]]]}}, {"type": "Feature", "properties": {"nombre": "Sitio Ramsar No. 1363 · Sistema Lacustre Ejidos de Xochimilco y San Gregorio Atlapulco", "capa": "RAMSAR_1363", "tipo": "designacion", "ambito": "Internacional", "anio": 2004, "anio_actualizacion": 2023, "superficie_ha": null, "superficie_ha_geom": 2604.88, "color": "#1D9E75", "es_contenedor": false, "orden": 1}, "geometry": {"type": "MultiPolygon", "coordinates": [[[[-99.071812, 19.286993], [-99.07091, 19.286185], [-99.069236, 19.284645], [-99.069033, 19.284547], [-99.068558, 19.28429], [-99.067975, 19.283931], [-99.066811, 19.283208], [-99.066163, 19.282662], [-99.065669, 19.28228], [-99.065123, 19.282016], [-99.06468, 19.281763], [-99.0636, 19.281432], [-99.060779, 19.280592], [-99.059578, 19.280235], [-99.057842, 19.279716], [-99.055793, 19.279085], [-99.055388, 19.279069], [-99.054293, 19.278916], [-99.053407, 19.278527], [-99.052379, 19.27803], [-99.051172, 19.277613], [-99.050565, 19.277231], [-99.050171, 19.276989], [-99.049839, 19.276779], [-99.049317, 19.276493], [-99.047996, 19.275711], [-99.045307, 19.274833], [-99.043546, 19.274239], [-99.041148, 19.273456], [-99.04055, 19.273113], [-99.037954, 19.27159], [-99.036903, 19.27141], [-99.035797, 19.270635], [-99.033745, 19.26775], [-99.033579, 19.267387], [-99.033355, 19.267276], [-99.031842, 19.267118], [-99.031336, 19.267134], [-99.030862, 19.267023], [-99.030522, 19.266913], [-99.030098, 19.266669], [-99.029699, 19.266479], [-99.029342, 19.266384], [-99.028674, 19.266246], [-99.028103, 19.266075], [-99.027902, 19.265962], [-99.027603, 19.265804], [-99.027171, 19.265614], [-99.026511, 19.265359], [-99.02587, 19.265113], [-99.025316, 19.264948], [-99.024945, 19.264688], [-99.024607, 19.264388], [-99.024354, 19.264173], [-99.023964, 19.263866], [-99.023593, 19.263617], [-99.023328, 19.263412], [-99.02298, 19.263084], [-99.022543, 19.2628], [-99.022197, 19.262673], [-99.021931, 19.262556], [-99.021636, 19.262346], [-99.021487, 19.262183], [-99.021331, 19.262002], [-99.021158, 19.261819], [-99.021078, 19.261742], [-99.020956, 19.261614], [-99.020872, 19.261564], [-99.020788, 19.261514], [-99.020627, 19.261449], [-99.020556, 19.261399], [-99.020472, 19.261374], [-99.02015, 19.26127], [-99.019724, 19.26113], [-99.019568, 19.26108], [-99.019333, 19.261017], [-99.020071, 19.260787], [-99.021374, 19.260888], [-99.026514, 19.26225], [-99.027209, 19.260126], [-99.027546, 19.259344], [-99.028936, 19.25971], [-99.030525, 19.259721], [-99.031338, 19.259545], [-99.033135, 19.259025], [-99.033845, 19.25881], [-99.034239, 19.258803], [-99.033345, 19.261524], [-99.033111, 19.264535], [-99.034223, 19.26498], [-99.036793, 19.263322], [-99.037758, 19.258444], [-99.042863, 19.259353], [-99.047942, 19.255262], [-99.051578, 19.255709], [-99.051885, 19.255786], [-99.063416, 19.257176], [-99.068089, 19.259693], [-99.068424, 19.259702], [-99.068585, 19.259655], [-99.070777, 19.259622], [-99.0717, 19.259588], [-99.072117, 19.259687], [-99.072605, 19.259852], [-99.074484, 19.260545], [-99.075561, 19.257549], [-99.079395, 19.257622], [-99.0791, 19.261212], [-99.081076, 19.261789], [-99.09313, 19.264861], [-99.094058, 19.265669], [-99.095252, 19.26608], [-99.096406, 19.266497], [-99.09737, 19.266847], [-99.097667, 19.266955], [-99.098237, 19.267097], [-99.098913, 19.266891], [-99.099294, 19.265111], [-99.101196, 19.268053], [-99.102296, 19.272169], [-99.102972, 19.273827], [-99.103069, 19.27369], [-99.103447, 19.273312], [-99.103872, 19.272711], [-99.104265, 19.272159], [-99.104674, 19.271619], [-99.104788, 19.271375], [-99.104925, 19.27126], [-99.105475, 19.27027], [-99.105546, 19.270046], [-99.106064, 19.269357], [-99.106688, 19.268516], [-99.107666, 19.267307], [-99.108348, 19.26518], [-99.10963, 19.265405], [-99.108999, 19.267679], [-99.110616, 19.272038], [-99.119308, 19.274791], [-99.108153, 19.280833], [-99.106956, 19.281565], [-99.106387, 19.281961], [-99.10563, 19.282653], [-99.105379, 19.28604], [-99.106105, 19.286279], [-99.106231, 19.28568], [-99.106358, 19.285411], [-99.106736, 19.285049], [-99.109451, 19.28388], [-99.114092, 19.281866], [-99.116176, 19.281027], [-99.116618, 19.281625], [-99.115358, 19.285464], [-99.11416, 19.289213], [-99.101959, 19.294478], [-99.101319, 19.294747], [-99.10128, 19.295314], [-99.101101, 19.297189], [-99.100937, 19.298683], [-99.100751, 19.301442], [-99.100445, 19.304501], [-99.100113, 19.307741], [-99.099758, 19.311417], [-99.099526, 19.314487], [-99.099389, 19.315746], [-99.09925, 19.317628], [-99.099164, 19.318771], [-99.09911, 19.319356], [-99.098991, 19.319707], [-99.098851, 19.319736], [-99.098701, 19.31923], [-99.098449, 19.318374], [-99.098431, 19.318304], [-99.098294, 19.318094], [-99.098201, 19.317956], [-99.098033, 19.31757], [-99.097967, 19.317457], [-99.097728, 19.316942], [-99.097494, 19.316639], [-99.097286, 19.3164], [-99.096966, 19.316034], [-99.096645, 19.315646], [-99.096339, 19.315275], [-99.096033, 19.314959], [-99.095703, 19.314453], [-99.095345, 19.313972], [-99.095015, 19.313541], [-99.094532, 19.313026], [-99.094046, 19.312554], [-99.093701, 19.311998], [-99.093347, 19.311449], [-99.092882, 19.310878], [-99.09258, 19.310519], [-99.092399, 19.310248], [-99.091701, 19.309474], [-99.091546, 19.309318], [-99.090891, 19.308557], [-99.090572, 19.308173], [-99.090245, 19.307773], [-99.089926, 19.307323], [-99.089452, 19.306768], [-99.08858, 19.305756], [-99.088204, 19.305248], [-99.087889, 19.304823], [-99.087252, 19.304216], [-99.086559, 19.30336], [-99.085816, 19.302382], [-99.0854, 19.301829], [-99.085033, 19.301312], [-99.084448, 19.300681], [-99.083827, 19.2999], [-99.083353, 19.299367], [-99.082976, 19.298922], [-99.082164, 19.297928], [-99.081737, 19.297441], [-99.081387, 19.297027], [-99.080999, 19.296585], [-99.080627, 19.296113], [-99.080249, 19.295666], [-99.079861, 19.295225], [-99.079483, 19.294758], [-99.078906, 19.294035], [-99.078622, 19.293689], [-99.078242, 19.293215], [-99.077583, 19.292522], [-99.076907, 19.291765], [-99.076575, 19.291433], [-99.07539, 19.28987], [-99.075004, 19.289441], [-99.074352, 19.288793], [-99.074088, 19.288621], [-99.073088, 19.288181], [-99.072695, 19.28782], [-99.072495, 19.287734], [-99.071922, 19.287183], [-99.071812, 19.286993]]]]}}, {"type": "Feature", "properties": {"nombre": "AICA No. 37 · Ciénega de Tláhuac", "capa": "AICA_37", "tipo": "designacion", "ambito": "Internacional", "anio": 1999, "id_aica": 37, "superficie_ha": 2860.32, "superficie_ha_geom": 2860.32, "color": "#7F77DD", "es_contenedor": false, "orden": 2}, "geometry": {"type": "MultiPolygon", "coordinates": [[[[-98.979703, 19.287343], [-98.974875, 19.29016], [-98.972308, 19.290774], [-98.968729, 19.289953], [-98.964495, 19.289134], [-98.957576, 19.287878], [-98.955072, 19.287331], [-98.953826, 19.284626], [-98.950794, 19.280765], [-98.949669, 19.277673], [-98.950698, 19.273028], [-98.949631, 19.270433], [-98.947019, 19.265631], [-98.947086, 19.26331], [-98.94757, 19.260987], [-98.948412, 19.258609], [-98.946458, 19.253474], [-98.947245, 19.249493], [-98.948033, 19.245512], [-98.94494, 19.242093], [-98.944471, 19.239276], [-98.945973, 19.235514], [-98.948251, 19.232083], [-98.950941, 19.230474], [-98.954934, 19.232288], [-98.958397, 19.231673], [-98.961028, 19.229843], [-98.968246, 19.230987], [-98.971883, 19.231974], [-98.979045, 19.23146], [-98.985729, 19.231611], [-98.988645, 19.234201], [-98.987918, 19.237961], [-98.992317, 19.243919], [-98.99338, 19.24773], [-98.992775, 19.250495], [-98.994129, 19.256626], [-98.994002, 19.259334], [-98.993936, 19.26149], [-98.994579, 19.26602], [-98.992536, 19.271054], [-98.990317, 19.27454], [-98.993409, 19.278457], [-98.992089, 19.280836], [-98.989813, 19.283715], [-98.985987, 19.286156], [-98.98364, 19.286898], [-98.979703, 19.287343]]]]}}]}